name,address1,address2,city,state,zip,phone,type,url
"2 Crows Brewing Co","1932 Brunswick Street","Halifax, Canada",,,,"(902) 422-0222",,http://www.2crowsbrewing.com
"33 Acres Brewing Company","15 W 8th Ave","Vancouver, Canada",,,,"(604) 620-4589",brewpub,http://www.33acresbrewing.com
"4 Mile Brewing Co",,"Victoria, Canada",,,,,planning,
"4 Mile Brewing Company","199 Island Highway","Victoria, Canada",,,,"(250) 479-3346",,http://www.4milebrewingco.com
"5 Paddles Brewing Company","1390 Hopkins Street Unit 3","Whitby, Canada",,,,"(905) 665-3042",micro,http://www.5paddlesbrewing.com
"9 Mile Legacy Brewing","229 20 St W","Saskatoon, Canada",,,,,brewpub,
"A l`Abri de la Tempete","286 Chemin Coulombe","L`Etang-du-Nord, Canada",,,,"(418) 986-5005",micro,http://www.alabridelatempete.com
"Adventureland Ales",,"Kelowna, Canada",,,,1-778-214-1743,planning,
"Ala Bride De La Tempete","286 Ch. Companyulombe","Etang-du-nord, Canada",,,,"(418) 937-6484",,
"Alexander Keiths Brewery","1496 Lower Water St","Halifax, Canada",,,,"(902) 455-1474",micro,http://www.keiths.ca
"Alexander Keith's Pilot Brewery","1496 Lower Water Street","Halifax, Canada",,,,,,
"All Or Nothing Brewhouse","1156 Speers Rd","Oakville, Canada",,,,"(905) 337-0133",micro,http://www.allornothing.beer
"Alley Kat Brewing Co","9929 60 Ave NW","Edmonton, Canada",,,,"(780) 436-8922",micro,http://www.alleykatbeer.com
"Amber`s Brewing Co","9926 - 78 Avenue NW","Edmonton, Canada",,,,"(780) 628-2305",micro,http://www.ambersbrewing.com
"Ambleside Brewing Co","1531 Clyde Ave","W Vancouver, Canada",,,,"(604) 926-6636",,http://www.amblesidebrewing.com/
"Amsterdam Brewing Co","45 Esandar Dr","Toronto, Canada",,,,"(416) 504-1040",regional,http://www.amsterdambeer.com
"Andina Brewing Company Inc.","1507 Powell Street","Vancouver, Canada",,,,"(604) 253-2400",micro,http://www.andinabrewing.ca
"Another Beer Company Inc.",,"New Westminster, Canada",,,,,planning,http://anotherbeerco.com
"Archibald Microbrasserie","1021 Blvd du Lac","Lac-Beauport, Canada",,,,"(418) 841-2224",micro,
"Ashton Brewing Company","113-159 Old Mill Road","Beckwith, Canada",,,,"(613) 257-4423",brewpub,http://www.ashtonbrewpub.ca
"Avling Brewery",,"Toronto, Canada",,,,,planning,
"Axe & Barrel Brewing Company","2323 Millstream Ave","Victoria, Canada",,,,"(250) 474-1989",brewpub,http://www.axeandbarrel.com/
"Bad Tattoo Brewing","169 Estrabrook Ave","Penticton, Canada",,,,"(250) 493-8686",brewpub,
"Banded Goose Brewing Company","31 Division Street South","Kingsville, Canada",,,,"(519) 733-6900",brewpub,http://www.jacksgastropub.com
"Banff Ave Brewing Company","110 Banff Ave 2nd Floor Clocktower Village Mall","Banff, Canada",,,,"(403) 762-1003",,http://www.banffavebrewingco.ca
"Bar Volo","28 Dundonald St, Suite 1","Toronto, Canada",,,,"(416) 920-2434",brewpub,http://www.barvolo.com
"Baril Roulant","1430 Rue De L'Académie","Val-David, Canada",,,,"(819) 322-2280",micro,http://barilroulant.com/
"Barkerville Brewing Co.","185 Davie St","Quesnel, Canada",,,,"(778) 414-2739",micro,
"Barley Days Brewery","13730 Loyalist Pkwy","Prince Edward, Canada",,,,"(613) 476-7468",micro,
"Barley Mill Brew Pub","6155 Rochdale Blvd","Regina, Canada",,,,"(306) 949-1500",brewpub,
"Barley Mill Brewpub, The","2460 Skaha Lake Road","Penticton, Canada",,,,"(250) 493-8000",brewpub,http://www.barleymillpub.com
"Barley Station Brew Pub","20 Shuswap St. N","Salmon Arm, Canada",,,,"(250) 832-0999",brewpub,http://www.barleystation.com
"Barley Station Brewpub","20 Shuswap Street N","Salmon Arm, Canada",,,,"(250) 832-0999",brewpub,http://www.barleystation.com
"Barn Hammer Brewing Co","595 Wall St","Winnipeg, Canada",,,,1-204-951-7354,,http://barnhammerbrewing.ca
"BarNone Brewery and Hop Farm","4248 Route 225","Breadalbane, Canada",,,,"(902) 394-6897",micro,
"Barnside Brewing Co.","6545 60th Ave","Delta, Canada",,,,"(604) 313-9505",micro,
"Barnstormer Brewing","384 Yonge Street Unit 3","Barrie, Canada",,,,"(705) 481-1701",brewpub,http://www.barnstormerbrewing.com
"Bayside Brewing Company",,"Erieau, Canada",,,,"(519) 676-1888",planning,http://www.baysidebrewing.com
"Beau's All Natural Brewing Co","10 Terry Fox Dr","Vankleek Hill, Canada",,,,"(613) 678-2799",micro,http://www.beaus.ca
"Bedford Brewing","776 Fairview Rd","Victoria, Canada",,,,"(250) 995-2337",,http://www.bedfordbrewing.com
"Bedondaine & Bedons Ronds","255 Rue Ostiguy","Chambly, Canada",,,,"(450) 447-5165",micro,http://www.bedondaine.com
"Belgh Brasse","8 De La Brasserie","Amos, Canada",,,,"(819) 442-3839",micro,http://www.belghbrasse.com
"Bellwood's Brewery","124 Ossington Ave","Toronto, Canada",,,,"(416) 535-4586",brewpub,http://www.bellwoodsbrewery.com
"Bench Brewing Company",,"Oakville, Canada",,,,,planning,
"Bench Creek Brewing","53527 Rge Rd 181A","Yellowhead County, Canada",,,,78051770008,micro,http://www.benchcreekbrewing.com
"Benelux Brasserie Artisanale et Cafe","245 Rue Sherbrooke W","Montréal, Canada",,,,"(514) 543-9750",brewpub,http://brasseriebenelux.com
"Better Bitters Brewing Co","864 Drury Lane","Burlington, Canada",,,,"(905) 966-1471",micro,http://www.nickelbrook.com
"Beyond the Pale","250 City Centre Ave","Otawa, Canada",,,,"(613) 695-2991",micro,http://www.beyondthepale.ca
"Bicycle Craft Brewery","850 Industrial Ave #12","Ottawa, Canada",,,,"(613) 733-2337",micro,http://www.bicyclecraftbrewery.ca
"Bierbrier Brewing Inc","1250 Rene-Levesque West Suite 2200","Montreal, Canada",,,,"(514) 933-7576",micro,http://www.bierbrier.com
"Big Axe Brewery","519 Otis Dr","Nackawic, Canada",,,,"(506) 575-1093",micro,http://www.bigaxe.ca
"Big Ridge Brewing Co","5580 152 St","Surrey, Canada",,,,"(604) 574-2739",brewpub,
"Big Ridge Brewing Company","5580 152 St","Surrey, Canada",,,,"(604) 574-2739",brewpub,http://www.mjg.ca/big-ridge
"Big Rig Brewery","2750 Iris Street","Ottawa, Canada",,,,"(613) 688-3336",micro,
"Big River Brewing Co","14200 Entertainment Way, #180","Richmond, Canada",,,,"(604) 271-2739",micro,
"Big Rock Brewery Ltd","5555 76th Ave SE","Calgary, Canada",,,,"(403) 720-3239",regional,http://www.bigrockbrewery.com
"Big Surf Beer Co","8860 Jim Bailey Cres","Kelowna, Canada",,,,"(778) 480-5530",,
"Big Tide Brewing Company","47 Princess St","Saint John, Canada",,,,"(506) 214-3311",brewpub,http://www.bigtidebrew.com
"Bistro Brasserie Les Soeurs Grises","32 Rue McGill","Montreal, Canada",,,,"(514) 788-7635",brewpub,http://www.bblsg.com
"Bistro L'Autre Oeil","55 Rue Principale","Gatineau, Canada",,,,"(819) 682-1221",micro,http://www.lautreoeil.com
"Black Bridge Brewery Ltd","295 Alexander Drive P.O. Box 445","Swift Current, Canada",,,,13067734404,micro,http://www.blackbridgebrewery.ca
"Black Creek Historic Brewery","1000 Murray Ross Pkwy","Toronto, Canada",,,,"(416) 736-1733",brewpub,http://www.blackcreekbrewery.ca
"Black Kettle Brewing Co","720 Copping St","North Vancouver, Canada",,,,"(604) 987-9989",,
"Black Magic Brewing",,"West Kelowna, Canada",,,,,planning,
"Black Oak Brewing Co","75 Horner Ave","Toronto, Canada",,,,"(416) 252-2739",micro,http://www.blackoakbeer.com
"Black Swan Brewing Company","144 Downie St","Stratford, Canada",,,,"(519) 814-7926",micro,http://www.blackswanbrewing.ca
"Blind Enthusiasm Brewing Company",,"Edmonton, Canada",,,,+1-780-699-8862,planning,http://www.blindenthusiasm.ca
"Blindman Brewing","Bay F - 3413 53 Avenue","Lacombe, Canada",,,,"(403) 786-2337",micro,http://www.blindmanbrewing.com
"Block Three Brewing Company","1430-2 King Street North","St. Jacobs, Canada",,,,"(519) 664-1001",micro,
"BNA Brewing Company","1250 Ellis St.","Kelowna, Canada",,,,"(236) 420-0025",brewpub,http://www.bnabrewing.com
"Bobcaygeon Brewing Company","1 Fallingbrook Woods","Toronto, Canada",,,,"(705) 243-7077",contract,http://bobcaygeonbrewing.ca
"Bomber Brewing Co.","1488 Adanac St","Vancouver, Canada",,,,"(604) 428-7457",micro,http://www.bomberbrewing.com
"Bone Brewing Co","4-8860 Jim Bailey Cres","Kelowna, Canada",,,,,,
"Bonzzinis Brewpub","4634 Albert St","Regina, Canada",,,,"(306) 586-3553",brewpub,
Boquebiere,"50 Rue Wellington Nord","Sherbrooke, Canada",,,,"(819) 542-1311",brewpub,http://www.boquebiere.com
"Bowen Island Brewing Co","965 McGill Pl","Kamloops, Canada",,,,"(250) 851-2543",contract,http://www.bowenislandbeer.com
"Boxing Rock Brewing Company","78 Ohio Rd","Shelburne, Canada",,,,"(902) 494-9233",micro,http://www.boxingrock.ca
"Brasserie Artisanale & Bistro / Reservoir","9 DuLuth Est","Montreal, Canada",,,,"(514) 849-7779",brewpub,http://www.brasseriereservoir.ca
"Brasserie Artisanale Albion","408 Boul Manseua","Joliette, Canada",,,,"(450) 759-7482",,http://www.brasseriealbion.com
"Brasserie Artisanale La Succursale","318 Rue Mason","Montreal, Canada",,,,"(514) 508-1615",,http://www.lasuccursale.com
"Brasserie Artisanale Le Saint Graal","32 Rue Turgeon","Sainte-Thérèse, Canada",,,,45081816039,brewpub,http://www.saintgraal.ca
"Brasserie Belgh Brasse","8 rue de la Brasserie","Amos, Canada",,,,"(819) 732-6519",micro,
"Brasserie Bierbrier","370 Rue Guy G9","Montreal , Canada",,,,,,
"Brasserie Dieu Du Ciel","29 Laurier Ouest","Montreal, Canada",,,,"(514) 490-9555",brewpub,http://www.dieuduciel.com
"Brasserie Dieu Du Ciel","259 rue de Villemure","Saint Jerome, Canada",,,,"(514) 490-9555",micro,http://www.dieuduciel.com
"Brasserie Dunham","3809 Rue Principale","Dunham, Canada",,,,"(450) 295-1500",micro,http://www.brasseriedunham.com
"Brasserie La Korrigane","380 Rue Dorchester","Quebec, Canada",,,,"(418) 614-0932",brewpub,http://www.korrigane.ca
"Brasserie Le Cardinal","5420 Martineau","St-Hyacinthe, Canada",,,,"(800) 945-1934",brewpub,http://www.lecardinal-brasserie.ch
"Brasserie Le Chaudron","107 Boulevard De Bromont","Bromont, Canada",,,,"(450) 534-0001",micro,
"Brasserie Le Trou Du Diable","412 Avenue Willow","Shawinigan, Canada",,,,"(819) 537-9151",brewpub,http://www.troududiable.com
"Brasserie McAuslan","5080 rue St Ambroise","Montreal, Canada",,,,"(514) 939-3060",regional,http://www.mcauslan.com
"Brasserie New Deal Brewery Co.","1500 Nobel Street","Boucherville, Canada",,,,"(514) 312-3035",micro,http://www.brasserie-newdeal.com
"Brasserie Saint-Antoine-Abbe","3299 QC-209","Franklin, Canada",,,,"(450) 826-4609",brewpub,http://www.brasserie-saint-antoine-abbe.com
"Brasserie Tchèquebec","4245 Route Marie-Victorin","Contrecoeur, Canada",,,,"(450) 587-2122",micro,
"Brasseries BVM du Canada","6729 Avenue De L`Esplanade","Montreal, Canada",,,,"(514) 908-2337",micro,
"Brasseurs De Montreal Inc","1485 Ottawa St","Montreal, Canada",,,,"(514) 788-4500",brewpub,
"Brasseurs Du Monde","3755 Rue Picard Porte 2","Saint-Hyacinthe, Canada",,,,"(450) 250-2611",micro,http://www.brasseursdumonde.ca
"Brasseurs et Freres","3809 rue Principale","Durham, Canada",,,,"(450) 247-2393",micro,http://www.betf.ca
"Brasseurs GMT","5585 Rue De La Roche","Montreal, Canada",,,,"(514) 274-4941",micro,
"Brasseurs Illimites","385 Rue Du Parc","Saint-Eustache, Canada",,,,"(450) 598-1363",micro,http://www.brasseursillimites.com
"Brasseurs Petit Sault","45 De L'Eglise St","Edmundston, Canada",,,,"(506) 733-1313",micro,http://www.petitsault.com
"Brasseurs RJ","5585 Rue de la Roche","Montreal, Canada",,,,"(514) 274-4941",regional,http://www.brasseursrj.com
"Brasseurs San Gluten","2350 Dickson","Montreal, Canada",,,,"(514) 933-2333",micro,http://www.brasseurssansgluten.com
"Brassneck Brewery","2148 Main St.","Vancouver, Canada",,,,"(604) 259-7686",,
"Brassuer De Montreal Brewing Company","1483 Ottawa","Montreal, Canada",,,,"(514) 788-4500",brewpub,http://www.brasseurdemontreal.com
"Brazen Hall Brewery","800 Pembina Hwy","Winnipeg, Canada",,,,"(204) 453-7980",brewpub,http://www.brazenhall.ca
"Brew Brothers Brewing Co","PO Box 82015 RPO Scarboro 607 - 11th Avenue SW","Calgary, Canada",,,,"(403) 258-2739",micro,
"Brewery in Planning - Calgary",,"Calgary, Canada",,,,"(403) 861-3529",planning,
"Brewery in Planning - Calgary",,"Calgary, Canada",,,,,planning,
"Brewery In Planning - Calgary",,"Calgary, Canada",,,,,planning,
"Brewery In Planning - Calgary",,"Calgary, Canada",,,,,planning,
"Brewery In Planning - Calgary",,"Calgary, Canada",,,,,planning,
"Brewery In Planning - Charlottetown",,"Alma, Canada",,,,,planning,
"Brewery in Planning - Kelowna",,"Kelowna, Canada",,,,"(250) 575-0787",planning,http://www.wildambition.beer
"Brewery in Planning - Mississauga",,"Mississauga, Canada",,,,"(647) 284-3956",planning,
"Brewery in Planning - Ottawa",,"Ottawa, Canada",,,,"(613) 882-8648",planning,http://www.kairosene.com
"Brewery In Planning - Ottawa","190 Colonnade Road Unit #17","Ottawa, Canada",,,,"(613) 863-8798",micro,http://nitabeer.com
"Brewery In Planning - Saint-Jacques",,"Saint-Jacques, Canada",,,,"(506) 737-3836",planning,
"Brewsters Brewing Co.","2335 111 Street","Edmonton, Canada",,,,"(780) 429-4677",regional,http://www.brewstersbrewingco.com
"Brewsters Brewing Co. - Crowfoot Crossing","25 Crowfoot Terrace NW","Calgary, Canada",,,,"(403) 208-2739",brewpub,http://www.brewstersbrewingco.com
"Brewsters Brewing Co. - Eau Clair Market","101 Barclay Parade SW","Calgary, Canada",,,,"(403) 233-2739",brewpub,http://www.brewstersbrewingco.com
"Brewsters Brewing Co. - Eleventh Ave","834 11th Ave SW","Calgary, Canada",,,,"(403) 265-2739",contract,http://www.brewstersbrewingco.com
"Brewsters Brewing Co. - Foothills","5519 53rd Street SE","Calgary, Canada",,,,"(403) 723-2739",brewpub,http://www.brewstersbrewingco.com
"Brewsters Brewing Co. - Lake Bonavista","25 Crowfoot Terrace NW","Calgary, Canada",,,,"(403) 225-2739",brewpub,http://www.brewstersbrewingco.com
"Brewsters Brewing Co. - Lakeside Landing","15327 Castledowns Road","Edmonton, Canada",,,,"(403) 208-2739",brewpub,http://www.brewstersbrewingco.com
"Brewsters Brewing Co. - Landmark","4180 Albert St.","Regina, Canada",,,,"(306) 757-2739",brewpub,http://www.brewstersbrewingco.com
"Brewsters Brewing Co. - Meadowlark","15820 87th Avenue","Edmonton, Canada",,,,"(780) 421-4677",brewpub,http://www.brewstersbrewingco.com
"Brewsters Brewing Co. - Normanview","480 North McCarthy Blvd","Regina, Canada",,,,"(306) 522-2739",brewpub,http://www.brewstersbrewingco.com
"Brewsters Brewing Co. - Oliver Square","11620 104th Ave","Edmonton, Canada",,,,"(780) 482-4677",brewpub,http://www.brewstersbrewingco.com
"Brewsters Brewing Co. - Victoria East","1832 Victoria Ave E","Regina, Canada",,,,"(306) 761-1500",brewpub,http://www.brewstersbrewingco.com
"Brick Brewing Co Ltd","181 King St S","Waterloo, Canada",,,,"(519) 576-9100",regional,http://www.brickbeer.com
"Bridge Brewing Company","1448 Charlotte Road","North Vancouver, Canada",,,,"(604) 770-2739",micro,http://www.bridgebrewing.com
"Bridges Ale House and Eatery","2415 22nd St W","Saskatoon, Canada",,,,"(306) 382-6060",brewpub,
"Brimstone Brewing Company","209 Ridge Road N","Ridgeway, Canada",,,,"(289) 876-8657",micro,http://www.brimstonebrerwing.ca
"Broadhead Brewing Company","81 Auriga Drive #14","Nepean, Canada",,,,"(613) 695-9444",,
"Broadway Microbrasserie","540 Ave Broadway","Shawinigan, Canada",,,,"(819) 537-0044",micro,http://www.bwmicrobrasserie.com
"Broadway Pub Brasserie","520 Av Broadway","Shawinigan, Canada",,,,"(819) 537-0044",brewpub,http://www.bwmicrobrasserie.com
"Broken Stick Brewing Company","5450 Canotek Rd Unit 78","Ottowa, Canada",,,,,micro,http://www.brokenstickbrewing.com
"Broue Alliance","3838 Boulevard Leman","Laval, Canada",,,,"(800) 667-8764",,
"Broue Pub Brouhaha","5860 De Lorimier","Montreal, Canada",,,,"(514) 271-7571",brewpub,
"Brunswick Bierworks","25 Curity Ave","East York, Canada",,,,"(416) 285-1269",micro,http://www.brunswickbierworks.com
Brutopia,"1219 Rue Crescent","Montreal, Canada",,,,"(514) 393-9277",brewpub,http://www.brutopia.net
"Buffalo Brewpub","278 1 Ave NE","Swift Current, Canada",,,,"(306) 778-9110",brewpub,
"Burnaby Brewing Co","3051 Underhill Ave","Burnaby, Canada",,,,"(604) 421-2929",,http://www.burnabybrewing.com
"Bushwakker Brewing Co Ltd","2206 Dewdney Ave","Regina, Canada",,,,"(306) 359-7276",brewpub,http://2206%20dewdney%20ave.
"Business In Planning",,"Kemptville, Canada",,,,,planning,
"BVM Breweries","6729 de L'esplanade","Montreal, Canada",,,,"(514) 908-2337",micro,
"C`est What?","67 Front St East","Toronto, Canada",,,,"(416) 867-9499",brewpub,http://www.cestwhat.com
"Calabogie Brewing Company","12612 Lanark Rd.","Calabogie, Canada",,,,"(613) 752-2739",micro,http://www.calabogiebrewingco.ca
"Callister Brewing Company","1338 Franklin St","Vancouver, Canada",,,,"(604) 569-2739",micro,http://www.callisterbrewing.com
"Camerons Brewing Co","1165 Invicta Drive","Oakville, Canada",,,,"(905) 849-8282",micro,
"Cannery Brewing","198 Ellis St","Penticton, Canada",,,,"(250) 493-2723",micro,http://www.cannerybrewing.com
"CANOE Brewpub","450 Swift St","Victoria, Canada",,,,"(250) 361-1940",brewpub,
"Canuck Empire Brewing","67-3087 Immel Street","Abbotsford, Canada",,,,"(604) 300-3639",,
"Cassel Brewing Company","715 Principale St","Casselman, Canada",,,,"(613) 369-4394",,
"Category 12 Brewing","Unit C 2200 Keating Cross Rd","Saanichton, Canada",,,,"(250) 652-9668",micro,http://www.category12beer.com
"CEEPS Barneys Ltd","671 Richmond St","London, Canada",,,,"(519) 432-1425",brewpub,
"Celtic Knot Brewing","23 Biggs Dr","Riverview, Canada",,,,"(506) 988-2551",contract,http://www.facebook.com/celticknotbrewing
"Central City Brewing Co","11411 Bridgeview Drive","Surrey, Canada",,,,"(604) 588-2337",brewpub,http://www.centralcitybrewing.com
"Charlys Brewpub / Timeout Brewing","4715 Tecumseh Road East","Windsor, Canada",,,,"(519) 945-5512",brewpub,http://www.mnsi.net/~dcoop/index.htm
"Chedabucto Bay Brewery / Rare Bird Pub","80 Main Street","Guysborough, Canada",,,,"(920) 533-2078",brewpub,http://www.rarebirdpub.com
"Cheshire Valley Brewing Co",,"Toronto, Canada",,,,,contract,
"Chillers Brew Pub","510 Home St W","Moose Jaw, Canada",,,,"(306) 694-5100",brewpub,
"Church Key Brewing Co","1678 County Rd #38","Campbellford, Canada",,,,"(705) 653-9950",micro,http://www.churchkeybrewing.com
"Church Spirits",,"Victoria, Canada",,,,"(250) 891-8045",planning,http://churchspirits.com
"Churchill Brewing Company","839 51st Street East","Saskatoon, Canada",,,,"(306) 974-0759",,
"Clarks Crossing Brewpub","3030 Diefenbaker Dr","Saskatoon, Canada",,,,"(306) 384-6633",brewpub,
"Clear Coast Brewery",,"Tusket, Canada",,,,,planning,
"Clearbrook Brewing","3275 McCallum Road","Abbotsford, Canada",,,,"(604) 850-8468",,http://www.clearbrookbrewing.com
"Clocktower Brewpub","575 Bank St","Ottawa, Canada",,,,"(613) 233-7849",brewpub,
"Coal Harbor Brewing Company","1967 Triumph Street","Vancouver, Canada",,,,"(604) 215-7471",micro,
"Collective Arts Brewing","207 Burlington St East","Hamilton, Canada",,,,"(289) 426-2374",micro,http://www.collectiveartsbrewing.com
"Cool Beer Brewing Co","164 Evans Avenue","Etobicoke, Canada",,,,"(416) 255-7100",micro,http://www.coolbeer.com
"Corsaire Microbrasserie","8780 Boul. Guillaume-Couture","Levis, Canada",,,,"(418) 903-9105",micro,http://www.corsairemicro.com
"Coulee Brew Co","4085 2 Ave S","Lethbridge, Canada",,,,"(403) 394-2337",brewpub,
"Covered Bridge Brewing","119 Iber Road #6","Stittsville, Canada",,,,"(613) 915-2337",micro,http://www.coveredbridgebrewing.com
"Cowbell Brewing Co","40035 Blyth Rd","Blyth, Canada",,,,"(519) 523-4724",contract,http://www.cowbellbrewing.com
"Craig Street Brewing","25 Craig Street","Duncan, Canada",,,,"(250) 737-2337",brewpub,
"Crannog Ales Ltd","706 Elson Road","Sorrento, Canada",,,,"(250) 675-6847",micro,
"Creekside Pub & Brewery","3215 Eastgate Drive","Regina, Canada",,,,"(306) 721-2739",brewpub,
"Creemore Springs Brewery","139 Mill St","Creemore, Canada",,,,"(705) 466-2240",regional,http://www.creemoresprings.com
"CrossRoads Brewing","508 George St","Prince George, Canada",,,,"(250) 614-2337",micro,http://www.crossroadscraft.com
"Cumberland Brewing Company","2732 Dunsmuir Ave","Cumberland, Canada",,,,"(250) 400-2739",,http://www.cumberlandbrewing.com
"Cutbank Brewery Ltd.",,"Prince George, Canada",,,,,planning,http://cutbankbrewery.com/
"Dageraad Brewing","3191 Thunderbird Cres #114","Burnaby, Canada",,,,"(604) 420-2050",contract,http://www.dageraadbrewing.com
"Dead Frog Brewery","27272 Gloucester Way Unit 1","Aldergrove, Canada",,,,"(888) 856-1055",micro,http://www.deadfrogbrewery.com
"Deep Cove Brewers and Distillers","2270 Dollarton Hwy Unit 170","North Vancouver, Canada",,,,"(604) 770-1136",micro,http://www.deepcovecraft.com
"Dieu Du Ciel","259 Rue De Villemure","St-Jérôme, Canada",,,,,,
"District Brewing Co","1555 8th Ave","Regina, Canada",,,,"(306) 790-2337",micro,http://districtbrewing.ca
"Dix Barbecue and Brewery","871 Beatty St","Vancouver, Canada",,,,"(604) 682-2739",brewpub,
"Doan's Craft Brewing Company","1830 Powell St.","Vancouver, Canada",,,,"(604) 559-0415",,http://www.doanscraftbrewing.com
"Dockside Brewing Co","1253 Johnson St","Vancouver, Canada",,,,"(604) 685-7070",brewpub,
"Dog Island Brewing","250 Caribou Trail SW","Slave Lake, Canada",,,,"(780) 849-1589",,http://www.dogislandbrewing.com
"Dominion City Brewing","5510 Canotek Road","Ottawa, Canada",,,,"(613) 688-6207",micro,
"Double Trouble Brewing Company",,", Canada",,,,1-855-467-5683,contract,http://www.doubletroublebrewing.com
"Driftwood Brewing Co","450 Hillside Ave #102","Victoria, Canada",,,,"(250) 590-3555",regional,http://www.driftwoodbeer.com
"Drummond Brewing Co, Ltd","6610 71 Street #8","Red Deer, Canada",,,,"(403) 346-1146",micro,http://www.drummondbeer.com
"Duke of Duckworth","325 Duckworth Street","St. Johns, Canada",,,,"(709) 739-6344",brewpub,http://www.theduke.nf.ca
"Durham Brewing Co","1885 Clements Rd","Pickering, Canada",,,,"(905) 686-3022",micro,
"East Vancouver Brewing Company",,"Vancouver, Canada",,,,,planning,
"Eastbound Brewing Company","700 Queen St East","Toronto, Canada",,,,"(416) 901-1299",brewpub,http://www.eastboundbeer.com
"F & M Brewery","355 Elmira Road","Guelph, Canada",,,,"(519) 824-1195",micro,http://www.fmbrewery.com
"Factory Brewing Ltd",,"Vancouver, Canada",,,,"(604) 615-2327",planning,http://www.factory.beer
"Faculty Brewing Co.","1830 Ontario Street","Vancouver, Canada",,,,"(778) 819-6794",micro,
"Falcon Brewing Company","30 Barr Rd","Ajax, Canada",,,,"(905) 686-6686",contract,http://www.sbc.beer
"Farmery Estate Brewery","480 MB-5","Neepawa, Canada",,,,"(204) 777-0909",micro,http://www.farmery.ca
"Farnham Ale and Lager","401 Boulevard De Normandie Nord","Farnham, Canada",,,,"(450) 293-1116",,
"Fat Cat Brewery","940 Old Victoria Rd #2","Nanaimo, Canada",,,,"(250) 716-2739",micro,
"Fat Unicorn Brewery","Box 276","Plamondon, Canada",,,,"(780) 623-0477",contract,http://www.fubrew.com
"Federation of Beer","PO Box 70065","Airdrie, Canada",,,,"(406) 290-1715",contract,http://www.federationofbeer.com
"Ferme Brasserie Schoune","2075 Chemin Ste Catherine","St-Polycarpe, Canada",,,,"(450) 265-3765",micro,
"Ferme Brasserie Schoune Inc","2075 Ch Ste Catherine","St-Polycarpe, Canada",,,,,micro,
"Fernie Brewing Company","26 Manitou Rd","Fernie, Canada",,,,"(250) 423-7797",micro,http://www.ferniebrewing.com
"Firehall Brewery","6077 Main Street","Oliver, Canada",,,,"(778) 439-2337",,
"Fireweed Brewing Corporation","1083 Richter Street","Kelowna, Canada",,,,,,
"Flying Monkey Brewing Co","107 Dunlop Street East","Barrie, Canada",,,,"(705) 721-8989",micro,http://www.robertsimpsonbrewery.com
"Foamers' Folly Brewing Co.","19221 122A Ave","Pitt Meadows, Canada",,,,"(604) 459-7837",micro,http://www.foamersfolly.ca
"Folding Mountain Brewing","49321 Hwy 16 AB-16","Hinton, Canada",,,,"(780) 817-6287",micro,http://www.foldingmountain.com
"Forbidden Brewing Co.","1590 Cliffe Ave","Courtenay, Canada",,,,"(250) 702-7975",micro,http://www.forbiddenbrewing.com
"Forked River Brewing Company","45 Pacific Court #4","London, Canada",,,,"(519) 913-2337",,
"Fort Garry Brewing Co Ltd.","130 Lowson Cres St","Winnipeg, Canada",,,,"(204) 487-3678",micro,http://www.fortgarry.com
"Four Winds Brewing Company Ltd","7355 72nd Street #4","Delta, Canada",,,,"(604) 940-9949",micro,http://fourwindsbrewing.ca
"Fox and Hounds Pub and Brewery","20-7 Asisniboine Dr","Saskatoon, Canada",,,,"(306) 664-2233",brewpub,
"Frampton Brasse","Rang 5 Et 6","Frampton, Canada",,,,"(418) 479-5683",micro,http://www.framptonbrasse.com
"Freddys Brewpub","948 McCurdy Road #124","Kelowna, Canada",,,,"(250) 765-8956",brewpub,
"Freddy's Brewpub","124-948 McCurdy Rd.","Kelowna , Canada",,,,"(250) 765-8956",,http://www.mccurdybowl.com
"Freehold Brewing Company",,"Calgary, Canada",,,,,planning,http://www.freeholdbrewing.ca
"Fuggles & Warlock Craftworks","Unit 103 - 11220 Horseshoe Way","Richmond, Canada",,,,"(604) 285-7745",micro,http://www.fuggleswarlock.com
"Gahan Brewery -Production facility","449 University Ave","Charlottetown, Canada",,,,,micro,http://www.halifax.gahan.ca
"Gainsbourg Bistro-brasserie","9 Aubry St","Gatineau, Canada",,,,18197773700,brewpub,http://www.gainsbourg.ca
"Gambrinus Brasserie Artisanale","3160 Boulevard des Forges","Trois-Rivieres, Canada",,,,"(819) 691-3371",brewpub,
"Gananoque Brewing Company","9 King Street East","Gananoque, Canada",,,,"(613) 463-9131",brewpub,http://www.ganbeer.com
"Garrison Brewing Co","1149 Marginal Rd","Halifax, Canada",,,,"(902) 453-5343",micro,http://www.garrisonbrewing.com
"Gateway Brewing Company","33 Ontario Street","Trenton , Canada",,,,,micro,
"Gilbertson & Page (Canada) Inc.","620 Glengarry Cres.","Fergus, Canada",,,,"(800) 234-8191",,
"Gladstone Brewing","244 4th St","Courtenay, Canada",,,,"(250) 871-1111",micro,http://www.gladstonebrewing.ca
"Gold Crown Brewing Co","71 King St N","Waterloo, Canada",,,,"(519) 886-2071",micro,
"Golden Lion Pub and Brewing Co","2902 Rue College","Sherbrooke, Canada",,,,"(819) 562-4589",brewpub,http://www.lionlennoxville.com
"Good Mood Brewery",,"Calgary, Canada",,,,"1 403-282-5315",planning,http://www.goodmoodbrewery.com
"Grand River Brewing","295 Ainslie St South","Cambridge, Canada",,,,"(519) 620-3233",micro,http://www.grandriverbrewing.com
"Granite Brewery","245 Eglinton Ave E","Toronto, Canada",,,,"(416) 322-0723",brewpub,http://www.granitebrewery.ca
"Granite Brewery (No 2)","6054 Stairs St","Halifax, Canada",,,,"(902) 422-4954",brewpub,http://www.granitebrewery.ca
"Granville Island Brewing Co","1441 Cartwright St","Vancouver, Canada",,,,"(604) 687-2739",regional,http://www.gib.ca
"Granville Island Brewing Co","1441 Cartwright Street","Vancouver, Canada",,,,"(604) 687-2739",regional,http://www.gib.ca
"Gray Stone Brewing","221 King St","Fredericton, Canada",,,,"(506) 459-7710",micro,http://www.graystonebrewing.com
"Great Lakes Brewery","30 Queen Elizabeth Blvd","Etobicoke, Canada",,,,"(416) 255-4510",regional,
"Great Lakes Brewing Co/Etobicoke","30 Queen Elizabeth Blvd","Etobicoke, Canada",,,,"(416) 255-4510",micro,http://www.greatlakesbeer.com
"Great Western Brewing Co","519 Second Ave N","Saskatoon, Canada",,,,"(306) 653-4653",regional,
"Green Leaf Brewing","123 Carrie Cates Ct. Lansdale Quay Market","North Vancouver, Canada",,,,"(604) 984-8409",,
"Grimross Brewing Co","600 Bishop Drive","Fredericton, Canada",,,,"(506) 454-4810",micro,http://www.grimross.com
"Grizzly Paw Brewing Co","622 8th St","Canmore, Canada",,,,"(403) 678-9983",brewpub,http://www.thegrizzlypaw.com
"Gulf Islands Brewery","270 Furness Rd","Salt Spring Island, Canada",,,,"(778) 354-1121",micro,http://www.saltspring.com/brewer
"Half Hitch Brewing","10 Griffin Industrial Point #1","Cochrane, Canada",,,,"(403) 988-4214",micro,http://www.halfhitchbrewing.ca
"Half Pints Brewing Co","550 Roseberry Street","Winnipeg, Canada",,,,"(204) 832-7468",micro,http://www.halfpintsbrewing.com
"Hammond River Brewing Company","141 Hampton Rd","Rothesay, Canada",,,,"(506) 333-4807",,http://www.hrbrewing.ca
"Heidelberg Restaurant and Brewery","3006 Lobsinger Line","Heidelberg, Canada",,,,"(519) 699-4413",brewpub,
"Hell Bay Brewing Company","38 Legion St","Liverpool, Canada",,,,"(902) 356-3556",micro,http://www.hellbaybrewing.com
"Hell' S Gate Brewing Co","406-1148 Homer St.","Vancouver, Canada",,,,"(604) 263-9994",micro,http://www.hellsgatebrewing.com
"Hells Basement Brewery","552 18st SW #102","Medicine Hat, Canada",,,,"(403) 487-0489",micro,http://www.hellsbasement.com
"HELM Brasseur Gourmand","273 Rue Bernard Ouest","Montreal, Canada",,,,"(514) 276-0473",brewpub,http://www.helm-mtl.ca
"Heritage Brewing Ltd","40 Bennett St Unit 5-7","Carlton Place, Canada",,,,"(613) 257-7845",micro,http://www.heritagebrewing.com
"High Mountain Brewing Co","4355 Blackcomb Way","Whistler, Canada",,,,"(604) 905-2739",brewpub,
"Highlander Brewing Co","19 Howard St","South River, Canada",,,,"(705) 386-2337",micro,http://www.highlanderbrewco.com
"HM Brewing E",,"Ste-Sophie , Canada",,,,"(819) 691-6165",planning,
"Hockley Valley Brewing","25 Centennial Rd #10","Orangeville, Canada",,,,"(519) 941-8887",micro,http://www.hockleybeer.ca
"Hogs Head Brewing Company","16 Rayborn Crescent","Saint Albert, Canada",,,,,,
"Hog's Head BrewingCompany","16 Rayborn Crescent St","Albert, Canada",,,,"(780) 459-2204",,http://www.hogsheadbrewing.ca
Hopfenstark,"643 L'Ange-Gardien","Assomption , Canada",,,,,,
Hopfenstark,"643 Boulevard L'Ange Gardien","L'Assomption, Canada",,,,"(450) 713-3060",micro,http://www.hopfenstark.com
"Hose and Hydrant Brewing Co","612 11th St E","Saskatoon, Canada",,,,"(306) 477-3473",brewpub,
"Howe Sound Brewing Co","37801 Cleveland Ave","Squamish, Canada",,,,"(604) 892-2603",brewpub,http://www.howesound.com
"Hoyne Brewing Co","101-2740 Bridge Street","Victoria, Canada",,,,"(250) 590-5758",micro,http://www.hoynebrewing.ca
"Humble Beginnings Brewing Co.",,"Ingleside, Canada",,,,,planning,http://www.humblebeginningsbrewing.ca
"Indie Ale House","2876 Dundas St W","Toronto, Canada",,,,"(416) 760-9691",micro,http://www.indiealehouse.com
"Jasper Hill","624 Connaught Dr","Jasper, Canada",,,,"(780) 852-4111",brewpub,http://www.bearhillbrewingco.ca
"Junction Craft Brewing","90 Cawthra Avenue #101","Toronto, Canada",,,,"(416) 766-1616",micro,http://www.junctioncraft.com
"Kamloops Brewery Ltd.","965 McGill Pl","Kamloops, Canada",,,,"(250) 851-2543",micro,http://www.bearbeer.com
"Kensington Brewing Company","299 Augusta Ave","Toronto, Canada",,,,"(647) 998-6951",contract,http://www.kensingtonbrewingcompany.com
"Kettle River Brewing Co","731 Baillie Ave","Kelowna, Canada",,,,"(250) 862-5115",,http://www.kettleriverbrewing.ca
"Kichesippi Beer Company","866 Campbell Ave","Ottawa, Canada",,,,"(613) 728-7845",,
"Kilannan Brewing Co.","103015 Grey Road 18","Owen Sound, Canada",,,,"(226) 909-2122",,http://www.kilannanbrewing.ca
"King Brewery","5645 King Road","Nobleton, Canada",,,,"(905) 859-5464",micro,http://www.kingbrewery.ca
"Kingston Brewing Co","34 Clarence St","Kingston, Canada",,,,"(613) 542-4978",brewpub,http://www.kingstonbrewing.com
"Korrigane Brasserie Artisanale","380 rue Dorchester","Quebec, Canada",,,,,,http://www.korrigane.ca
"Kwantlen Polytechnic University Brewing and Brewery Operations Dipl","20901 Langley Bypass","Langley, Canada",,,,"(604) 599-2782",,http://www.kpu.ca
"L`Inox Maitres Brasseurs","655 Grande Allee E","Quebec City, Canada",,,,"(418) 692-2877",brewpub,http://www.inox.qc.ca
"La Barberie","310 Rue Saint-Roch","Quebec City, Canada",,,,"(418) 522-4373",micro,http://www.labarberie.com
"La Korrigane, Café Bistro Victoria","907, rue Mars","Saguenay, Canada",,,,"(418) 544-8417",brewpub,http://www.korrigane.ca
"La Societe Microbrasserie","11640 1 Ere Ave","Saint Georges, Canada",,,,"(418) 226-4646",,http://www.societemicrobrasserie.com
"La Souche Brasserie Artisanale","801 Chemin De La Canadiere","Quebec, Canada",,,,"(581) 742-1144",brewpub,http://www.lasouche.ca
"La Tour a Bieres","517 Rue Racine Est","Chicoutimi, Canada",,,,"(418) 545-7272",micro,http://www.latourabieres.com
"La Voie Maltee","2509 rue St-Dominique","Jonquiere, Canada",,,,"(418) 542-4373",brewpub,http://www.lavoiemaltee.com
"La Voie Maltee - Chicoutimi","777 Boulevard Talbot","Chicoutimi, Canada",,,,"(418) 549-4141",brewpub,
"Labatt Breweries","150 Simcoe St","London, Canada",,,,"(519) 663-5050",large,http://www.labatt.com
"Labatt Breweries-Alberta","7724 69 St NW","Edmonton, Canada",,,,"(780) 436-0839",large,http://www.labatt.com
"Labatt Breweries-Newfoundland","PO Box 7160 /W End Postal Sta.","St Johns, Canada",,,,"(709) 579-0121",large,http://www.labatt.com
"Labatt, La Brasserie-Quebec","50 Labatt St","LaSalle, Canada",,,,"(514) 366-5050",large,http://www.labatt.com
"Labatt-Columbia Brewing Co","1220 Erickson St","Creston, Canada",,,,"(250) 428-9344",large,http://www.labatt.com
"Labatt-Oland Breweries","3055 Agricola St","Halifax, Canada",,,,"(902) 453-1867",regional,http://www.labatt.com
Lagabiere,"167 Rue Richelieu","Saint-Jean-sur-Richelieu, Canada",,,,"(450) 376-6343",,
"Lake of Bays Brewing Co Ltd","PO Box 17 / 2681 Muskoka Rd 117","Baysville, Canada",,,,"(705) 767-2313",micro,http://www.lakeofbaysbrewing.ca
"Lake of the Woods Brewing Company","350 2nd Street South","Kenora, Canada",,,,"(807) 468-2337",,
"Lake On the Mountain Brewery","264 County Rd 7","Prince Edward County, Canada",,,,"(613) 476-1321",,http://www.lakeonthemountain.com/brewery
"Lakeland Brewing Company","4227 50 Ave","Saint Paul, Canada",,,,"(780) 614-9466",brewpub,
"LAmere a Boire","2049 Rue St-Denis","Montreal, Canada",,,,"(514) 282-7448",brewpub,http://www.amereaboire.com
"Last Best Brewing and Distillery","607 11th Ave SW","Calgary, Canada",,,,"(587) 353-7387",,http://www.lastbestbrewing.com
"Last Straw Brew Pub","127 Albert St N","Regina, Canada",,,,"(306) 543-3331",brewpub,
"Le Bien Le Malt","141 Avenue Belzille","Rimouski, Canada",,,,"(418) 723-1339",micro,http://www.lebienlemalt.com
"Le Bilboquet","1850 Rue des Cascades Ouest","St-Hyacinthe, Canada",,,,"(450) 771-6900",brewpub,http://www.lebilboquet.qc.ca
"Le Cheval Blanc","809 Ontario Est","Montreal, Canada",,,,"(514) 522-0211",brewpub,http://www.lechevalblanc.ca
"Le Gambrinus","3160 Blvd Des Forges","Trois Rivieres, Canada",,,,"(816) 691-3371",brewpub,
"Le Refuge Des Brasseurs","2155 Rue Galt Ouest","Sherbrooke, Canada",,,,"(819) 791-7574",,http://www.refugedesbrasseurs.ca
"Le Saint-Bock Brasserie Artisanale","1749 Rue Saint-Denis","Montreal, Canada",,,,"(514) 680-8052",brewpub,http://www.lesaintbock.com
"Le Saint-Pub MicroBrasserie","2 Rue Racine","Baie-Saint-Paul, Canada",,,,"(418) 240-2332",,http://www.saint-pub.com
"Le Temps D'une Pinte","1465 Rue Notre-Dame Centre","Trois-Rivieres, Canada",,,,"(819) 694-4484",,
"Le Trefle Noir","145 Avenue Principale","Rouyn-Noranda, Canada",,,,"(819) 762-6611",brewpub,http://www.letreflenoir.com
"Left Field Brewery","36 Wagstaff Drive","Toronto, Canada",,,,"(647) 346-5001",micro,http://www.leftfieldbrewery.ca
"Les 3 Brasseurs","2075 Robert-Bourassa Bureau 600","Montreal, Canada",,,,"(647) 501-6535",regional,http://www.les3brasseurs.ca/
"Les 3 Brasseurs - Anjou","7225 Blvd Des Galeries D'Anjou","Anjou, Canada",,,,"(514) 351-5591",brewpub,
"Les 3 Brasseurs - Catherine","732, Ste-Catherine Ouest","Montreal, Canada",,,,"(514) 788-6333",brewpub,http://www.les3brasseurs.com
"Les 3 Brasseurs - Crescent","1356, Ste-Catherine Ouest","Montreal, Canada",,,,"(514) 788-9788",brewpub,http://www.les3brasseurs.com
"Les 3 Brasseurs - Dix-30","9316, Boulevard Leduc Quartier Dix3","Brossard, Canada",,,,"(450) 676-7215",brewpub,http://www.les3brasseurs.com
"Les 3 Brasseurs - Laurier","2450 Blvd Laurier Local G50","Quebec, Canada",,,,,brewpub,
"Les 3 Brasseurs - Laval","2900 Avenue Pierre-Péladeau","Laval, Canada",,,,"(450) 988-4848",brewpub,
"Les 3 Brasseurs - St-Denis","1658 rue St-Denis","Montreal, Canada",,,,"(514) 845-1660",brewpub,http://www.les3brasseurs.com
"Les 3 Brasseurs - St-Paul","105 St-Paul Est","Montreal, Canada",,,,"(514) 788-6100",brewpub,http://www.les3brasseurs.com
"Les 3 Brasseurs - Toronto","275 Younge Street","Toronto, Canada",,,,"(647) 347-6286",micro,
"Les Bieres de la Nouvelle-France","90 Riviere Aux Ecorces Road","Saint-Alexis-des-Monts, Canada",,,,"(819) 265-4000",micro,http://www.lesbieresnouvellefrance.com
"Les Brasseurs de L`anse","182 Rte 170","Anse Saint-Jean, Canada",,,,"(418) 272-3234",micro,
"Les Brasseurs du Nord","875 Boulevard Michele-Bohec","Blainville, Canada",,,,"(450) 979-8400",regional,http://www.boreale.com
"Les Brasseurs du Temps","170 Montcalm","Gatineau, Canada",,,,"(819) 205-4999",micro,http://www.brasseursdutemps.com
"Les Freres Houblon","10180 Chemin Sainte-Marguerite","Trois-Rivieres, Canada",,,,"(819) 380-8307",,
"Les Trois Mousquetaires","3455 Boulevard Matte Local C","Brossard, Canada",,,,"(450) 619-2372",micro,http://www.lestroismousquetaires.ca
"Les Trois Mousquetaires Microbrasseurs","3755-C Boul. Matte","Brossard, Canada",,,,"(450) 619-2372",micro,http://www.lestroismousquetaires.ca
"L'Espace Public","3632 Rue Ontario Est","Montreal, Canada",,,,"(514) 419-9979",,
"Lightheart Brewing Company",,"Vancouver, Canada",,,,"(604) 828-4208",planning,http://www.lightheartbrewing.com
"Lighthouse Brewing Co","836 Devonshire Rd","Victoria, Canada",,,,"(250) 383-6500",micro,
"Lion Brewery Restaurant","59 King St N","Waterloo, Canada",,,,"(519) 886-3350",brewpub,
"Longwood Brewery","101A-2046 Boxwood Rd","Nanaimo, Canada",,,,"(250) 591-2739",,http://www.longwoodbeer.com
"Longwood BrewPub","5775 Turner Rd","Nanaimo, Canada",,,,"(250) 729-8225",brewpub,http://www.longwoodbrewpub.com
"Loup Rouge Artisan Brasseur","100 Rue Plante","Sorel-Tracy, Canada",,,,"(450) 551-0660",brewpub,http://www.microlouprouge.com
"Lowertown Brewery","73 York St","Ottawa, Canada",,,,"(613) 722-1454",,http://www.lowertownbrewery.com
"Maclean's Ales Inc.","52 14th Ave.","Hanover, Canada",,,,"(519) 506-2537",micro,http://www.macleansales.ca
"Magnotta Brewery","271 Chrislea Rd","Woodbridge, Canada",,,,"(905) 738-9463",micro,http://www.magnottabrewery.com
"Maguire`s Irish Pub & Brewery","2105 Grosvenor Park/Suite 32","Saskatoon, Canada",,,,"(306) 955-7500",brewpub,
"Main Street Brewing Company","261 E Seventh Ave","Vancouver, Canada",,,,"(604) 336-7711",brewpub,http://www.mainstreetbeer.ca
"Manantler Craft Brewing Company","182 Wellington St","Bowmanville, Canada",,,,"(905) 697-9979",micro,http://www.manantler.com
"Manos Grill and Brewhouse","2202 22nd St W","Saskatoon, Canada",,,,"(306) 683-3333",brewpub,
"Maple Meadows Brewing Company","22775 Dewdney Trunk Rd","Maple Ridge, Canada",,,,"(604) 479-0999",micro,
"Mark James Group","1110 Hamilton St Ste. #204","Vancouver, Canada",,,,"(604) 668-0039",brewpub,http://www.mjg.ca
"Market Brewing Company","17775 Leslie St #4","Newmarket, Canada",,,,"(905) 906-2337",micro,http://www.marketbrewingco.com
"Marten Brewing Company","2933 A 30th Ave","Vernon, Canada",,,,"(778) 475-5115",brewpub,
"Meander River Farm And Brewery","906 Woodville Rd","Newport, Canada",,,,"(902) 757-3484",micro,http://www.meanderriverfarm.ca
"Merchant Ale House","98 St Paul St","St. Catharines, Canada",,,,"(905) 984-4060",brewpub,
"Merecroft Village Pub","489 S Dogwood St","Campbell River, Canada",,,,"(250) 286-4944",brewpub,
"MERIT Brewing Co","107 James St N","Hamilton, Canada",,,,"(905) 393-1024",micro,
"MicroBrasserie A La Fut","670 Rue Notre Dame","Saint Tite, Canada",,,,"(418) 365-4370",brewpub,http://www.alafut.qc.ca
"MicroBrasserie A La Fut","670, Notre-Dame","St-Tite, Canada",,,,"(418) 365-4370",brewpub,http://www.alafut.com
"MicroBrasserie A La Fut","670 Rue Notre Dame","Saint-Tite, Canada",,,,"(418) 365-4370",brewpub,http://www.lebrouemont.com
"Microbrasserie Aux Fous Brassant","262 Rue Lafontaine","Riviere Du Loup, Canada",,,,"(418) 605-1644",micro,http://www.auxfousbrassant.com
"Microbrasserie Charlevoix","6 Rue Paul-Rene Tremblay","Baie-Saint-Paul, Canada",,,,"(418) 435-3877",micro,http://www.microbrasserie.com
"MicroBrasserie Coaticook","1007 Rue Child","Coaticook, Canada",,,,"(819) 804-1234",,http://www.microbrasseriecoaticook.ca
"Microbrasserie d`Orleans / Pub Le Mitan","2471 Chemin Royal","Sainte-Famille, Canada",,,,"(418) 203-0588",micro,http://www.microorleans.com
"MicroBrasserie De Bellechasse","2020 De L'Eglise","Buckland, Canada",,,,"(418) 789-4444",,http://www.microbrasseriedebellechasse.ca
"Microbrasserie Des Beaux Pres Inc","9430 Boul. Sainte-Anne","Ste-Anne-de-Beaupre, Canada",,,,"(418) 702-1128 ext221",brewpub,http://www.mdbp.ca
"Microbrasserie Du Lac St Jean","120 Rue De La Plage","Saint-Gedeon, Canada",,,,"(418) 345-8758",brewpub,http://www.microdulac.com
"Microbrasserie du Lievre","110 Boulevard Albiny Paquette","Mont-Laurier, Canada",,,,"(819) 440-2440",micro,http://www.microdulievre.com
"Microbrasserie L`Alchimiste","681 Rue Marion","Joliette, Canada",,,,"(450) 760-2945",micro,http://www.lalchimiste.ca
"Microbrasserie La Captive","140 Boul St-Benoit O","Amqui, Canada",,,,"(418) 631-1343",,http://www.lacaptive.ca
"Microbrasserie La Chouape","1134 Boul. Sacre Coeur","St-Felicien, Canada",,,,"(418) 613-0622",micro,http://www.lachouape.com
"Microbrasserie La Chouape Inc.","1164 Boulevard du Sacre-Coeur","Saint-Felicien, Canada",,,,"(418) 613-0622",micro,
"Microbrasserie La Diable","117 Chemin Kandahar","Mont-Tremblant, Canada",,,,"(819) 681-4546",brewpub,http://www.microladiable.com
"Microbrasserie La Memphre","12 Rue Merry Sud","Magog, Canada",,,,"(819) 843-3405",brewpub,
"Microbrasserie Le Castor","67 Chemin Des Vinaigriers","Rigaud, Canada",,,,"(450) 451-2337",,
"Microbrasserie Le Coureur Des Bois","1551 Blvd Wallberg","Dolbeau-Mistassini, Canada",,,,"(418) 979-1197",micro,https://www.facebook.com/lecoureurdesbois
"Micro-Brasserie Le Grimoire","223 Rue Principale","Granby, Canada",,,,"(450) 372-7079",micro,http://www.brasseriegrimoire.com
"Microbrasserie Le Naufrageur","586 Boulevard Perron","Carleton, Canada",,,,"(418) 364-5440",,
"Micro-brasserie Le Naufrageur","586 Boulevard Perron","Carleton-sur-Mer, Canada",,,,"(418) 364-5440",brewpub,
"Microbrasserie Le Trou Du Diable","412 Avenue Willow","Shawinigan, Canada",,,,"(819) 537-9151",micro,http://www.troududiable.com
"Microbrasserie Les Freres Houblon","10 180, Chemin Sainte-Marguerite","Trois-Rivieres, Canada",,,,"(819) 380-8307",micro,http://www.lesfrereshoublon.com
"Microbrasserie Pit Caribou","27 Rue De L`Anse","Cap-d'Espoir, Canada",,,,"(418) 782-1444",micro,http://www.pitcaribou.com
"Microbrasserie Siboire","80 rue du Depot","Sherbrooke, Canada",,,,"(819) 565-3636",brewpub,http://www.siboire.ca
"Microbrasserie St Arnould","Pioneer 435 Rue","Mont-Tremblant, Canada",,,,"(819) 425-1262",micro,http://www.saintarnould.com
"Microbrasserie St Pancrace","55 Place La Salle","Baie-Comeau, Canada",,,,"(418) 296-0099",micro,http://www.stpancrace.com/
"Microbrasserie St-Arnould","435 Rue Des Pionniers","Mont-Tremblant, Canada",,,,"(819) 425-1262",,http://www.saintarnould.com
"Microbrewery of Saguenay","2509 St Dominique","Jonquiere, Canada",,,,"(418) 820-1918",micro,
"Mighty Peace Brewing Co.",,"Fort St John, Canada",,,,14062181360,planning,http://mightypeacebrewing.ca
"Mill Street Brewery","125 Bermondsey Rd","North York, Canada",,,,"(416) 759-6565",micro,http://www.millstreetbrewery.com
"Mill Street Brewery - Ottowa","555 Wellington Street","Ottawa, Canada",,,,"(613) 567-2337",micro,http://www.millstreetbrewery.com
"Mill Street Brewery- Scarborough","300 Midwest Road","Scarborough, Canada",,,,,micro,
"Mission Springs Brewing Co","7160 Oliver St #200","Mission, Canada",,,,"(604) 820-1009",brewpub,http://www.missionspringsbrewingcompany.com
"Missions Springs","7160 Oliver St","Mission, Canada",,,,"(604) 820-1009",brewpub,
"MMTUM Inc",,"Montreal, Canada",,,,,planning,http://www.mmtum.com
"Molson Canada","33 Carlingview Drive","Toronto, Canada",,,,,large,http://www.molson.com
"Molson Canada-Alberta","10449 121st St","Edmonton, Canada",,,,"(780) 482-1786",large,http://www.molson.com
"Molson Canada-British Columbia","1550 Burrard St","Vancouver, Canada",,,,"(604) 664-1786",large,http://www.molson.com
"Molson Canada-Newfoundland","131 Circular Rd","St Johns, Canada",,,,"(709) 726-1786",large,http://www.molson.com
"Molson Canada-Ontario","33 Carlingview Drive","Etobicoke, Canada",,,,"(800) 665-7661",large,http://www.molson.com
"Molson Canada-Saskatchewan","2-395 Park Street","Regina, Canada",,,,"(306) 359-1786",large,http://www.molson.com
"Moody Ales","2601 Murray St","Port Moody, Canada",,,,"(604) 492-3911",micro,http://www.moodyales.com
"Moosehead Breweries Ltd","89 Main St W","St. John, Canada",,,,"(506) 635-7000",large,http://www.mooseheadbeer.com
"Motor Craft Ales","888 Erie Street East","Windsor, Canada",,,,"(519) 252-8004",brewpub,http://thisismotor.com
"Mount Begbie Brewing Co Ltd","2155 Oak Dr","Revelstoke, Canada",,,,"(250) 837-2756",,http://www.mtbegbie.com
"Mountain Brew","100 Mountain Rd Unit 11a","Collingwood, Canada",,,,"(705) 444-5426",,http://www.mountainbrew.ca
"Mountain Crest Brewing Corp.","1314 44 Avenue NE","Calgary, Canada",,,,"(403) 695-3706",contract,http://www.damngoodbeer.ca
"Mozart Brewing Company","130 Spokane Street","Kimberley, Canada",,,,"(250) 427-7671",,http://mozzartinn.weebly.com/brewery.html
"Mt. Begbie Brewing Co Ltd","PO Box 2995 / 521 1st St W","Revelstoke, Canada",,,,"(250) 837-2756",micro,http://www.mt-begbie.com
"Multi-Brasse Microbrasserie","1209 St-Joseph","Tingwick, Canada",,,,"(819) 359-3887",micro,http://www.multibrasserie.ca
"Muskoka Brewery","1964 Muskoka Beach Rd","Bracebridge, Canada",,,,"(705) 646-1266",regional,http://www.muskokabrewery.com
"Nelson Brewing Co","512 Latimer St","Nelson, Canada",,,,"(250) 352-3582",micro,http://www.nelsonbrewing.com
"Neustadt Springs Brewery","456 Jacob St","Neustadt, Canada",,,,"(519) 799-5790",micro,http://www.neustadtsprings.com
"Niagara Best Beer Limited","6863 Lundy's Lane","Niagara Falls, Canada",,,,"(905) 371-1001",brewpub,
"Niagara College Teaching Brewery","135 Taylor Rd","Niagara On the Lake, Canada",,,,905-641-2252x4076,micro,http://www.ncteachingbrewery.ca/
"Nita Beer Company","190 Colonnade Rd #17","Nepean, Canada",,,,"(613) 688-2337",,http://www.nitabeer.com
"Noire Et Blanche Microbrasserie","196 Rue St-Eustache","Saint-Eustache, Canada",,,,"(450) 983-6100",,
"Nokomis Craft Ales","301 1st Avenue East","Nokomis, Canada",,,,"(306) 528-9910",micro,http://www.nokomiscraftales.com
"Norsemen Brewing Co","6505 48th Ave","Camrose, Canada",,,,"(780) 672-9171",,
"North Brewing Company","2576 Agricola St","Halifax, Canada",,,,"(902) 444-7765",micro,http://www.bridgebeer.ca
"Northampton Brewing Co LTD","66 Parker Road","Northampton, Canada",,,,"(506) 457-9082",micro,http://www.picaroons.ca
"Northwinds Brewhouse","499 First St","Collingwood, Canada",,,,"(705) 293-6666",brewpub,http://www.northwindsbrewhouse.com
"Notre Dame Brewing Company",,"Calgary, Canada",,,,,planning,
"NWT Brewing Company","3905 Franklin Ave.","Yellowknife, Canada",,,,,brewpub,
"Oast House Brewers","2017 Niagara Stone Rd","Niagara-on-th-Lake, Canada",,,,"(289) 868-9627",,
"Off The Rail Brewing Company","1351 Adanac St","Vancouver, Canada",,,,"(604) 563-5767",micro,http://www.offtherailbrewing.com
"Okanagan Spring Brewery","2808 27 Ave","Vernon, Canada",,,,"(250) 542-2337",regional,http://www.okspring.com
"Old Abbey Ales Ltd","30321 Fraser Hwy #1a","Abbotsford, Canada",,,,"(604) 607-5104",,http://www.oldabbeyales.com
"Old Credit Brewing Co","6 Queen St W","Mississauga, Canada",,,,"(905) 271-9888",micro,
"Old Yale Brewing Co","44550 South Sumas Road #404","Chilliwack, Canada",,,,"(604) 392-2011",micro,http://www.oldyalebrewing.com
"Olde Stone Brewing Co","380 George St N","Peterborough, Canada",,,,"(705) 745-0495",brewpub,http://www.oldestone.com
"One Great City Brewing Company Ltd.","1596 Ness Avenue","Winnipeg, Canada",,,,"(204) 210-2337",brewpub,http://www.ogcbrewingco.com
"Open Tap Brewpub & Eatery, The","4245 Rochdale Blvd","Regina, Canada",,,,"(306) 761-2777",brewpub,http://www.thetap.ca
"Over Time Beer Works","136 Wallinger Ave","Kimberley, Canada",,,,"(250) 427-2426",micro,http://www.overtimebeer.ca
"Pacific Western Brewing Co","641 N Nechako Rd","Prince George, Canada",,,,"(250) 562-2424",regional,http://www.pwbrewing.com
"Pacific Western Brewing Co","641 N Nechako Rd","Prince George, Canada",,,,"(250) 562-2424",regional,
"Paddock Wood Brewing Supplies","116 103rd St E","Saskatoon, Canada",,,,"(306) 477-5632",micro,http://www.paddockwood.com
"Paddy and Rosies Brewpub","460 Main St.","Wolfville, Canada",,,,"(902) 542-0059",brewpub,http://www.paddyspub.ca
"Paddy and Rosies Brewpub","320 Main Street","Wolfville, Canada",,,,"(902) 542-0059",brewpub,
"Parallel 49 Brewing Co","1950 Triumph Street","Vancouver, Canada",,,,"(604) 558-2739",micro,http://www.parallel49brewing.com
"Partners Brewery","589 Halifax Road","Hightown, Canada",,,,"01924 457 772",micro,
"Pat's Pub & Brewhouse","403 E Hasings St","Vancouver, Canada",,,,"(604) 255-4301",brewpub,http://www.patspub.ca
"PEG Beer Co.","125 Pacific Ave","Winnipeg, Canada",,,,"(204) 416-2337",micro,
"People's Pint Brewing Company Inc.",,"Toronto, Canada",,,,"(416) 918-5295",planning,http://peoplespint.com
"Pepperwood Bistro and Brewery","1455 Lakeshore Rd","Burlington, Canada",,,,"(905) 333-6999",brewpub,http://www.pepperwood.on.ca
"Persephone Brewing Company","1053 Stewart Road","Gibsons, Canada",,,,"(778) 462-3007",micro,http://www.persephonebrewing.com
"Perth Brewery","121 Dufferin St","Perth, Canada",,,,"(613) 264-1087",,http://www.perthbrewery.ca
"Phillips Brewing Co","2010 Government St","Victoria, Canada",,,,"(250) 380-1912",micro,http://www.phillipsbeer.com
"Pioneer Brewery Ltd","1000 Murray Ross Parkway","Toronto, Canada",,,,"(416) 736-1733",brewpub,http://www.blackcreekbrewery.ca/our-brewery
"Port Rexton Brewing Company Ltd.","6 Ship Cove Road, P.O. Box 130","Port Rexton, Canada",,,,"(709) 464-7807",micro,http://www.portrextonbrewing.com
"Postmark Brewing","55 Dunleavy Ave","Vancouver, Canada",,,,"(604) 699-1988",,http://www.postmarkbrewing.com
"Powell Street Craft Brewery","1357 Powell Street","Vancouver, Canada",,,,"(604) 558-2537",micro,http://www.powellbeer.com
"Prairie Dog Brewing CANADA Inc.",,"Calgary, Canada",,,,"(403) 837-1414",planning,http://www.prairiedogbrewing.ca
"Prairie Sun Brewery","2020 Quebec Ave","Saskatoon, Canada",,,,"(306) 343-7000",micro,http://www.prairiesun.ca
"Project Micro",,"Toronto, Canada",,,,,,
"Propeller Brewing Company","2015 Gottingen St","Halifax, Canada",,,,"(902) 422-7767",micro,http://www.drinkpropeller.ca
"Publican House Brewery","300 Charlotte St","Peterborough, Canada",,,,"(705) 874-5743",micro,http://www.thepublicanhouse.com
"Pump House Brewery Ltd","131 Mill Road","Moncton, Canada",,,,"(506) 854-2537",brewpub,
"Pump House Brewery LTd","5 Orange Ln","Moncton, Canada",,,,"(506) 855-2337",brewpub,http://www.pumphousebrewery.ca
"Quidi Vidi Brewing Co","35 Barrows Rd","St Johns, Canada",,,,"(709) 738-4040",micro,
"R and B Brewing Co","1-54 East 4th Ave","Vancouver, Canada",,,,"(604) 336-0275",micro,http://www.r-and-b.com
"Railcar Brewing Company","694 Perth Main St","Perth-Andover, Canada",,,,"(506) 392-6620",micro,http://www.railcarbrewing.com
"Railway City Brewing Co","130 Edward St.","St. Thomas, Canada",,,,"(519) 631-1881",brewpub,http://www.railwaycitybrewing.com
"Rare Bird Craft Beer","80 Main St","Guysborough, Canada",,,,"(902) 533-2128",micro,http://www.rarebirdbeer.com
"Rebellion Brewing Company","1901 Dewdney Av","Regina, Canada",,,,"(306) 522-4666",micro,
"Red Bison Brewery",,"Calgary, Canada",,,,"(587) 435-6203",planning,http://redbisonbrewery.com
"Red Collar Brewing","355 Lansdowne St","Kamloops, Canada",,,,"(778) 471-0174",,
"Red Truck Beer Company Ltd.","295 E 1st Avenue","Vancouver, Canada",,,,"(604) 682-4733",regional,http://www.redtruckbeer.com
"Refined Fool Brewing Company","137 Davis St","Sarnia, Canada",,,,"(519) 704-1335",brewpub,http://www.refinedfool.com
"Ribstone Creek Brewery","4924 51 Street","Edgerton, Canada",,,,"(780) 755-3008",micro,http://www.ribstonecreekbrewery.ca
"Richmond Beer Works Ltd","#115 7011 Elmbridge Way","Richmond, Canada",,,,"(604) 244-8103",,http://www.beerworks.ca
"Ridge Brewing","22826 Dewdney Trunk Rd #2","Maple Ridge, Canada",,,,"(604) 380-0888",,http://www.ridgebrewing.com
"Ridge Brewing Co","22826 Dewdney Trunk Rd #2","Maple Ridge, Canada",,,,"(604) 380-0888",brewpub,
"Riot Brewing Co.","101A - 3055 Oak St.","Chemainus, Canada",,,,"(250) 324-7468",micro,http://www.riotbrewing.com
"Robert Simpson Brewing Co. Ltd., The","107 Dunlop Street East","Barrie, Canada",,,,,,
"Rockbottom Bar & Brewery","5686 Spring Garden Rd","Halifax, Canada",,,,"(902) 423-2938",brewpub,http://www.rockbottombrewery.ca
"Rossland Beer Company","1990 Columbia Ave","Rossland, Canada",,,,"(250) 362-2122",micro,http://www.rosslandbeer.com
"Rouge River Brewing Company","50 Bullock Drive Unit 8","Markham, Canada",,,,"(905) 209-1236",,http://rougeriverbrewery.com
"Roughneck Brewing Co","PO Box 732","Calmar, Canada",,,,"(780) 499-0691",micro,
"Rudder`s Seafood Restaurant & Brew Pub","96 Water Street","Yarmouth, Canada",,,,"(902) 742-7311",brewpub,http://www.ruddersbrewpub.com
"Russell Breweries Inc","13018 80 Ave","Surrey, Canada",,,,"(604) 599-1190",micro,http://www.russellbrewing.com
"Sailor Hagars Brewpub","86 Semisch Ave","North Vancouver, Canada",,,,"(604) 984-3087",contract,
"Saint Andre Brewing Co","35 Elderfield Crescent","Toronto, Canada",,,,"(416) 835-5951",contract,
Saint-houblon,,"Terrebonne, Canada",,,,"(514) 710-2410",planning,http://www.sainthoublon.com
"Sawdust City Brewing Co","397 Muskoka Rd N","Gravenhurst, Canada",,,,"(705) 681-1100",,http://www.sawdustcitybrewing.com
"Schoolhouse Brewery","40 Water St","Windsor, Canada",,,,"(902) 790-2364",micro,http://www.schoolhousebrewery.ca
"Schoune Farm Brewery","2075 Chemin Ste-Catherine","St-Polycarpe , Canada",,,,,,
"Scotch Irish Brewing Co","40 Bennett Street","Carleton Place, Canada",,,,"(613) 257-7845",contract,http://scotchirishbrewing.ca
"Sea Level Brewing Co","980 Terrys Creek Road","Port Williams, Canada",,,,"(905) 542-5544",brewpub,http://www.sealevelbrewing.com
"Shawn & Ed Brewing Company","65 Hatt Street","Dundas, Canada",,,,"(289) 238-9979",micro,
"Side Launch Brewing Co","200 Mountain Road Unit 1","Collingwood, Canada",,,,"(705) 293-5511",micro,
"Silversmith Brewing Company","1523 Niagara Stone Road","Virgil, Canada",,,,"(905) 468-8447",,
"Skeena Brewing Company","4629 Greig Ave","Terrace, Canada",,,,"(250) 975-2337",contract,http://www.wolfgangsbeer.com
"Sleeman Brewing and Malting Co","551 Clair Rd W","Guelph, Canada",,,,"(519) 822-1834",large,http://www.sleeman.com
"Sleeping Giant Brewing Co","712 Macdonell Street","Thunder Bay, Canada",,,,"(807) 344-5225",micro,http://www.sleepinggiantbrewing.ca
"Smackwater Brewing Company",,"Grand Bend , Canada",,,,"(519) 868-7019",planning,http://smackwaterjacks.ca
"Smithavens Brewing Company","687 Rye St #6","Peterborough, Canada",,,,"(705) 743-4747",micro,http://www.smithavenbrewing.ca
"Something Brewing","6610 71st St","Red Deer, Canada",,,,"(403) 803-9543",micro,http://www.facebook.com/somethingbeer
"Sooke Brewing Co.",,"Sooke, Canada",,,,"none yet",planning,http://sookebrewing.ca/
"Spearhead Brewing Co","675 Development Dr","Kingston, Canada",,,,"(416) 907-6952",micro,http://www.spearheadbeer.com
"Specklebelly's Brewpub / Athena Restaurant","900 Central Avenue","Saskatoon, Canada",,,,"(306) 249-0900",brewpub,http://www.specklebellys.com
"Spinnakers Brewpub Inc","308 Catherine St","Victoria, Canada",,,,"(250) 386-2739",brewpub,http://www.spinnakers.com
"Square Peg Brewing Company Ltd.",,"Toronto, Canada",,,,"(647) 839-3662",planning,
"Starbrew Inc.","519 2nd Ave North","Saskatoon, Canada",,,,"(450) 661-0281",micro,
"Steam Whistle Brewing Co","255 Bremner Blvd","Toronto, Canada",,,,"(416) 362-2337",micro,
"Steamworks Brew Pub","SB54-601 West Cordova Street","Vancouver, Canada",,,,,brewpub,
"Steamworks Brew Pub","375 Water St","Vancouver, Canada",,,,"(604) 689-2739",brewpub,http://www.steamworks.com
"Steel & Oak Brewing Co","1319 Third Ave","New Westminister, Canada",,,,"(604) 540-6495",micro,
"Steel Toad Brewing Company","97 E 2nd Ave","Vancouver, Canada",,,,"(604) 709-8623",micro,
"Stone Angel Brewing",,"Winnipeg, Canada",,,,"(204) 330-9621",planning,http://www.stoneangelbrewing.ca
"Stone City Ales","275 Princess St.","Kingston, Canada",,,,"(613) 542-4222",brewpub,http://www.stonecityales.com
"StoneHammer Brewing","355 Elmira Rd North Unit 135","Guelph, Canada",,,,"(519) 824-1194",micro,http://www.stonehammer.ca
"STORM BREWING in Newfoundland Ltd.","310 Commercial Drive","Vancouver, Canada",,,,"1 604-255-9119",micro,http://www.stormbrewing.ca
"Storm Brewing Ltd","310 Commercial Dr","Vancouver, Canada",,,,"(604) 255-9119",micro,
"Strange Fellows Brewing","1345 Clark Dr","Vancouver, Canada",,,,"(604) 215-0092",,http://www.strangefellowsbrewing.com
"Stratford Brewing Co","114 Erie Street","Stratford, Canada",,,,"(519) 273-6691",micro,http://www.stratfordbrewing.com
"Superflux Beer Company","2142 W 34th Ave","Vancouver, Canada",,,,"(604) 219-8655",contract,http://www.superfluxbeer.com
"Swans Buckerfield Brewery","506 Pandora Ave","Victoria, Canada",,,,"(250) 361-3310",brewpub,http://www.swanshotel.com
"Swans Buckerfields Brewery","506 Pandora Ave","Victoria, Canada",,,,"(250) 361-3310",brewpub,http://www.swanshotel.com
"Sweetgrass Brewing Company","347 Danforth Ave","Toronto, Canada",,,,"(416) 406-4688",,
"Syndicate Restaurant & Brewery","6863 Lundy's Ln","Niagara Falls, Canada",,,,"(289) 477-1022",brewpub,
"Taps Brewing Co","4680 Queen St","Niagara Falls, Canada",,,,"(289) 477-1010",micro,http://www.tapsbeer.com
"Tatamagouche Brewing Company","235 Main St","Tatamagouche, Canada",,,,"(902) 657-4000",,
"Taylor`s Crossing Brewery","1025 Marine Drive","North Vancouver, Canada",,,,"(604) 984-2739",brewpub,
"The Blue Elephant Craft Brew House","96 Norfolk St South","Simcoe, Canada",,,,"(519) 428-2886",brewpub,http://www.blueelephant.ca
"The BrewHouse","4355 Blackcomb Way","Whistler, Canada",,,,"(604) 905-2739",brewpub,http://www.mjg.ca/brewhouse
"The Dandy Brewing Company","11-1826 25 Avenue Northeast","Calgary, Canada",,,,"(403) 769-9399",micro,http://www.thedandybrewingcompany.com
"The Exchange Brewery Inc.","7 Queen St","Niagara-on-the-Lake, Canada",,,,"(905) 468-9888",,
"The Gahan House","126 Sydney St","Charlottetown, Canada",,,,"(902) 626-2337",brewpub,http://www.charlottetown.gahan.ca
"The Heid Out","821 Baker St","Cranbrook, Canada",,,,"(250) 426-7922",brewpub,http://www.theheidout.ca
"The Moon Under Water","350 Bay Street","Victoria, Canada",,,,"(250) 380-0706",brewpub,http://www.moonunderwater.ca
"The Noble Pig","650 Victoria St","Kamloops, Canada",,,,"(778) 471-5999",,http://www.thenoblepig.ca
"The Old Mill At Ashton Country Pub and Brewery","113 Old Mill Rd.","Ottowa, Canada",,,,"(613) 257-4423",brewpub,http://www.ashtonbrewpub.ca
"The Second Wedge Brewing Company","14 Victoria Street","Uxbridge, Canada",,,,"(905) 852-3232",micro,http://www.thesecondwedge.ca
"The Tap Brew Pub and Eatery","4245 Rochdale Blvd.","Regina, Canada",,,,"(306) 761-2777",brewpub,http://www.thetap.ca
"Thornbury Village Craft Brewery","90 King St E","Thornbury, Canada",,,,"(647) 999-4846",micro,
"Three Ranges Brewing Co","1160 5th AVE PO Box 518","Valemount, Canada",,,,"(250) 566-0024",brewpub,http://threeranges.com
"Tillingbourne Brewery","Old Scotland Farm Staple Lane","Shere, Canada",,,,"01483 222228",,
"Tin Whistle Brewing Co","1475 Fairview Rd #112","Penticton, Canada",,,,"(250) 770-1122",micro,
"Tofino Brewing Company","681 Industrial Way","Tofino, Canada",,,,"(250) 725-2899",micro,http://www.tofinobrewingco.com
"Together We're Bitter Co-operative Brewing Inc","300 Mill St. Unit 1","Kitchener, Canada",,,,"(519) 954-4433",,http://www.brewing.coop
"Tool Shed Brewing Company","801 30 St NE","Calgary, Canada",,,,"(403) 775-1749",micro,http://www.toolshed.beer
"Tooth And Nail Brewing Company","3 Irving Ave.","Ottawa, Canada",,,,"(613) 695-4677",brewpub,http://toothandnailbeer.com/
"Torchlight Brewing Co","125 Hall St","Nelson, Canada",,,,"(250) 352-0094",micro,
"Torque Brewing Inc.","830 King Edward St.","Winnipeg, Canada",,,,"(204) 410-2124",micro,
"TownHouse Brewpub and Eatery","76 College St","Antigonish, Canada",,,,"(902) 863-2248",brewpub,https://antigonishtownhouse.wordpress.com
"Townsite Brewing","5824 Ash Avenue","Powell River, Canada",,,,"(604) 483-2111",micro,http://www.townsitebrewing.com
"Tracks Brewpub","60 Queen St E","Brampton, Canada",,,,"(905) 453-3063",brewpub,http://www.tracksbrewpub.com
"TrailWay Brewing Company","280 Main St","Fredericton, Canada",,,,"(506) 455-8246",micro,http://www.alesandmeads.com
"TrailWay Brewing Company","McConell St","Fredericton, Canada",,,,"(506) 260-7613",micro,http://www.trailwaybrewing.com
"Travois Ale Works",,"Medicine Hat, Canada",,,,"(403) 866-4552",planning,
"Tree Brewing","1083 Richter St","Kelowna, Canada",,,,"(250) 717-1091",micro,http://www.treebeer.com
"Trider's Craft Beer","46 Anson Avenue Unit 3","Amherst, Canada",,,,"(902) 614-8983",,http://www.triderscraftbeer.ca
"Trolley Five Brew Co.",,"Calgary, Canada",,,,,planning,http://www.trolleyfive.com
"Troubled Monk","5551-45th Street","Red Deer, Canada",,,,"(403) 348-2378",micro,http://www.troubledmonk.com
"Turning Point Brewery","465 Fraser View Pl","New Westminster, Canada",,,,"(604) 519-5359",,http://www.stanleyparkbrewery.ca
"Uncle Leo's Brewery","2623 Nova Scotia 376","Lyons Brook, Canada",,,,"(902) 382-2739",,
"Undercurrent Brewing Ltd.",,"Calgary, Canada",,,,,planning,http://undercurrentbrewing.ca
"Underdog's Brewhouse","1100 Skae Dr Unit 2","Oshawa, Canada",,,,"(416) 238-6760",contract,http://www.underdogsbrewhouse.com
"Unibroue Inc","80 Des Carrieres","Chambly, Canada",,,,"(514) 634-1834",large,http://www.unibroue.com
"Upstreet Craft Brewing","41 Allen St.","Charlottetown, Canada",,,,"(902) 894-0543",micro,http://www.upstreetcraftbrewing.com
"Vancouver Island Brewery","2330 Government St","Victoria, Canada",,,,"(250) 361-0007",micro,http://www.vanislandbrewery.com
"Vessels and Barrels","6321 Route Transcanadienne","Pointe-Claire, Canada",,,,"(514) 695-7550",brewpub,
"Village Brewery","5000 12A St SE","Calgary, Canada",,,,"(403) 243-3327",,http://www.villagebrewery.com
"Village Brewing Co","5000 12-A St SE","Calgary, Canada",,,,"(403) 243-3398",micro,http://www.villagebrewery.com
"Walkerville Brewing Co","525 Argyle Rd","Windsor, Canada",,,,"(519) 254-6067",micro,http://www.walkervillebrew.com/
"Waller St Brewing","14 Waller St","Ottawa, Canada",,,,"(613) 860-1515",,http://www.wallerst.ca
"Wellington County Brewery","950 Woodlawn Rd W","Guelph, Canada",,,,"(519) 837-2337",micro,
"Wheelhouse Brewing Company","217 1st Ave. E.","Prince Rupert, Canada",,,,"(250) 624-2739",,http://www.wheelhousebrewing.com
"Whipersnapr Brewing Co","14 Bexley Place Unit 106 and 108","Ottawa, Canada",,,,,,
"Whiprsnapr Brewing Company","14 Bexley Pl Unit 106","Nepean, Canada",,,,"(613) 596-9882",,http://www.whiprsnaprbrewingco.com
"Whiskey Jacks","202-3929 8th St East","Saskatoon, Canada",,,,"+1 705-648-5539",brewpub,
"Whistler Brewing Co","1045 Millar Creek Rd","Whistler, Canada",,,,"(604) 962-8889",micro,http://www.whistlerbeer.com
"White Rock Beach Beer Company","15181 Russell Avenue","White Rock, Canada",,,,"(604) 319-4378",,http://www.whiterockbeachbeer.com
"Whitetooth Brewing Company","623 8th Ave N","Golden, Canada",,,,"(250) 344-2838",micro,http://www.whitetoothbrewing.com
"Whitewater Brewing Company","78 Hwy 17","Cobden, Canada",,,,"(613) 646-0101",,http://www.whitewaterbeer.ca
"Wild Rose Brewery","5505 72 Ave SE","Calgary, Canada",,,,"(403) 720-2733",regional,http://www.wildrosebrewery.com
"Wild Rose Brewery - Production","#2 4580 Quesnay Wood Drive SW","Calgary, Canada",,,,"(403) 727-5451",,
"Winterlong Brewing Company","83 Mount Sima Rd","Whitehorse, Canada",,,,"(867) 393-2223",micro,http://www.winterlongbrewing.com
"Wolf Brewing Company","940 Old Victoria Rd","Nanaimo, Canada",,,,"(250) 716-2739",micro,http://www.wolfbrewingcompany.com
"Wolfe Island Spring Craft Brewery","506 Princess St","Kingston, Canada",,,,"(613) 531-0003",micro,
"Wood Buffalo Brewing Company","9914 Morrison St","Fort McMurray, Canada",,,,"(587) 276-0022",brewpub,http://www.woodbuffalobrewingco.ca
"Woodhouse Brewing","164 Evans Avenue","Etobicoke, Canada",,,,"(416) 723-7046",contract,http://www.woodhousebrewing.com
"Woods, the","148 2nd Ave N","Saskatoon, Canada",,,,"(306) 652-5883",contract,
"Yellow Belly Brewery","288 Water St","St John's, Canada",,,,"(709) 757-3784",brewpub,
"Yellow Dog Brewing Co.","1 - 2817 Murray St.","Port Moody, Canada",,,,"(604) 492-0191",micro,
"Yellowhead Brewery","10229 105 St NW","Edmonton, Canada",,,,"(780) 423-3333",brewpub,http://www.yellowheadbrewery.com
"Yukon Brewing Co","102A Copper Rd","Whitehorse, Canada",,,,"(867) 668-4183",micro,http://www.yukonbeer.com
