name,address1,address2,city,state,zip,phone,type,url
,"10 Rue De La Ronde","CÉRÉ LA RONDE, France",,,,"(024) 794-2822",,http://www.brasseriedelombre.com
"A Tribbiera","RN 198 - Casamozza PRUNELLI DI FIU MORBO","PRUNELLI DI FIU MORBO, France",,,,"(049) 556-7648",,http://corsica.fiumorbu.free.fr/atribbiera.htm
"AB Bière","1 Allée Des Bois","SAINT ETIENNE SUR SUIPPE, France",,,,"(032) 647-0633",,
"ABBA (Association Bienfaisante Des Brasseurs Amateurs)","6 Rue Du Moulin","SAINT OMER DE BLAIN, France",,,,"(024) 079-0564",,
"Académie De La Bière","88 Bis Boulevard Port Royal","Paris, France",,,,,,
Aguiana,"640 Route De Larègle","CAUNEILLE, France",,,,"(052) 426-1506",,
Akerbeltz,"Zone Artisanale Larre Lore","ASCAIN, France",,,,"(055) 923-8421",,http://www.akerbeltz.fr
Alaryk,"2 rue des poiriers","Beziers, France",,,,"33 (0)9 52 13 60 88",contract,http://www.alaryk.fr
Aliénor,"24 Chemin Du Terrail","SAINT CAPRAIS DE BORDEAUX, France",,,,,,http://alienor-bieres.com
"An Alarc'h","Zone Artisanale Du Vieux Tronc","HUELGOAT, France",,,,"(029) 899-9199",,
"An Alarc'h","Z.A. Di Vieux Tronc","Huelgoat, France",,,,,,
"Annceullin/Brasserie D","4 Grand Pl","Annceullin, France",,,,"(032) 086-8360",,
Artésienne,"Parc De La Porte Des Flandres - Rue Simo","AUCHY LES MINES, France",,,,,,http://brasserie.artesienne.free.fr
"Artis. De Pouldreuzic",Tregonguen,"POULDREUZIC, France",,,,"(029) 854-3771",,
"Artis. De Rarécourt","Ferme De La Vallée","RARÉCOURT, France",,,,"(032) 988-4195",,http://www.rarecourtoise.com
"Artis. De Riquewihr","8 Avenue Jacques Preiss","RIQUEWIHR, France",,,,"(038) 973-7034",,http://www.gilbertholl.com
"Artis. Des Albères","29 Avenue Des Flaments Roses","ARGELES SUR MER, France",,,,"(046) 895-7909",,http://www.cap-dona.com
"Artis. Des Grands Cols","5 Av. Du Dauphiné BRIANCON",", France",,,,"(049) 221-3149",,http://www.brasseriedesgrandscols.fr
"Artisanale De Puisaye","Ferme Des Grenouillettes La Plauderie","SAINT PRIVÉ, France",,,,"(038) 674-9495",,http://pagesperso-orange.fr/grenouillettes
"Artisanale De Sabaudia (B.A.S)","61 Chemin De La Brondelle","SONNAZ, France",,,,"(047) 960-4293",,http://www.b-a-s.fr
"Artisanale Des Vosges","680 Rue De La Brasserie","DOMMARTIN LES REMIREMONT, France",,,,"(032) 962-2896",,http://www.brasserie-lamadelon.fr
"Artisanale Du Cambier","18 Bis Rue Pasteur","AUBIGNY AU BAC, France",,,,"(032) 792-0995",,
"Artisanale Du Sud","69 Av. Frédéric Mistral","NYONS, France",,,,"(047) 526-9575",,http://www.la-grihete.com
"Artisanale Landaise (La Séquère)","125 Route De Saubagnacq","DAX, France",,,,,,http://www.lasequere.com
"Artisanale Ratz","725 Avenue Saint Exupéry - Parc D'activi","FONTANES, France",,,,"(056) 553-0563",,http://www.biereratz.fr
"Artisanale Saaloise","8 Rue De L'Eglise","SAALES, France",,,,"(038) 897-7680",,http://www.facebook.com/brasserieartisanale.saaloise
ArtMalté,"7 Boulevard Bellevue","ANNECY, France",,,,"(067) 474-4421",,http://www.artmalte.com
"Associative Soif'Art","86 Grand'Rue","JEBSHEIM, France",,,,"(038) 922-4390",,http://www.facebook.com/brasserie.soifart
"Au Brasseur","22 Rue Des Veaux","STRASBOURG, France",,,,"(038) 836-1213",,http://www.aubrasseur.fr
"Au Chevalier Barbu","Commanderie De Saint Antoine NÉVACHE","NÉVACHE, France",,,,"(049) 220-0842",,http://www.chevalierbarbu.com/fr/
"Au Royaume Du Boeuf","100 Rue Georges Clémenceau","Cannes , France",,,,,,
Bailleux,"2 Rue Piémont","Gussignies, France",,,,"(032) 739-8904",,
"Bar L'Estaminet","45 Rue Rouyers","VERDUN, France",,,,"(032) 986-0786",,http://www.brasserie-de-verdun.com
Barbaroux,L'Hermet,"CHASSAGNES, France",,,,"(047) 174-3846",,http://www.brasseriebarbaroux.fr
"Bastide Brewery","11 Rue Du Loup","EYMET, France",,,,"(055) 327-1567",,http://www.bastidebrewery.com
"Bastide Brewery","11 Rue Du Loup","Eymet, France",,,,,,
Begusseau,"Le Cremat","SAINT GERMAIN DE CALBERTE, France",,,,"(046) 645-9337",,
"Bell' De Loing","Rue Eugène Lacroix","Amilly, France",,,,,,
Bicof,"22 Rue Paul Déroulède","JARNY, France",,,,"(038) 220-1958",,
Bicof,"22 Rue Paul Déroulède","JARNY, France",,,,"(038) 220-1958",,
Biercors,"Ferme Marceau, Villevieille","VILLARD DE LANS, France",,,,,,http://www.biereduvercors.fr
"Bière Boutique","13 Grande Rue","UZELLE, France",,,,"(038) 186-0456",,http://www.biere-boutique.fr
"Bière De Sedan","9 Place Cappel","SEDAN, France",,,,,,http://www.biere-sedan.com
"Bière D'Esgar","Le Village","PONTAIX, France",,,,"(047) 521-2950",,http://www.esgar.fr
"Bière Du Doubs","26 Grande Rue","NANCRAY, France",,,,"(038) 156-8575",,http://bierequicoule.canalblog.com
"Bière Du Plateau","Route Des Chardons HAUTEVILLE LOMPNES","HAUTEVILLE LOMPNES, France",,,,"(047) 435-2201",,
"Bière Et Montagne","14 Avenue De Chambéry","Annecy, France",,,,,,
"Bières 23","2 Place Lascougiraud - Route De Marsac SAINT ETIENNE DE FURSAC","SAINT ETIENNE DE FURSAC, France",,,,"(055) 563-5917",,http://www.bieres-23.com
"Bières Artzner",,"Strasborg, France",,,,"011 336 8984 3041",planning,
"Bières Bio Mont D'Or","18 Chemin Des Carrières","CURIS AU MONT D'OR, France",,,,,,http://www.bieresbio.fr
"Bières De Carcassonne","13 Avenue De La Promenade AIGUES VIVES","AIGUES VIVES, France",,,,"(046) 824-8817",,http://www.bieresdecarcassonne.com
"Bières De Ré","11, ZAC Des Clémorinand","SAINTE MARIE DE RE, France",,,,"(054) 643-8263",,
"Bières De Ré",Clémorinant,"Sainte-Marie-de-Ré, France",,,,,,
Bières23,"Route De Marsac","Saint-Étienne-de-Fursac, France",,,,,,
Blondel,"34 Avenue De L'Europe MONTLUÇON","MONTLUÇON, France",,,,"(047) 051-4338",,http://www.brasserieblondel.fr
Bootlegger,"82 Rue De IOuest","Parid, France",,,,,,
"Borée Ale","Refuge De La Fontaysse","BORÉE, France",,,,"(047) 529-1588",,
Bos,"155 Route De La Charité","BOURGES, France",,,,"(024) 865-9071",,http://www.brasserie-bos.fr
Bourbon,"60, Quai Ouest","St DENIS DE LA REUNION, France",,,,"(026) 290-2200",,http://www.ladodo.com
Bourganel,"7 Avenue Claude Expilly","VALS LES BAINS, France",,,,"(047) 594-0316",,http://www.bieres-bourganel.com
"Brassereie Castelain","13 Rue Pasteur","Bénifontaine, France",,,,,,
"Brassereie Coreff","2 Place De La Gare","Carhaix, France",,,,,,
"Brassereie De Rarecourt","Ferme De La Vallee","Rarecourt, France",,,,,,
"Brassereie Du Pays Basque","RD 936","Bardos , France",,,,,,
"Brassereie Du Pays D'Oc","10 Avenue Marcellin Albert","Nébian, France",,,,,,
"Brassereie La Cornue","75 Chemin Des Valladets","Eguilles, France",,,,,,
"Brasserie Adelshoffen","B.P. 68","Schiltighiem Cedex, France",,,,,regional,
"Brasserie Alphand","Chemin De La Plaine","Vallouise, France",,,,,,
"Brasserie Apolonia","19 Rue De Boussières","39800 Poligny, France",,,,"+33 (0)6 42 76 08 30",,
"Brasserie Arnaud","2, Rue Jules Barbe","Les Baroches, France",,,,,,
"Brasserie Artésienne","Route Nationale","Auchy Les Mines, France",,,,,,
"Brasserie Artisanale D'Ariège-Pyrénées","6 Ter Avenue René Plaisant","Saint-Girons, France",,,,,,
"Brasserie Artisanale De Die","Route De Romeyer","Die, France",,,,,,
"Brasserie Artisanale De La Crécelle","155 Route De La Charité","Bourges, France",,,,,,
"Brasserie Artisanale Des 2 Caps","Route D'ausques","Tardinghen, France",,,,,,
"Brasserie Artisanale Des Vosges","680 Rue De La Brasserie","Dommartin-Lès-Remiremont, France",,,,,,
"Brasserie Artisanale Di Der","6 Bis Avenue De Lorraine","Motier-en-Der, France",,,,,,
"Brasserie Artisanale Du Cambier","18 Bis Rue Pasteur","Aubigny-Au-Bac, France",,,,,,
"Brasserie Artisanale Du Val D'Ainan","La Martinette","Saint-Geoire-en-valdaine, France",,,,,,
"Brasserie Artisanale La Châouette","20 Route Nationale","Saizerais, France",,,,,,
"Brasserie Artisanale Ratz","Route De Cahors","Acrambal, France",,,,,,
"Brasserie Artisanale Savoyarde","572 Boulevard Henry Bordeaus","Chambéry, France",,,,,,
"Brasserie Artisanale Touken","Z.A. De Kernevec","Minihy Treguier, France",,,,,,
"Brasserie Artisanle Du Sud","69 Avenue Frédéric Mistral","Nyons, France",,,,,,
"Brasserie Artisinale Du Tregor",Kernevec,"Tregiuer, France",,,,33-29692-1586,,
"Brasserie Atrisanale Des Grands Cols","5 Avenue Du Dauphiné","Briançon, France",,,,,,
"Brasserie Audomaroise","6-8 Rue Louis Martel","Saint-Omer, France",,,,,,
"Brasserie Bailleux","2 Rue De Piémont","Gussignies, France",,,,,,
"Brasserie Bourganel","7 Avenue Claude Expilly","Vals-Les-Bains, France",,,,,,
"Brasserie Bressan","3 Rue De La Tremoille","Vitre, France",,,,,,
"Brasserie Carpe Diem","Le Conduit","Tilly, France",,,,,,
"Brasserie Celtik","Z.A. De Bellevue","Cleguerec, France",,,,,,
"Brasserie Coopérative De Basse Semois","19 Place De La Halle","Sedan , France",,,,,,
"Brasserie D'Alauna","Chasse Des Amourettes","Valognes, France",,,,,,
"Brasserie D'Annoeullin","5 Grand Place","Annoeullin, France",,,,,,
"Brasserie De Bellefois","17 Rue De Vendeuvre",", France",,,,,,
"Brasserie De Bobtail","Le Bois De La Roue","La Prade, France",,,,"(054) 598-5492",,
"Brasserie De Bretagne",Kerouel,"Tregunc, France",,,,,,
"Brasserie De Chandres","Rue Theophile Bourgeois","Sours, France",,,,,,
"Brasserie De Clerk","42 Rue G.Clemenceau","Peronne, France",,,,22843094,regional,
"Brasserie De La Briere","Le Nézyl","Saint-Lyphard, France",,,,,,
"Brasserie De La Côte De Jade","10 Rue Henri Becquerel","Pornic, France",,,,,,
"Brasserie De La Creuse","Avenue De La Gare","Felletin, France",,,,,,
"Brasserie De La Divatte","Le Norestier","La Chapelle Basse Mer, France",,,,,,
"Brasserie De La Goutte D'Or","28 Rue De La Goutte D or","Paris , France",,,,,,
"Brasserie De La Lanterne","5 Rue De La Lanterne","Strasbourg, France",,,,,,
"Brasserie de la Lanterne","5, Rue De La Lanterne","67000 Strasbourg, France",,,,"+33 (0)3 88 32 10 10",,
"Brasserie De La Loire","109 Route De Saint-Côme","Saint-Just-Saint-Rambert, France",,,,,,
"Brasserie De La Motte Julliet","Chemin De La Brasserie","Tréban, France",,,,,,
"Brasserie De La Pigeonnelle","10 Rue De La Ronde","Céré-la-Ronde, France",,,,,,
"Brasserie De La Source","14 Rue De Prielle","Perrigny-lès-Dijon, France",,,,,,
"Brasserie De La Vallée Javot","12 Rue Vallée","Machault, France",,,,,,
"Brasserie De L'Atlantique","12 Rue Chaufour","Bordeaux, France",,,,,,
"Brasserie De Launay","La Gare De Moncontour","Plémy, France",,,,,,
"Brasserie De L'Ermitage","4 Place De La Basilique","Marienthal, France",,,,,,
"Brasserie De Pouldreuzic",Tregonguen,"Pouldreuzic, France",,,,,,
"Brasserie De Riquewihr","8 Avenue Jacques Presis","Riqewihr, France",,,,,,
"Brasserie de Saint Omer","9 Rue Edouard Devaux BP 190","Saint Omer, France",,,,,,
"Brasserie De Saint Sylvestre","SA 1 Rue De La Chapelle","Saint-Sylvestre-Capp, France",,,,28401549,regional,
"Brasserie De Saverne","S.A. Boite Postale 19 60 RTE De Dettwiller","Saverne, France",,,,88717474,regional,
"Brasserie De St-Sylvestre","126 Route Chapelle","Saint-Sylvestre-Cappel, France",,,,,,
"Brasserie De Vauclair",Giey-Sur-Aujon,"Giey-Sur-Aujon, France",,,,,,
"Brasserie Déodatienne","37 Route D'Herbaville","Saint-Dié Des Vosges, France",,,,,,
"Brasserie Des Abers","2 Avenue De Porstall","Ploudalmezeau, France",,,,,,
"Brasserie Des Albères","29 Av Des Flaments Roses","Argeles Sur Mer, France",,,,,,
"Brasserie Des Cimes","152 Avenue St Simond","Aix-Les-Bains, France",,,,,,
"Brasserie Des Côteaux","La Pech","Montgaillard, France",,,,,,
"Brasserie Des Deux Rivieres","1 Pl De La Madeleine","Morlaix, France",,,,98634192,regional,
"Brasserie Des Diaouligs","Les Landes","Saint Cast Le Guildo, France",,,,,,
"Brasserie Des Fontaines","Les Basses Fontaines","Les Verchers-sur-Layon, France",,,,,,
"Brasserie Des Garrigues","Rue De LArnede","Sommieres, France",,,,,,
"Brasserie Des Naufrageurs","Saint Georges D Oleron","Saint Georges D Oleron, France",,,,,,
"Brasserie Des Rempart","19 Boulevard De Préval","Quevert, France",,,,,,
"Brasserie Des Sources","2 Avenue Du Collège","Saint-Amand-Les-Eaux, France",,,,,,
"Brasserie Des Trois Fontaines","12 Rue Moulin Des Etangs","Fenay, France",,,,,,
"Brasserie Des Vignes","21 Bis Chemin De La Bouscayrolle","Graulhet, France",,,,,,
"Brasserie Di Cerf","26 Bis Belle Allée","Combronde, France",,,,,,
"Brasserie Distillerie Du Mont Blanc","128 Rue René Cassin","La Motte-Servolex, France",,,,,,
"Brasserie D'Orgemont","10 Rue De L'Hôtel Dieu","Sommepy-Tahure, France",,,,,,
"Brasserie Dreum","Rue Basse","Neuville-en-Avesnois, France",,,,,,
"Brasserie Du Bobtail","Le Bois De La Roue","Laprade, France",,,,45985492,regional,
"Brasserie Du Bouffay","54 Rue Des Monceaux","Craquefou, France",,,,,,
"Brasserie Du Bourbonnais","5 Route De Decize","Gannay-sur-loire, France",,,,,,
"Brasserie Du Caou","67 Rue Valentin Duriez","Merville, France",,,,,,
"Brasserie Du Chant Du Loup","19 Route De Duclair","Canteleu, France",,,,,,
"Brasserie Du Chardon","Eco-centre 441","Crolles, France",,,,,,
"Brasserie Du Château Fort","45 Promenoir Des Prêtres","Sedan , France",,,,,,
"Brasserie Du Haut Limousin",Coulerolles,"Folles, France",,,,,,
"Brasserie Du Pays Flamand","33 Rue Notre Dame","Hazebrouck, France",,,,,,
"Brasserie Du Pays Lorrain","1 Route Longway","Mount-Saint-Martin , France",,,,,,
"Brasserie Du Roy","10 Rue De Verdun","Vitteaux, France",,,,,,
"Brasserie Du Scala","96 Route Du Polygone","Strasbourg, France",,,,,,
"Brasserie Du Trégor","Z.A. De Kernevec","Minihy Treguir, France",,,,,,
"Brasserie Du Val De Drôme","Le Vilage","Saou, France",,,,,,
"Brasserie Du Ventoux","Route De Saint-Trinit","Sault, France",,,,,,
"Brasserie D'Uerach","30 Grand Rue","Uberach, France",,,,,,
"Brasserie Duplessi","13 Rue Aux Moines","Tosny, France",,,,,,
"Brasserie Dutailly","85 Rue De Paris","Gignoncourt, France",,,,,,
"Brasserie Duyck","113 Rue Nationale B.P. 6","JENLAIN, France",,,,"(032) 749-7003",,http://www.duyck.com
"Brasserie Duyck S.A.",,"Jenlain, France",,,,27497003,regional,
"Brasserie Eduens","6 Place De La-Mairie","Dracy Le Fort, France",,,,,,
"Brasserie Eldorado","52 Rue Francois Lavielle","Cherbourg-Octeville, France",,,,,,
"Brasserie Fischer","Boite Postale 48 7 Route De Bischwiller","67300 SCHILTIGHEIM, France",,,,"88 33 8200",regional,
"Brasserie Franc Comtoise","24 Faubourg De France","Giromagny, France",,,,,,
"Brasserie Georges","30 Cours De Verdun Perrache","Lyon, France",,,,,,
"Brasserie Gildard","La Rivière","Bérigny, France",,,,,,
"Brasserie Gildard","4, La Rivière","BÉRIGNY, France",,,,,,http://lacambrousse.fr
"Brasserie Grain d'Orge","38 Rue Anatole France","Ronchin, France",,,,,,http://www.brasserie-graindorge.com
"Brasserie Grain D'Orge","38 Rue Anatole France","Ronchin, France",,,,,,
"Brasserie Gruber","9 Rte De Bischwiller","Schiltigheim, France",,,,,regional,
"Brasserie Henry","6 Rue Musard","Brazincourt-Sur-Saulx, France",,,,,,
"Brasserie Historique De L'Abbaye Du Cateau","16 Rue Marché Aux Chevaux","Le Cateau-Cambrésis, France",,,,,,
"Brasserie Hotteterre","12 Rue Hotteterre","La Couture-Boussey, France",,,,,,
"Brasserie Janicol","8 Bis Rue De L'espinet","Foix, France",,,,,,
"Brasserie Jeanne DArc","Boite Postale 5 38 Rue Anatole France","Ronchin, France",,,,20536285,regional,
"Brasserie Jephie","2B Rue Adolphe Thiers","Troyes, France",,,,,,
"Brasserie Jestin","50 Boulevard De La Liane","Saint-Léonard, France",,,,,,
"Brasserie Kohler Rehm","13 Rue Des Grandes Arcades","Strasbourg, France",,,,,,
"Brasserie La Chapelle","Le Centre","La Chapelle-Saint-Ouen, France",,,,,,
"Brasserie La Choulette","16 Rue Des Escoles","Hordain, France",,,,27357244,regional,
"Brasserie La Franche","33 Rue De Repoutot","Alumont, France",,,,,,
"Brasserie La Lutine","Route Du Bugue","Limeuil, France",,,,,,
"Brasserie La Morgat","Port Salio","Le Palais, France",,,,,,
"Brasserie La Saint Pierre","30 Rue Principale","Saint Pierre, France",,,,,,
"Brasserie La Suzannaise","Route Des Coëvrons","Sainte-Suzanne, France",,,,,,
"Brasserie Lancelot","La Mine d Or","Le Roc Saint Andre, France",,,,33-02-9774-7474,regional,
"Brasserie Lauth","63 Rue Principale","Scharrachbergheim, France",,,,,,
"Brasserie Les Brasseurs","22 Place De La Gare","Lille, France",,,,"(032) 006-4625",regional,
"Brasserie Malterie","7 Rue Du Boisla Champelle","Vandoeuvre-Les-Nancy, France",,,,,,
"Brasserie Malterie Du Pecheur","7 Route De Bischwiller B.P. 48, 67 041","Strasbourg-cedex, France",,,,62.90.90,large,
"Brasserie Mélusine","La Barboire","Chambretaud, France",,,,,,
"Brasserie Meteor","L. Haagmetzer & Cie SA 6 Rue Du General Lebocq","Hochfelden, France",,,,88.71.73.73,regional,
"Brasserie Milly","13 Rue De La Gare","Milly-Sur-Thérain, France",,,,,,
"Brasserie Monceau Saint Waast","Rue De La Brasserie","Monceau-Saint-Waast, France",,,,,,
"Brasserie Morbraz","St Léonard Nord","Theix, France",,,,,,
"Brasserie Moulins D'Ascq","270 Rue Des Fusillés","Villeneuve, France",,,,,,
"Brasserie Nouvelle De Lutece","15 Rue Du Moulin Bateau","Bonneuil, France",,,,"(334) 377-0078",regional,
"Brasserie OC'ALE","Saint Simon","Lafrançaise, France",,,,,,
"Brasserie of Marseille","148 Av. P. Mendes","Marseille, France",,,,,,
"Brasserie Outland","49 Rue Du Lieutenant Thomas","Bagnolet, France",,,,,,
"Brasserie Pietra","Route De La Marama","Furiani, France",,,,,,
"Brasserie Saâloise","8 Rue De L'Eglise","Saâles, France",,,,,,
"Brasserie Saint Alphonse","3 Route D'Algolsheim","Vogelgrun, France",,,,,,
"Brasserie Saint Martial","8 Place Denis Dussoubs","Limoges, France",,,,,,
"Brasserie Saint Paul","La Corderie","Le Ménil Bérard, France",,,,,,
"Brasserie Saint-Germain","26 Route S'Arras","Aix-noulette, France",,,,,,
"Brasserie Schutzenberger","8 Rue De La Patrie","Schiltigheim, France",,,,,,
"Brasserie St Colombe","La Landelle","Sainte Colombe , France",,,,,,
"Brasserie Thiriez","22 Rue Wormhout","Esquelbecq, France",,,,,,
"Brasserie Torra","Route De Caldaiccia","Mezzavia, France",,,,,,
"Brasserie Warenghem","Route De Guigamp","Lannion, France",,,,,,
"Brasseries De Bourbon","60 quai ouest, BP 420-97468 Saint-Denis Cedex","Ile de La Réunion, France",,,,"+262 (0) 262 90 22 00",micro,http://www.ladodo.com
"Brasseries Heineken","19 Rue Des Deux-Gares","Rueil Malmaison, France",,,,"47 14 36 50",regional,
"Brasseries Kronenbourg","68 rte d Oberhausbergen","Strasbourg Cedex 02, France",,,,"+33(0)3 88 27 44 88",large,http://www.brasseries-kronenbourg.com
"Brasseries Kronenbourg-Champigneulles","2 rue Gabriel Bour","Champigneulles, France",,,,,large,http://www.brasseries-kronenbourg.com
"Brasseries Kronenbourg-Obernai","Blvd De L`Europe BP 48","Obernal, France",,,,"+33(0)3 88 27 44 88",large,http://www.brasseries-kronenbourg.com
"Brasseurs De Bercloux","16 Rue De La Mairie","Becloux, France",,,,,,
"Brasseurs De Lorraine","3 Rue Du Bois Le Prêtre","Pont-A-Moousson, France",,,,,,
"Brasseurs Du Sornin","400 Route Roanne","Pouilly-sous-Charlieu, France",,,,,,
"Brasseurs Savoyards","124 Rue Des Roseaux Grand Epagny Nord","EPAGNY, France",,,,"(045) 022-9162",,http://www.brasseurs-savoyards.fr
"Brassreie Redoutey","Rue De Chanois","Lavigney, France",,,,,,
"Brauhaus Amneville","Centre Thermal Et Touristique Bois De Coulangae","Amnevill, France",,,,,regional,
"Breassereie Du Canardou",D9,"Villefranche De Lonchat, France",,,,,,
"Brewery in Planning - Cannes",,"Cannes, France",,,,,planning,
"Bulles D'Orge","106 Rue Du Perron","OULLINS, France",,,,"(095) 186-2867",,
Burgonde,"10 Rue De Verdun","VITTEAUX, France",,,,"(038) 096-7934",,http://brasserie-burgonde.over-blog.com
"Buron Saint Georges","Les Prés Grands","FONTANGES, France",,,,"(047) 146-5190",,http://www.buronsaintgeorges.fr
Burval,"24 Avenue De Méreille","LE VAL D'AJOL, France",,,,"(032) 965-1817",,http://www.val-heureuse.com
Burval,"24 Avenue De Méreille","LE VAL D'AJOL, France",,,,"(032) 965-1817",,
"Café De La Poste","16 Place Du Général Leclerc","ST POL SUR TERNOISE, France",,,,"(032) 103-3587",,
Castelain,"13 Rue Pasteur","BÉNIFONTAINE, France",,,,"(032) 108-6868",,http://www.chti.com
"Cerva D'Oc","Le Mas Buisson","GORRE, France",,,,"(055) 539-1796",,
Cervac-Est,"1 Allee Chaptal","Richardmenil, France",,,,,regional,
"Cervoise Saint Marcel","185 Rue Des Tanneurs","BARJOLS, France",,,,"(049) 477-2512",,
"Cervoiserie Du Terre-Neuvas","69 Rue Emmanuel Foy","Yport, France",,,,,,
Champigneulles,"2 Rue Gabriel Bour","CHAMPIGNEULLES, France",,,,"(038) 339-5002",,http://www.brasserie-champigneulles.fr
Chaumontoise,"12 Rue Raymond Pillon","CHAUMONT EN VEXIN, France",,,,,,http://www.brasseriechaumontoise.fr
Coreff,"Place De La Gare","CARHAIX-PLOUGUER, France",,,,"(029) 893-0070",,http://www.coreff.com
Corrézienne,"La Grange","CUREMONTE, France",,,,"(055) 518-2135",,http://www.brasserie-correzienne.com
"Croix Du Sud","2 Quai Toulon","MARSEILLAN, France",,,,,,http://www.brasseriecroixdusud.com
D'Ancelle,"Le Village - Chemin De Bellevue ANCELLE","ANCELLE, France",,,,"(049) 252-3162",,
"D'Ariège Pyrénées","6 Ter Avenue René Plaisant","SAINT GIRONS, France",,,,"(056) 196-6001",,http://www.bieres-ariege.com
"De Beaucaire","11 Avenue Des Collines D'Ugernum","BEAUCAIRE, France",,,,,,
"De Bel-Air","R.N. 147","SAINT-BONNET-DE-BELLAC, France",,,,"(055) 568-2693",,
"De Bellefois","51 Route De Clan","NEUVILLE DE POITOU, France",,,,"(054) 958-3350",,http://www.brasserie-de-bellefois.fr
"De Bretagne","Kerouel, Le Minaouet","TREGUNC, France",,,,"(029) 850-2597",,http://www.brasseriedebretagne.com
"De Chandres","3 Rue Parmentier","SOURS, France",,,,"(023) 725-7756",,
"De Charmois","Château De Charmoy","MOUZAY, France",,,,"(032) 980-4819",,
"De Corent","Chemin Challard","CORENT, France",,,,,,http://www.bieredecorent.fr
"De Corse","Route De Caldaniccia","MEZZAVIA, France",,,,"(049) 523-2200",,http://www.brasseriedecorse-torra.com
"De Die (La Manivelle)","La Roche - Route De Romeyer","DIE, France",,,,"(047) 521-0642",,
"De Die (La Manivelle)","La Roche - Route De Romeyer","DIE, France",,,,"(047) 521-0642",,
"De Fleurac","30 Fleurac","YDES, France",,,,"(047) 140-6063",,http://www.brasserie-fleurac.com
"De Haute-Rive","Earl Des Guillaumettes Ferme De Haute-Ri","CUVRY, France",,,,"(038) 752-5008",,http://micro-brasserie-de-haute-rive.over-blog.com
"De Kerav'ale",Keravel,"ROSCOFF, France",,,,"(029) 829-7743",,http://www.brasseriekeravale.fr
"De La Baie","6 Route De Roche Torin","COURTILS, France",,,,"(023) 360-3765",,http://www.brasseriedelabaie.com
"De La Basse Lande","La Basse Lande","SEGRIE, France",,,,"(024) 397-0726",,
"De La Bourdette","La Bourdette De Saint Jean","GAILLAC TOULZA, France",,,,"(056) 223-5526",,
"De La Cère","13 Rue Du Clos Saint-Cirq","SAINT-CÉRÉ, France",,,,"(056) 538-1550",,http://www.lesbieresdejulien.fr
"De La Châouette","22 Rue Nationale","SAIZERAIS, France",,,,"(038) 324-4528",,http://chaouette.blogspot.fr
"De La Côte Basque","5 Rue De La Négresse","BIARRITZ, France",,,,,,
"De La Côte De Jade","10 Rue Becquerel - ZI De La Blavetière","PORNIC, France",,,,"(024) 082-8716",,
"De La Creuse",,"FELLETIN, France",,,,"(055) 567-5814",,http://www.brasseriedelacreuse.com
"De La Croix Du Rat","ZA De La Croix Du Rat - Route De Meyrals","SAINT CYPRIEN, France",,,,"(055) 329-8850",,
"De La Divatte","34bis Le Norestier","LA CHAPELLE BASSE MER, France",,,,"(024) 033-3894",,http://www.brasseriedeladivatte.com
"De La Dronne","Route De Riberac","LISLE, France",,,,"(055) 305-0283",,
"De La Houblonnière","Ferme Des Vorzys","SAINT-MARTIN-DE-CLELLES, France",,,,,,
"De La Licorne (Saverne/ Karlsbrau)","60 Rue De Dettwiller","SAVERNE, France",,,,"(038) 802-1999",,
"De La Loire","109 Route De Saint Côme","ST JUST ST RAMBERT, France",,,,"(047) 752-1745",,http://www.brasseriedelaloire.fr
"De La Mée","La Védiais","TREFFIEUX, France",,,,"(024) 051-4984",,http://www.biereduchaudron.fr
"De La Motte-Juillet","La Motte-Juillet TREBAN","03240 TREBAN, France",,,,"(047) 042-3655",,
"De La Mousson","Quartier La Fauchère","SAINTE JALLE, France",,,,"(047) 526-6597",,
"De La Pigeonnelle","10 Rue De La Ronde","CÉRÉ LA RONDE, France",,,,"(024) 794-2822",,http://www.brasserie-pigeonnelle.fr
"De La Pleine Lune","ZA Les Gouvernaux 2","CHABEUIL, France",,,,"(047) 585-4719",,http://www.brasserie-pleinelune.fr
"De La Rente Rouge","La Rente Rouge","CHARGEY-LÈS-GRAY, France",,,,"(038) 431-5847",,http://www.larenterouge-brasserie.fr
"De La Somme","7 Route De Berneuil","DOMART EN PONTHIEU, France",,,,"(032) 254-0723",,http://www.brasseriedelasomme.fr
"De La Souffel","54B Rue De La Souffel","Griesheim Sur Souffel 67370, France",,,,"(038) 856-4628",,http://www.brasserie-souffel.com
"De La Vallée De Chevreuse","65 Rue De La Division Leclerc","BONNELLES, France",,,,"(096) 235-2783",,http://www.brasseriechevreuse.com
"De La Vallée De Chevreuse","65 Rue De La Division Leclerc","BONNELLES, France",,,,"(096) 235-2783",,http://www.brasseriechevreuse.com
"De La Vallée De L'Aa","6 Rue Saint Sébastien","FAUQUEMBERGUES, France",,,,,,
"De La Vallée Du Giffre",Chef-lieu,"SIXT-FER-À-CHEVAL, France",,,,,,http://www.facebook.com/brasseriedugiffre
"De La Vallée Du Giffre",Chef-lieu,"SIXT-FER-À-CHEVAL, France",,,,,,
"De La Vallée Du Giffre",Chef-lieu,"SIXT-FER-À-CHEVAL, France",,,,,,
"De L'Alagnon","Rue De La Bonale","BLESLE, France",,,,"(047) 174-1890",,http://www.brasserie-alagnon.fr
"De Languidic",Kerdaniel,"LANGUIDIC, France",,,,"(029) 785-9384",,
"De L'Ardèche Méridionale","Centre Commercial - Quartier Les Vernade ROSIÈRES","ROSIÈRES, France",,,,"(047) 593-4608",,http://www.cevenale.fr
"De Launay","La Gare De Moncontour","PLEMY, France",,,,"(029) 673-5206",,http://www.brasserie-delaunay.com
"De L'Aurore","5 Avenue De La Gare","CORMERY, France",,,,,,http://www.brasserie-aurore.fr
"De L'Escargot","910 Avenue Louis Coppel","THYEZ, France",,,,"(045) 089-7430",,
"De L'Ilet","1074 Route De Salazie","SAINT ANDRÉ, France",,,,,,http://www.brasserie-ilet.sitew.com
"De L'Ochsenfeld","51 Rue De La Douane","CERNAY, France",,,,"(038) 975-5217",,
"De L'Olanier","L'Olanier JOYEUSE",", France",,,,"(047) 539-5690",,
"De L'Ombre",L'Ombre,"IFFENDIC, France",,,,"(029) 909-7498",,http://www.brasseriedelombre.com
"De Matzenheim","23 Rue De L'Ill","67150 Matzenheim, France",,,,"(038) 874-7704",,http://www.matten.fr
"De Milly - Maeyaert","13 Rue De La Gare","MILLY SUR THERAIN, France",,,,"(034) 481-3333",,http://www.maeyaert.fr
"De Nouvelle Calédonie","BP 98","NOUMEA, France",,,,"(687) 431616",,http://www.gbnc.nc
"De Rozégat","7 Les Traouen","PLOUGASTEL-DAOULAS, France",,,,,,
"De Saint Louis","123 Rue De Mulhouse","SAINT-LOUIS, France",,,,"(038) 991-0458",,http://www.biere-de-saint-louis.com
"De Saint-Sylvestre","121 Rue De La Chapelle","ST SYLVESTRE CAPPEL, France",,,,"(032) 840-1549",,http://www.brasserie-st-sylvestre.com
"De Seebach","14 Route De Schleithal","SEEBACH, France",,,,,,
"De Solan","Saint Geniest","CARLA BAYLE, France",,,,"(056) 168-5881",,
"De St Brieuc (La Guernouillette)","120 Boulevard De L'Atlantique","SAINT-BRIEUC, France",,,,"(029) 694-0541",,http://www.wix.com/georgelinfranck22/guernouillette
"De Sutter","La Fosse À La Fraude","BAZINCOURT-SUR-EPTE, France",,,,,,
"De Tahiti","Place Notre Dame - BP 597","PAPEETE (TAHITI), France",,,,"(689) 467600",,http://www.brasseriedetahiti.pf
"De Thorame Basse","Route Thorame Haute","04170 Thorame-Basse, France",,,,"(049) 283-4223",,http://www.cordoeil.com
"De Vauclair","Route D'Arc En Barrois","GIEY SUR AUJON, France",,,,"(032) 501-0040",,http://www.la-choue.com
"De Vézelay","Rue Du Gravier","SAINT-PÈRE-SOUS-VÉZELAY, France",,,,"(038) 634-9838",,http://www.brasseriedevezelay.com
"Des 2 Caps","Ferme De La Belle Dalle","TARDINGHEN, France",,,,"(032) 110-5653",,http://www.2caps.fr
"Des Abers - Ets Adam","2 Avenue De Portsail","PLOUDALMEZEAU, France",,,,"(029) 848-1072",,http://www.adam-sa.com
"Des Anciens","45 Rue Du Château","PUBLY, France",,,,,,http://www.facebook.com/excalibier
"Des Bertranges",Vingeux,"SAINT AUBIN LES FORGES, France",,,,,,http://www.brasserie-bertranges.com
"Des Cabrioles","Ferme Des Cabrioles - Les Marches ORCIÈRES","ORCIÈRES, France",,,,,,http://www.fermedescabrioles.com
"Des Carnutes","37 Rue De Montfort","NEUVILLE AUX BOIS, France",,,,"(023) 875-0534",,http://www.carnutes.fr.nf
"Des Cévennes","Ateliers Bresson","SUMÈNE, France",,,,,,http://brasseriedescevennes.free.fr
"Des Cimes","152 Avenue De St Simond","AIX-LES-BAINS, France",,,,"(047) 988-1680",,http://brasserie-des-cimes.wifeo.com
"Des Coteaux","Domaine Du Pech","MONTGAILLARD, France",,,,"(056) 340-8101",,http://www.oxit.fr
"Des Diaoulig","Ferme Des Landes - Notre Dame De Guildo","SAINT CAST LE GUILDO, France",,,,"(029) 641-1248",,http://www.fermedeslandes.com
"Des Ecluses","99 Route De La Chênetière","VITRY AUX LOGES, France",,,,"(023) 876-4729",,http://www.labrasseriedesecluses.fr
"Des Fontaines","Les Basses Fontaines 11 Chemin Des Quart","LES VERCHERS SUR LAYON, France",,,,,,http://brasserie.fontaines.free.fr
"Des Fontaines","Les Basses Fontaines 11 Chemin Des Quart","LES VERCHERS SUR LAYON, France",,,,,,
"Des Fontaines De Jouvence","8 Rue De Dampierre","BADEVEL, France",,,,"(038) 193-0966",,http://www.fontainesdejouvence.fr.sitew.com
"Des Gabariers","17 Rue Des Gabariers","COGNAC, France",,,,"(054) 536-6136",,http://www.xobeer.com
"Des Garrigues","ZA L'Arnède Local B4","SOMMIÈRES, France",,,,"(046) 671-0553",,http://www.brasseriedesgarrigues.fr
"Des Garrigues","ZA L'Arnède Local B4","SOMMIÈRES, France",,,,"(046) 671-0553",,
"Des Hautes Vallées","L'Adrech SAINT-PAUL-SUR-UBAYE","SAINT-PAUL-SUR-UBAYE, France",,,,"(049) 284-3276",,
"Des Mauges","3 Chemin D'Elbée","BEAUPRÉAU, France",,,,,,
"Des Maures","Lou Kasta","LE LUC, France",,,,,,http://kasta.fr
"Des Monts Et Barrages",Cholet,"SAINTE ANNE SAINT PRIEST, France",,,,"(055) 501-5907",,
"Des Mottes","330 Ferme Des Mottes","MARQUILLIES, France",,,,"(032) 032-5627",,
"Des Naufrageurs","Les Landes","ST GEORGES D'OLERON, France",,,,"(054) 676-6750",,
"Des Rateliers","Rue Eugène Lacroix","AMILLY, France",,,,"(023) 898-3279",,http://www.belldeloing.fr
"Des Roches","ZA Des Tanneries","PONT-EVÊQUE, France",,,,,,http://www.brasseriedesroches.fr
"Des Sagnes","Les Sagnes","LA CROUZILLE, France",,,,"(047) 352-3261",,
"Des Sources","2 Avenue Du Collège BP 133","ST AMAND LES EAUX, France",,,,"(032) 748-7777",,
"Des Sources De Vanoise","124 Montée Château Feuillet","VILLARODIN-BOURGET, France",,,,,,
"Des Sources","2 Avenue Du Collège BP 133","ST AMAND LES EAUX, France",,,,"(032) 748-7777",,
"Des Tontons","8 Faubourg Des Graviers","PLAINFAING, France",,,,,,
"Des Trois Capitouls","2 Impasse Du Troy","TOULOUSE, France",,,,"(056) 113-3642",,
"Des Trois Épis","3 Chemin De L'Abattoir","ORGELET, France",,,,"(038) 435-2774",,
"Des Trois Fontaines","18 Rue La Plucharde","BRETENIÈRE, France",,,,"(038) 079-2012",,
"Des Trois Frontières","7, Le Ratt","BOUST, France",,,,"(038) 250-3598",,
"Des Ursulines","4 Côte Chausson","CREMIEU, France",,,,"(047) 483-6035",,http://www.biere-les-ursulines.com
"Des Vignes","9 Avenue Marcel Pagnol","GRAULHET, France",,,,,,http://www.brasseriedesvignes.fr
"Des Voirons","91 Chemin Du Château","LUCINGES, France",,,,,,http://www.brasseriedesvoirons.com
"Des Voirons","91 Chemin Du Château","LUCINGES, France",,,,,,
"Distillerie Du Mont Blanc","1460 Avenue De La Motte Servolex","CHAMBÉRY, France",,,,"(047) 962-2399",,http://www.brasserie-montblanc.com
"Distillerie Du Mont Blanc","1460 Avenue De La Motte Servolex","CHAMBÉRY, France",,,,"(047) 962-2399",,
"Distillerie Warenghem","Route De Guimgamp","LANNION, France",,,,"(029) 637-0008",,http://www.distillerie-warenghem.com
Dizlon,"16 Rue Neuve","DIZY, France",,,,"(062) 654-2890",,http://www.facebook.com/dizlon
Dizlon,"16 Rue Neuve","DIZY, France",,,,"(062) 654-2890",,http://www.facebook.com/dizlon
D'Oc,"RN 113","MEZE, France",,,,"(046) 724-8515",,http://www.brasseriedoc.com
D'Olt,"28 Rue Sannié ST GENIEZ D'OLT","ST GENIEZ D'OLT, France",,,,"(056) 552-7503",,http://www.bieres-aveyronnaises.com
D'Orgemont,"10 Rue De L'Hôtel Dieu","SOMMEPY TAHURE, France",,,,"(032) 668-3130",,http://www.orgemont.com
Dragonne,"Lot Les Préaux 19 Allée Du Chardonnay","CHANES, France",,,,"(038) 540-6517",,http://www.brasserie-dragonne.com
Dreum,"Rue Basse","NEUVILLE EN AVESNOIS, France",,,,"(032) 727-5469",,http://www.ladreum.com
"Du Barbare","34 Chemin Des Révoires LA TURBIE","LA TURBIE, France",,,,,,
"Du Bois Joli","ZI Du Bois Joli","SAINT NABORD, France",,,,"(032) 962-5962",,
"Du Bouffay","54 Rue Des Monceaux","CARQUEFOU, France",,,,"(024) 052-7616",,
"Du Bougnat","317 Avenue Gambetta","BORT LES ORGUES, France",,,,"(055) 546-0404",,http://www.lebougnat.com
"Du Bouril","La Curade","VINDRAC ALAYRAC, France",,,,"(056) 356-2665",,
"Du Castel","Lou Castel","NAGES, France",,,,,,
"Du Cateau","16 Rue Du Marché Aux Chevaux","LE CATEAU CAMBRESIS, France",,,,"(032) 707-1919",,http://www.brasserieducateau.fr
"Du Causse","Chemin De Tempestat, La Magaudie","CHARTRIER-FERRIÈRE, France",,,,,,http://www.brasserieducausse.com
"Du Chant Du Loup","19 Route De Duclair","CANTELEU-ROUEN, France",,,,"(023) 536-3744",,http://www.labrasserieduchantduloup.fr.st
"Du Chardon","Eco-centre - 441, Road Charles De Gaulle","CROLLES 38920, France",,,,"(047) 640-4775",,http://www.brasserie-du-chardon.com
"Du Chartreux",Appagnié,"LANTIGNIÉ, France",,,,"(047) 469-2847",,
"Du Château Fort","45 Promenoir Des Prêtres","SEDAN, France",,,,"(032) 453-1352",,http://www.biere-la-sedane.com
"Du Chaudron","51 Rue Edmond Gerard","CHAUDENAY SUR MOSELLE, France",,,,"(038) 043-0312",,
"Du Colombier","Château Du Colombier - 2 Place Du Généra ANNONAY","ANNONAY, France",,,,"(047) 532-5009",,http://www.labrasserieducolombier.com
"Du Dauphiné","33 Rue Champ Roman","ST MARTIN D'HERES, France",,,,"(043) 837-1967",,http://www.mandrin.biz
"Du Der","7 Rue D'Alsace","MONTIER-EN-DER, France",,,,"(032) 555-9919",,http://www.brasserieartisanaleduder.fr
"Du Désert","Maison Couspeau","SAINT NAZAIRE DU DÉSERT, France",,,,"(047) 526-7117",,
"Du Galibier","ZA De La Bonne Eau","VALLOIRE, France",,,,"(047) 959-0495",,http://www.biere-galibier.com
"Du Guenin","Rue Aubret","VILLEBERNY, France",,,,,,
"Du Hérisson","Lotissement Le Rio","FONTANÈS, France",,,,,,
"Du Larzac","Le Pinel Du Larzac MILLAU","MILLAU, France",,,,"(056) 559-0296",,
"Du Léman","600b Route De Blaves","ALLINGES, France",,,,"(045) 037-4583",,http://www.biere-leman.com
"Du Luberon","72 Rue Philippe De Girard","PERTUIS, France",,,,"(049) 009-5500",,http://www.brasserie-luberon.com
"Du Lycée Sainte Croix","6 Rue Du Pont De Pierres","CAMBRAI, France",,,,"(032) 782-2875",,http://www.lycee-sainte-croix.com
"Du Marais Poitevin","2 Rue Du Port De Brouillac","COULON, France",,,,"(077) 795-7757",,http://brasseriedumaraispoitevin.over-blog.fr
"Du Mas","1972 Route De Jounquières - Parc Saint C","MONTFRIN, France",,,,,,
"Du Mascaret","Domaine Pascaud RD 10","RIONS, France",,,,"(095) 292-1138",,http://www.bieremascaret.com
"Du Merchien","Domaine Du Merchien - Penchenier","BELFORT DU QUERCY, France",,,,"(056) 364-9721",,http://www.merchien.com
"Du Mont Aiguille","Z.A. De La Croizette","CLELLES, France",,,,,,http://www.brasseriedumontaiguille.com
"Du Mont Givre","Le Mont Givre - Lotissement Les Ecureuil","POUGUES-LES-EAUX, France",,,,,,http://www.facebook.com/brasserie.dumontgivre
"Du Mont Salève","151 Rue Du Jura","NEYDENS, France",,,,"(045) 074-9661",,http://labrasseriedumontsaleve.com
"Du Pays Des Gaves","1a Camin De Catibère","ARCIZANS-AVANT, France",,,,"(056) 232-7661",,http://brasseriedesgaves.com
"Du Pays D'Oc","10 Avenue Marcellin Albert","NEBIAN, France",,,,"(046) 788-4007",,http://www.bieresdumonde.net
"Du Pays Flamand","425 Rue André Plockyn","BLARINGHEM, France",,,,"(032) 841-7499",,http://www.bracine.com
"Du Pays Flamand","425 Rue André Plockyn","BLARINGHEM, France",,,,"(032) 841-7499",,http://www.bracine.com
"Du Pays Welche","206 Faurupt - Le Bonhomme","LAPOUTROIE, France",,,,,,http://www.brasseriedupayswelche.fr
"Du Pic Saint Loup","ZAE Des Hautes Garrigues - Route Du Frou","SAINT MARTIN DE LONDRES, France",,,,,,http://www.bieresdupic.com
"Du Pilat","ZA Des Grands Prés","ST JULIEN MOLIN MOLETTE, France",,,,"(047) 751-5617",,http://www.brasseriedupilat.com
"Du Pintadier","9 Rue Henri Baigue","BESANÇON, France",,,,"(038) 153-5697",,
"Du Pintadier","9 Rue Henri Baigue","BESANÇON, France",,,,"(038) 153-5697",,
"Du Plateau","La Gare","CROZE, France",,,,"(055) 567-5137",,
"Du Tarnon","Lieu Dit Moulin D'Astier","VÉBRON, France",,,,,,
"Du Triangle Vert","50 Route D'Orsay","MARCOUSSIS, France",,,,"(016) 980-6124",,
"Du Trièves","Place Du Vercors","MENS, France",,,,"(047) 634-0651",,
"Du Vaillant Fourquet","Au Village","L'ISLE BOUZON, France",,,,"(053) 110-0038",,
"Du Val D'Ainan","La Martinette","ST GEOIRE EN VALDAINE, France",,,,"(047) 606-3345",,http://www.la-dauphine.fr
"Du Val De Drôme","La Brasserie Du Val De Drôme","Le Village, France",,,,"(047) 576-4324",,http://www.markusbiere.com
"Du Val De Loire","23 Rue Du Maréchal De Lattre De Tassigny","CHAUMONT SUR LOIRE, France",,,,,,http://brasserievaldeloire.olympe-network.com
D'Uberach,"30 Grand Rue","UBERACH, France",,,,"(038) 807-0777",,
"Dumazeau Veyrat","33 Rue De La Gare","NIEUL, France",,,,,,
"Dumazeau Veyrat","33 Rue De La Gare","NIEUL, France",,,,,,
Duplessi,"13 Rue Aux Moines","TOSNY, France",,,,"(023) 251-5575",,http://www.brasserieduplessi.fr
Dutailly,"85 Rue De Paris","GRIGNONCOURT, France",,,,"(032) 907-9450",,http://www.brasserie-dutailly.com
"Ecole Nationale Des Industries Laitières","Rue De Versailles","POLIGNY, France",,,,"(038) 473-7676",,
"Ecomusée Vosgien De La Brasserie","Route De Mirecourt","VILLE SUR ILLON, France",,,,"(032) 936-5805",,http://www.musee-vosgien-brasserie.asso.fr
Eldorado,"52 Rue François De La Vieille","CHERBOURG, France",,,,"(023) 353-0868",,
"Entre Deux Mondes","12 Rue Ernest Reyer","MOUTIER HAUTE PIERRE, France",,,,"(038) 160-0715",,
Entre-Deux-Bières,"Les Blanchets-Nanot","MAURIAC 33540, France",,,,"(055) 671-1757",,http://www.entre-deux-bieres.com
Ermitage,"4 Place De La Basilique","MARIENTHAL, France",,,,"(038) 893-4123",,http://www.hotel-ermitage.com
"ESAT Malécot","29 Rue Coli","ARMENTIÈRES, France",,,,"(032) 017-6850",,
"ESAT Malécot","29 Rue Coli","ARMENTIÈRES, France",,,,"(032) 017-6850",,
"Et La Bière Fût","10 Quai Victor Augagneur","LYON, France",,,,"(098) 106-6602",,http://www.etlabierefut.com
"Etxeko Bob’s Beer","69 Rue Francis Jammes","HASPARREN, France",,,,"(055) 929-7039",,http://www.etxekobobsbeer.fr
"Etxeko Bob's Beer","69 R Francis Jammes","Hasparren, France",,,,,,
"Fabrique De Bières De La Baie","6 Rue De Roche Thorin","Courtils, France",,,,,,
"Fabrique Des Bières D'Anjou","La Gare","LA MENITRE, France",,,,"(024) 157-6278",,http://www.bieresdanjou.fr
"Fabrique Des Bières D'Anjou","La Gare","LA MENITRE, France",,,,"(024) 157-6278",,http://www.bieresdanjou.fr
"Ferme Brasserie Beck",Eeckelstraete,"Bailleul, France",,,,,,
"Ferme Brasserie Des Collines",Querbis,"Castelsagrat, France",,,,,,
"Ferme Brasserie Des Sagnes","Les Sagnes","La Crouzille, France",,,,,,
"Ferme Brasserie Du Bocage",Coliquan,"Montbrun-Bocage, France",,,,,,
"Ferme Brasserie Du Vexin","3 Rue De La Croix Des Ruelles","Théméricourt, France",,,,,,
"Ferme Brasserie Garland","Les Pesquiès","Algans, France",,,,,,
"Ferme Brasserie La Margoutie","La Margoutie","Blis-et-Born, France",,,,,,
"Ferme Brasserie La Soyeuse","Route De Fonrieu","Rontalon, France",,,,,,
"Ferme Brasserie Saint Rieul","Rue D'Arraines","Trumilly, France",,,,,,
"Ferme Breasserie De Saint Maritn","Rue St Martin","Réalville, France",,,,,,
"Ferme De Laubicherie",Laubicherie,"Sarlande, France",,,,,,
"Ferme Des Mottes","330 Rue De La Ferme Des Mottes","Marquillies, France",,,,,,
"Ferme Laubicherie",Laubicherie,"SARLANDE, France",,,,"(055) 352-6990",,http://www.gitesenperigordvert.com
"Ferme Rabourdin","Lieu Dit Gaillon","COURPALAY, France",,,,"(016) 425-7605",,http://www.biere-de-brie.com
"Ferme-bracerie De La Mée","La Védiais","Treffieux, France",,,,,,
"Ferme-Bras. Beck",Eeckelstraete,"BAILLEUL, France",,,,"(032) 849-0390",,http://www.fermebeck.com
"Ferme-bras. Des Collines","Famille Delboulbe","CASTELSAGRAT, France",,,,"(056) 394-2481",,
"Ferme-bras. Garland","Les Pesquiés","ALGANS, France",,,,"(056) 375-7468",,
"Ferme-bras. St Martin","Rue St Martin","REALVILLE, France",,,,,,
"Ferme-bras. St Rieul","588 Rue De Drucy","TRUMILLY, France",,,,"(034) 459-0049",,http://www.st-rieul.com
"Ferme-bras. St Rieul","588 Rue De Drucy","TRUMILLY, France",,,,"(034) 459-0049",,
"Ferme-Brasserie De Gaillon",,", France",,,,,,
"Ferme-Brasserie Du Vexin","3 Rue De La Croix Des Ruelles","THEMERICOURT, France",,,,"(013) 039-2823",,
Flamine,"417 Rue Du Docteur Guérin","OSTRICOURT, France",,,,,,
"Fleur De Houblon","5 Rue Louis De Funès","VILLENAVE D'ORNON, France",,,,"(055) 735-9847",,http://www.aquitaine-france.com/le-passeport-gourmand/fleurdehoublon.htm
Forest,"246 Rue De La Brasserie","MONCEAU ST-WAAST, France",,,,"(032) 762-4187",,
"Fort Boyard","7 Rue Pierre Marie Touboulic Z.I. Du Pon","ROCHEFORT, France",,,,,,http://www.brasseriefortboyard.com
"Franc Comtoise","24 Faubourg De France","GIROMAGNY, France",,,,"(038) 429-5637",,
"François Rabelais","La Vinerderie","CHEMILLÉ SUR DÊME, France",,,,"(024) 744-6468",,
"Freme Brasserie Blossier","La Basse Lande","Ségrie, France",,,,,,
"Frog & Rosbif","23 Rue D'Ausone","BORDEAUX, France",,,,"(055) 648-5585",,http://www.frogpubs.com
"Frog & Rosbif","14 Rue De L'Industrie","TOULOUSE, France",,,,"(056) 199-2857",,http://www.frogpubs.com
"Frog and British Library","113 avenue de France M Bibiotheque","Paris, France",,,,"+33 1 45 84 34 26",brewpub,http://www.frogpubs.com
"Frog and Princess","9 rue Princess","Paris, France",,,,"+33 1.40.51.77.38",brewpub,http://www.frogpubs.com
"Frog And Rosbif","116 Rue St Denis","Paris, France",,,,"+ 331-42-36-34-73",brewpub,http://www.frogpubs.com
"Frog and Rosbif (Toulouse)","14 rue de l'industrie","Toulouse, France",,,,"+33 5.61.99.28.57",brewpub,http://www.frogpubs.com
"Frog at Bercy Village","25 cour St Emilion","Paris, France",,,,"+33 1.43.40.70.71",brewpub,
"Frog XVI","110 Bis Avenue Kléber","PARIS, France",,,,"(014) 727-8888",,http://www.frogpubs.com
Gabriel,"7 Rue Des Moncets","FONTAINE SUR AY, France",,,,"(032) 653-3019",,
Gaïa,"Lieu Dit Ravel","PICHERANDE, France",,,,"(047) 321-1724",,http://www.gaia-biere-du-sancy.com
Gaillarde,"Les Brandals","GIGNAC, France",,,,"(056) 527-2107",,http://www.labrasseriegaillarde.fr
Gasconha,"Château Bersol. Bat 5 , 218/228 Avenue D","PESSAC, France",,,,,,http://www.gasconha.fr
Georges,"30 Cours De Verdun","LYON, France",,,,"(047) 256-5454",,http://www.brasseriegeorges.com
Gessienne,"358 Rue De Perruet - ZA De La Maladière ORNEX","ORNEX, France",,,,"(045) 040-5989",,http://www.brasseriegessienne.fr
"G-RAF/Propaganda Products","Le Gildo Pastor Center 7 rue du Gabian","98000 Monaco, France",,,,"377 97 98 50 50",,
"Grande Brasserie Alsacienne","Adelshoffen 87 Route De Bischwiller","Schiltigheim, France",,,,88.83.90.20,large,
"Grande Brasserie Alsacienne","16 Place of the Town Hall 74100 Annemasse","74100 Annemasse, France",,,,"(045) 092-1311",regional,
"Grande Brasserie De La Patrie","8 Rue De La Patrie BP 182, 67034","Schiltigheim, France",,,,88331467,regional,
"Grande Brasserie Enfants De","Boite Postale 89 63 Fbg De Paris","Douai, France",,,,27882622,regional,
"Grande Brasserie Moderne","Boite Postale 409 3 Quai D`Anvers","Roubaix, France",,,,20269226,regional,
Grenaille,"9 Rue D'Alsace","JARVILLE LA MALGRANGE, France",,,,,,http://www.grenaille.fr
Grésiv'ale,"37 Chemin Des Gites","BARRAUX, France",,,,,,http://www.facebook.com/brasserie.gresivale
"Grobul Factory","Place Du Triskell","MELLIONNEC, France",,,,"(029) 624-3421",,
"GSA Brasseries","9 Rue Ed.-Devaux (pas-de-Calais)","62504 SAINT-OMER, France",,,,"21 98 76 00",regional,
Guyanaise,"3 Chemin Mogès","MATOURY, France",,,,,,http://www.jeunegueule.com
"Haut Limousin",Coulerolles,"FOLLES, France",,,,"(055) 571-5182",,
"Heineken - France","11, Av. François Chardigny MARSEILLE","MARSEILLE, France",,,,"(049) 118-8518",,http://www.heineken.fr
"Heineken - MONS EN BAROEUL","Z.I. De La Pilaterie - 375 Rue Du Généra","MONS EN BAROEUL, France",,,,"(032) 033-6700",,http://www.heineken.fr
"Heineken - SCHILTIGHEIM","10 Rue Saint Charles","SCHILTIGHEIM, France",,,,"(038) 819-5800",,http://www.heineken.fr
Holtzmann,"40 Rue Des Vignes","WINGERSHEIM, France",,,,"(038) 851-4841",,http://brasserie-holtzmann.com
I.F.B.M.,"7 Rue Du Bois De La Champelle","VANDOEUVRE, France",,,,"(038) 344-8800",,http://www.ifbm.fr
"ISA Institut Supérieur Agricole","48 Boulevard Vauban","LILLE, France",,,,"(032) 838-4848",,http://www.isa-lille.fr
"IUT Lyon 1 - Site De Bourg-en-Bresse","Rue Henri De Boissieu BOURG-EN-BRESSE","BOURG-EN-BRESSE, France",,,,"(047) 445-5265",,http://iut.univ-lyon1.fr
"Jean-Yves Martinal","Village De Belmont BELMONT-LUTHÉZIEU","BELMONT-LUTHÉZIEU, France",,,,"(047) 987-4554",,
Jephie,"3 Avenue Clotilde Delatour MERY SUR SEINE","MERY SUR SEINE, France",,,,"(032) 582-9009",,
"Joli Rouge","109 Chemin De La Lande","CANALS, France",,,,"(056) 365-1029",,http://brasseriejolirouge.eklablog.com
Karlsbräu,"60 Rue Dettwiller","Saverne, France",,,,,,
"Kohler Rehm","11-13 Rue Des Grandes Arcades","STRASBOURG, France",,,,"(038) 832-1593",,http://www.kohler-rehm.com
Kronenbourg,"Blvd De L' Europe","OBERNAI, France",,,,"(038) 827-4488",,http://www.brasseries-kronenbourg.com
Kronenbourg,"Bld De L`Europe","Obernai, France",,,,,regional,
"L.Haag-Metzger and Cie SA","Brasserie Meteor 6 Rue Du General Lebocq","Hochfelden, France",,,,88717373,regional,
"La Bambelle",Lanvaux,"SAINT GRAVÉ, France",,,,,,http://www.labambelle.com
"La Bar De La Lune","22 Rue Palaprat","Toulouse, France",,,,,,
"La Barbaude","17 Boulevard Sergent Triaire","NÎMES, France",,,,"(046) 605-7217",,http://www.brasserielabarbaude.com
"La Bascule","Maison Forestière N°2","GLANDAGE, France",,,,"(047) 521-0249",,
"La Bierataise","848 Route De Poucharramet","Bérat, France",,,,,,
"La Biérataise","848 Route De Poucharramet","BERAT, France",,,,"(056) 214-7105",,http://www.biere-midi-pyrenees.com
"La Bière Du Haut Buëch","La Jarjatte","LUS-LA-CROIX-HAUTE, France",,,,,,http://www.bhb-brasserieartisanale.fr
"La Bouquine","5ter Rue De La Gare","VERZENAY, France",,,,,,http://www.bierebouquine.com
"La Brasserie D'Olt","28 Rue Sannie","Saint Geniez D Olt, France",,,,,,
"La Brasserie Du Pilat","ZA Du Grand Pré","Saint Julien Molin Molette, France",,,,,,
"La Cabane Du Brasseur","21 Place Henri Mengin","Nancy, France",,,,,,
"La Castagne Du Cévenol","Brasserie A La Ferme 30450 Aujac","AUJAC, France",,,,"(046) 654-4981",,http://www.la-castagne-du-cevenol.fr
"La Caussenarde","GAEC Du Masandral SAINT BEAULIZE","SAINT BEAULIZE, France",,,,"(056) 549-4576",,
"La Cave À Bulles","45 Rue Quincampoix","Paris, France",,,,,,
"La Cervoiserie","49 Rue De June 18 17138 Puilboreau","Puilboreau, France",,,,330546016785,,
"La Cervoisière","Le Bourg","ESSE, France",,,,"(054) 571-4406",,http://www.lacervoisiere.com
"La Cévenale",Solpérières,"VÉBRON, France",,,,"(046) 642-9616",,
"La Chapelle","Le Bourg","LA CHAPELLE ST OUEN, France",,,,"(023) 509-2154",,http://www.northmaen.com
"La Chopine Ardente","37 Route D'Herbaville","SAINT-DIE DES VOSGES, France",,,,,,http://www.lachopineardente.fr
"La Choulette","16 Rue Des Écoles","HORDAIN, France",,,,"(032) 735-7244",,http://www.lachoulette.com
"La Cloche","Le Bourg","BORS DE MONTMOREAU, France",,,,"(054) 523-9469",,
"La Dionysos","9 Rue De La Poste","PINS JUSTARET, France",,,,,,
"La Fabrique","2570 Route De Bonneville","AMANCY, France",,,,"(045) 003-0317",,
"La Fabrique","53 Rue Du Faubourg Saint Antoine","Paris, France",,,,,,
"La Ferme De Philou",Montcigoux,"SAINT PIERRE DE FRUGIE, France",,,,"(055) 578-5142",,
"La Ferme Des Traditions","61 Rue Jean Monnet","QUÉRÉNAING, France",,,,"(032) 727-8566",,http://www.lafermedestraditions.com
"La Ferme Du Col",,"SAINT DIZIER EN DIOIS, France",,,,"(047) 521-6480",,
"La Ferme Du Col",,"SAINT DIZIER EN DIOIS, France",,,,"(047) 521-6480",,
"La Fine Mousse","6 Avenue Jean Aicard","Paris, France",,,,,,
"La Foline","Les Graillots","ANOST, France",,,,"(038) 552-1802",,
"La Franche","28 Rue Principale","LA FERTE, France",,,,"(038) 437-5765",,http://www.lafranche.net
"La Franche","28 Rue Principale","LA FERTE, France",,,,"(038) 437-5765",,
"La Frivole","406 Montée Des Charpennes","LE PIN, France",,,,"(095) 193-0040",,http://www.brasserielafrivole.com
"La Frivole","406 Montée Des Charpennes","LE PIN, France",,,,"(095) 193-0040",,
"La Gargouille","46 Rue Victor Hugo","VÉNISSIEUX, France",,,,,,
"La Georgette",,"ISPAGNAC, France",,,,"(046) 644-2746",,
"La Gérômoise","2 Avenue Morand","GERARDMER, France",,,,"(032) 960-9145",,http://www.lageromoise.fr
"La Goële","623 Rue Du Coizel","NOYON, France",,,,,,http://www.brasserielagoele.fr
"La Goule","8 Rue De L'Eglise","FOUSSIGNAC, France",,,,"(054) 535-8757",,http://www.la-goule.com
"La Goutte D'Or","28 Rue De La Goutte D'Or","PARIS, France",,,,,,http://www.brasserielagouttedor.com
"La Grande Brasserie Moderne","3, Quad D`Anvers 59057 Routaux Cedex","1 Nord, France",,,,"20 26.92.26",regional,
"La Grange Du Seigneur",D219,"Champis, France",,,,,,
"La Grange Du Seigneur","La Grange Du Seigneur","CHAMPIS, France",,,,"(047) 558-0108",,
"La Gueule Cassée","7 Rue Du Priez","CHELLES, France",,,,,,http://www.gueule-cassee.fr
"La Gueuse","19 Rue Soufflot","Paris, France",,,,,,
"La Houblonnerie","26 Rue Gambetta","SAINT-ÉTIENNE, France",,,,,,
"La Jeunette Flamande","196 Rue Parmentier","SIN LE NOBLE, France",,,,"(032) 798-1881",,
"La Lanterne","5 Rue De La Lanterne","STRASBOURG, France",,,,"(038) 832-1010",,
"La Lie","65 Bis, Route D'Harcourt","SAINT MARTIN DE FONTENAY, France",,,,,,http://www.biere-lalie.fr
"La Lutine","Route Du Bugue","LIMEUIL, France",,,,"(055) 357-4780",,http://www.lalutine.com
"La Maison De Père Georges","Les Thoules","LA CHAPELLE D'ABONDANCE, France",,,,"(045) 073-5029",,http://www.valdabondance.com/vallee/news/ferouge.htm
"La Maison Du Terre-Neuvas","69 Rue Emmanuel Foy","YPORT, France",,,,,,
"La Malou","94 Route De Cordes","ALBI, France",,,,"(056) 377-5203",,http://brasserie-la-malou.com
"La Mare Aux Bieres","16 Bis La Place","Pitgam, France",,,,,,
"La Margoutie","Les Margouties","BLIS ET BORN, France",,,,"(055) 335-1409",,
"La Margoutie","Les Margouties","BLIS ET BORN, France",,,,"(055) 335-1409",,
"La Matrue","Ferme Des Saignes","ROZIER-EN-DONZY, France",,,,"(047) 728-8176",,
"La Matrue","Ferme Des Saignes","ROZIER-EN-DONZY, France",,,,"(047) 728-8176",,
"La Nogentaise","Rue Sainte Anne","Nogent-le-Rotrou, France",,,,,,
"La Perle Toulousaine","4 Rue De La République","VILLENEUVE-TOLOSANE, France",,,,,,http://www.facebook.com/laperletoulousaine
"La Pilloise",Taschet,"BLANZAC, France",,,,"(054) 564-1082",,http://nat.lib.free.fr
"La Pompe À Bière","6 Place Général De Gaulle","CHALON-SUR-SAÔNE, France",,,,"(038) 541-1630",,http://www.murphys-chalon.fr/pompe_a_biere.html
"La Porte De La Forêt","33 Rue Lecomte","DAMEY, France",,,,"(032) 909-3430",,
"La P'tite Mousse","120b Boulevard Des Loges","SAINT BERTHEVIN, France",,,,,,
"La Rieuse","2 Cabane De L'Angle Suiré","NUAILLÉ-D'AUNIS, France",,,,,,http://brasserie-larieuse.fr
"La Rondelle","Route De La Montagne","Sénozan, France",,,,,,
"La Rondelle Sarl","Les Grandes Terres Boite Postale 71","Senozan, France",,,,85375200,regional,
"La Rouget De Lisle - RBM","Rue Des Vernes","BLETTERANS, France",,,,"(038) 485-0918",,http://www.brasserie-rouget-lisle.fr
"La Saint Loupoise","52 Rue Fernand Lemercier","HUBY-SAINT-LEU, France",,,,,,
"La Saint Pierre","30 Rue Principale","SAINT PIERRE, France",,,,"(038) 808-8295",,http://www.lasaintpierre.com
"La Souriante","34 Rue Des Chênes","CHERMIGNAC, France",,,,,,
"La Soyeuse","Route De Fondrieu","RONTALON, France",,,,"(047) 857-5290",,http://blog.lasoyeuse.info
"La Suzannaise","11 Rue Des Coëvrons","Sainte-Suzanne, France",,,,,,
"La Taverne Du Brasseur","Centre Thermal B.P. 22","AMNÉVILLE, France",,,,"(038) 770-1177",,
"La Taverne Saint Martin","92 Rue Jean Jaurès","Brest, France",,,,,,
"La Taverne St Martin","92 Rue Jean Jaurès","BREST, France",,,,"(029) 880-4817",,
"La Tireuse","24 Rue Pargaminières","Toulouse, France",,,,,,
"La Touken","Z.A. De Kernévec","MINIHY-TRÉGUIER, France",,,,"(029) 692-2452",,http://www.philomenn.fr
"La Vache À Bière","Z.A. Pey De L'Encre - Route Des Lacs","MESSANGES, France",,,,,,
"La Vingeannie Mauricienne","Rue Du Four","SAINT MAURICE SUR VINGEANNE, France",,,,"(038) 075-8772",,
L'Abreuvoir,"21 Rue Mont Saint Odile","BREITENBACH, France",,,,,,http://www.brasserie-abreuvoir.com
L'Affoleuse,"Vers Boeuf","SAINT CYR LE CHATOUX, France",,,,"(047) 403-2258",,http://laffoleuse.over-blog.com
L'Affoleuse,"Vers Boeuf","SAINT CYR LE CHATOUX, France",,,,"(047) 403-2258",,
L'Agrivoise,"Quartier De La Gare","SAINT AGREVE, France",,,,"(047) 530-7076",,http://www.lagrivoise.fr
L'Alzina,"4 Cami Réal","BOULETERNÈRE, France",,,,"(046) 857-3284",,http://biere-alzina.com
Lancelot,"La Mine D'Or","LE ROC ST ANDRE, France",,,,"(029) 774-7474",,http://www.brasserie-lancelot.com
Lancelot,"La Mine D'Or","LE ROC ST ANDRE, France",,,,"(029) 774-7474",,http://www.brasserie-lancelot.com
"L'Antre De L'Echoppe","Rue Berlioz NARBONNE","NARBONNE, France",,,,"(046) 849-5947",,http://www.echoppemedievale.net
L'Aoucataise,"Place De La Mairie","ARREAU, France",,,,"(056) 298-6335",,
L'Aravissante,"L'Envers Du Villaret","SAINT-JEAN-DE-SIXT, France",,,,,,http://www.laravissante.fr
Larché,"89 Rue Bellocier","SENS, France",,,,"(038) 665-1989",,http://www.brasserie-larche.fr
Larché,"89 Rue Bellocier","SENS, France",,,,"(038) 665-1989",,
"L'Atelier De La Bière","Z.I. Villedieu-Niherne - Route De Châtea","VILLEDIEU-SUR-INDRE, France",,,,"(025) 460-8769",,http://www.atelierdelabiere.fr
"L'Atelier De La Bière","Z.I. Villedieu-Niherne - Route De Châtea","VILLEDIEU-SUR-INDRE, France",,,,"(025) 460-8769",,http://www.atelierdelabiere.fr
"L'Atelier De La Bière","10 Bd Marx Dormoy","Issouddun, France",,,,,,
Lauth,"63 Rue Principale","SCHARRACHBERGHEIM, France",,,,"(038) 850-6605",,http://www.brasserie-restaurant-lauth.com
"Le Brasseur Rochelais","13 Bis Rue Des Greffières","LAGORD, France",,,,"(054) 607-9689",,http://www.brasseur-rochelais.com
"Le Brewery","La Poelerie","JOUE DU BOIS, France",,,,"(023) 337-7726",,http://www.le-brewery.com
"Le Burat","Le Rouziet","CIERP-GAUD, France",,,,,,http://www.brasserieleburat.fr
"Le Clandestin (Piste Rouge)","36 Avenue De La République","LE BUGUE, France",,,,"(055) 354-1917",,
"Le Comptoir Du Malt","15 Avenue De Grèce - Vallée Des Vignes","AMIENS, France",,,,"(032) 233-6750",,http://www.lecomptoirdumalt.fr
"Le Goubelin","18 Rue Saint Exupéry","BREUILPONT, France",,,,"(067) 451-6439",,http://www.bierelegoubelin.fr
"Le Goubelin","Rue Saint Exupéry","Breuilpoint, France",,,,,,
"Le Jardin D'Helant","23 Rue Principale","ECQUEDECQUES, France",,,,"(032) 157-4044",,http://www.lejardindhelant.com
"Le Palais De La Biere","1 Rue Terme","Lyon, France",,,,,,
"Le Paradis","1 Rue De La Filature","BLAINVILLE SUR L'EAU, France",,,,,,http://brasserieleparadis.com
"Le Plan B","32 Avenue De La Libération","CLERMONT-FERRAND, France",,,,,,http://www.bieres-leplanb.com
"Le Pub Irlandais","507 Rue Du Centre","LES GETS, France",,,,"(045) 075-8602",,
"Le Sottai Malté","46 Cours Berriat","GRENOBLE, France",,,,,,http://www.sottai-malte.fr
Lebbe,"Le Village","VILLEFRANQUE, France",,,,"(056) 296-4727",,
"L'Ecume Des Jours","29 Rue Du Pavé","Jolimetz, France",,,,,,
"LEGTA De Douai Wagnonville","458 Rue De La Motte Julien","DOUAI, France",,,,"(032) 799-7555",,http://www.epl-nord.educagri.fr
Léon,"48 Boulevard De Verdun","CRÉON, France",,,,"(055) 734-3282",,http://brasseriesaintleon.com
Lepers,"199 Bis Rue Marle","LA CHAPELLE D'ARMENTIÈRES, France",,,,"(032) 086-8360",,http://www.brasserie-dannoeullin.com
"L'Epi Noir","4 Rue Georges Lardennois","Paris, France",,,,,,
"Les 3 Brasseurs","22 Place De La Gare","LILLE, France",,,,"(032) 006-4625",,
"Les 3 Brasseurs","ZAC Champ Du Pont","SAINT PRIEST, France",,,,"(047) 237-9200",,http://www.les3brasseurs.com
"Les 3 Brasseurs","23 Rue Jules Rimet","SAINT-DENIS, France",,,,"(014) 998-4910",,http://www.les3brasseurs.com
"Les 3 Brasseurs","Rue Pierre Gilles De Gennes","LABEGE, France",,,,"(056) 288-8222",,http://www.3-brasseurs-rouen.com/home_toulouse.htm
"Les 3 Brasseurs","Avenue Du 8 Mai 1945 - Bât. Solo 3","ECHIROLLES, France",,,,"(047) 629-1753",,http://sites.google.com/site/restoles3brasseursgrenoble
"Les 3 Brasseurs","Rue Jaunaie","SAINT SEBASTIEN SUR LOIRE, France",,,,"(024) 003-3023",,http://www.les3brasseurs.com
"Les 3 Brasseurs","275 Yonge Street","Toronto, France",,,,,brewpub,
"Les 3 Brasseurs","Odysseum - 1 Place De France","MONTPELLIER, France",,,,"(046) 720-1448",,http://www.les3brasseurs.com
"Les 3 Brasseurs","8 Av. Des 28 Arpents ZAC Des Varennes","BONNEUIL SUR MARNE, France",,,,"(015) 671-8045",,http://www.les3brasseurs.com
"Les 3 Brasseurs","Palais Des Congrès De Madiana","SCHOELCHER, France",,,,"(059) 672-1529",,
"Les 3 Brasseurs","Rue Clos Santeuil","ERAGNY SUR OISE, France",,,,"(013) 037-0603",,
"Les 3 Brasseurs","33, Pro. R. Laroque - Baie Des Citrons","NOUMEA, France",,,,"(687) 260865",,
"Les 3 Brasseurs","Quai Gallieni, PPT - BP 4489","PAPEETE (TAHITI), France",,,,"(689) 50 60 25",,http://les3brasseurs@mail.pf
"Les 3 Brasseurs","2 Cité Canabady","SAINT PIERRE, France",,,,"(026) 296-4539",,
"Les 3 Brasseurs","ZI St Tonquet","LE PONTET, France",,,,"(049) 002-1630",,
"Les 3 Brasseurs","63 Place Ouest Centre Commercial Carré-S","LIEUSAINT, France",,,,"(016) 413-6565",,http://www.les3brasseurs.com
"Les 3 Brasseurs","22 Place De La Gare","LILLE, France",,,,"(032) 006-4625",,http://www.les3brasseurs.com
"Les 3 Brasseurs","Avenue Jean Moulin","JAUX, France",,,,"(034) 436-4536",,http://www.les3brasseurs.com
"Les Bières D'Ax","3ème Bazerque","AX LES THERMES, France",,,,,,
"Les Bières De Charlotte","14 Rue De Chateaulin","NANTES, France",,,,,,http://www.lesbieresdecharlotte.fr
"Les Bières Des Hauts","29 Le Village","LE VALTIN, France",,,,"(032) 960-0418",,
"Les Bières Des Hauts","29 D23","Le Valtin, France",,,,,,
"Les Bières Du Bouc","24 Les Colins - Ferme De La Pierre À Che","BIONVILLE, France",,,,"(032) 941-2041",,
"Les Bières Du Temps","85 Allée Des Acacias","CHAMPIER, France",,,,"(047) 479-5296",,http://www.lesbieresdutemps.com
"Les Bières Du Temps","85 Allée Des Acacias","CHAMPIER, France",,,,"(047) 479-5296",,
"Les Bières Du Ventoux","Route De Saint-Trinit","84390 Sault, France",,,,"(049) 064-0228",,
"Les Bières D'Uzès","9030 Chemin De La Flesque - ZI Du Mas De","UZÈS, France",,,,"(046) 637-0015",,
"Les Brasseries Kronenbourg","68 Route D`Oberhausbergen BP 13, 67037","Strasbourg Cedex, France",,,,88.27.44.88,large,
"Les Brasseurs","22-24 Pl De La Gare","Lille, France",,,,,,
"Les Brasseurs D'Air","4 Rue Du Grand Puits","THIZY, France",,,,"(097) 598-7915",,
"Les Brasseurs De Gayant","63 Faubourg De Paris - B.P. 89","DOUAI CEDEX, France",,,,"(032) 793-2622",,http://www.brasseurs-gayant.com
"Les Brasseurs De Gayant","BP 89","Douai Cedex, France",,,,,regional,
"Les Brasseurs De Gayant","63 Faubourg De Paris","Douai, France",,,,,,
"Les Brasseurs De Guadeloupe","291a Route De La Grippière","PETIT-BOURG (Guadeloupe), France",,,,"(059) 038-2959",,
"Les Brasseurs De Lorraine","3 Rue Du Bois Le Prêtre","PONT A MOUSSON, France",,,,"(038) 380-0264",,http://www.brasseurs-lorraine.com
"Les Brasseurs De Lorraine","3 Rue Du Bois Le Prêtre","PONT A MOUSSON, France",,,,"(038) 380-0264",,http://www.brasseurs-lorraine.com
"Les Brasseurs Du Bercloux","16, Rue De La Mairie","BERCLOUX, France",,,,"(054) 694-1775",,http://www.bercloise.fr
"Les Brasseurs Du Sornin","400 Rue De Roanne","POUILLY SUR CHARLIEU, France",,,,"(047) 760-8228",,http://www.brasseursdusornin.com
"Les Brasseurs Savoyards","17 Place De La République","Voiron, France",,,,,,
"Les Brassins De Saint-Malo","4 Rue Chateaubriand","SAINT-MALO, France",,,,"(029) 920-5299",,http://www.facebook.com/lesbrassinsdesaintmalo
"Les Buld'Or Du Boischaut","Les Chartons","Thaumiers, France",,,,,,
"Les Caves De La Brasserie","6 Rue Du Houblon","LUTTERBACH, France",,,,"(038) 957-4848",,
"Les Caves Du Conquérant","10Ter Av. Ox and Bucks","ST ARNOULT, France",,,,"(023) 188-3150",,
"Les Chopes Des Gouris","34 Rue Haut","CHATELNEUF, France",,,,"(038) 473-2878",,
"Les Chopes Des Gouris","34 Rue Haut","CHATELNEUF, France",,,,"(038) 473-2878",,
"Les Chopes Du Moulin","21b, Rue Vincent D'Indy LAMASTRE","LAMASTRE, France",,,,"(047) 506-5660",,
"Les Chopes Du Moulin","21 Bis Rue Vincent D'Indy","Lamastre, France",,,,,,
"Les Délices De La Ferme","Rue De Sillé - L'Hommeau","AIGNÉ, France",,,,"(024) 325-3082",,http://www.lesdelicesdelaferme.fr
"Les Eaux Vives","422 Chemin Des Détours","AIGUES MORTES, France",,,,,,
"Les Fahams","Domaine Les Fahams , 3 Chemin Saul , Bra","CILAOS, France",,,,,,http://lesfahams.com
"Les Fous","Pen Ar Vern","CARNOËT, France",,,,"(029) 621-5232",,http://www.les-fous.com
"Les Frères Brasseurs","49 Route De Paris","AUCAMVILLE, France",,,,"(095) 153-7157",,http://www.freresbrasseurs.com
"Les Frères Brasseurs","Z.A. La Tronquié","Blaye-les-mines, France",,,,,,
"Les Prés En Bulles","Avenue De Marides","Quillan, France",,,,,,
"Les Prés En Bulles","Avenue De Marides QUILLAN","QUILLAN, France",,,,"(046) 869-8664",,
"Les Radicaux Libres",Boudiguen,"QUERRIEN, France",,,,"(029) 871-3782",,
"Les Trois Brasseurs","1006 Route Nationale 20","SARAN, France",,,,"(023) 883-9150",,
"Les Trois Brasseurs","Rue Aristide Boucicaut MONDEVILLE","MONDEVILLE, France",,,,"(023) 135-4949",,http://www.3brasseurs.net
"Les Trois Brasseurs","ZAC De Bois-Cany 24 Boulevard Pierre Bro","LE GRAND QUEVILLY, France",,,,"(023) 211-0101",,http://www.les3brasseurs.com
"Les Trois Brasseurs","73 Place Drouet D'Erlon","REIMS, France",,,,"(032) 847-8626",,http://www.les3brasseurs-reims.com
"Les Trois Brasseurs","Z.I. Et Commerciale","AUGNY, France",,,,"(038) 752-2266",,http://www.les3brasseurs.com
"Les Trois Brasseurs","Centre Commercial Pôle Marine","DUNKERQUE, France",,,,"(032) 859-6060",,http://www.les3brasseurs-dk.com
"Les Trois Brasseurs","ZA Grand But","LOMME, France",,,,"(032) 017-1166",,http://www.les3brasseurs.com
"Les Trois Brasseurs","Centre Commercial Auchan Englos","ENGLOS, France",,,,"(032) 010-8240",,http://www.les3brasseurs.com
"Les Trois Brasseurs","CC Auchan - Boulevard D'Halluin","RONCQ, France",,,,"(032) 028-2828",,http://www.les3brasseurs.com
"Les Trois Brasseurs","48 Avenue François Mitterand - ZAC Aucha","PETITE FORET, France",,,,"(032) 709-9929",,http://www.les3brasseurs.com
"Les Trois Brasseurs","14 Avenue Lavoisier","AUBIERE, France",,,,"(047) 315-1000",,http://www.3brasseurs.fr
"Les Trois Brasseurs","Cité De L'Europe 1001 Boulevard Du Kent","COQUELLES, France",,,,"(032) 185-3002",,http://www.les3brasseurs.com
"Les Trois Brasseurs","C.Cial Auchan","NOYELLES GODAULT, France",,,,"(032) 113-7980",,http://www.les3brasseurs.com
"Les Trois Brasseurs","ZAC De La Porte Nord","BRUAY LA BUISSIERE, France",,,,"(032) 154-7135",,http://www.les3brasseurs.com
"Les Trois Brasseurs","Boulevard Salvador Allende","NÎMES, France",,,,"(046) 675-7760",,http://www.les3brasseurs.com
"Les Trois Loups","19 Rue Pascal TRÉLOU SUR MARNE","TRÉLOU SUR MARNE, France",,,,"(032) 369-8604",,http://brasserie-les3loups.com
"Les Trois Loups","19 Rue Pascal TRÉLOU SUR MARNE","TRÉLOU SUR MARNE, France",,,,"(032) 369-8604",,http://brasserie-les3loups.com
"Les Ursulines - Biere De Crémieu","4 Côte Chausson","Crémieu, France",,,,,,
L'Esperluette,"Ancienne Cave Coopérative","ESPARRON DE PALLIÈRES, France",,,,"(049) 404-1070",,
Lobsann,"4bis Rue Principale","LOBSANN, France",,,,"(036) 991-5369",,http://brasserie-lobsann.com
Lorraine,"Quartier Union","LE LAMANTIN MARTINIQUE, France",,,,"(059) 651-1955",,http://www.brasserielorraine.com
"Lycée Agricole De Douai Wagnonville","458 Rue De La Motte Julien","Douai, France",,,,,,
"Lycée Professionnel Et Technologique Claude Daunot","10 Boulevard Georges Clémenceau","NANCY, France",,,,"(038) 355-1156",,
"Maison De Brasseur","32, Rue Antoine De Saint Exupéry","Pont D'Ain, France",,,,"(330) 474-3901",,
"Maison De Brasseur","32 Rue Saint Exupéry PONT D'AIN","PONT D'AIN, France",,,,"(047) 439-0188",,http://www.maisondebrasseur.fr
Malissoles,Fontagneux,"VARCES, France",,,,,,
Manev'Ale,"Le Riou","LE MAZET SAINT VOY, France",,,,,,http://www.brasseriemanevale.com
Marchal,"2 Rue Aristide Briand","EINVILLE, France",,,,"(038) 372-9709",,
"Mare Nostrum","Place Saint Michel CASTILLON MENTON","CASTILLON MENTON, France",,,,"(049) 304-0383",brewpub,http://www.marenostrum-france.com
Matheysine,"Ser Bouvet","NANTES EN RATTIER, France",,,,,,
Mélusine,"ZA La Barboire","CHAMBRETAUD, France",,,,"(025) 161-5152",,http://www.brasserie-melusine.com
"Merchien Brasserie",Penchenier,"Belfort-du-Quercy, France",,,,,,
Météor,"6 Rue Du Général Lebocq","HOCHFELDEN, France",,,,"(038) 802-2222",,http://www.brasserie-meteor.fr
"Michard (Saint-Martial)","8 Place Denis Dussoubs","LIMOGES, France",,,,"(055) 579-3798",,
"Micro Brasserie De Chamonix","350 Route Du Bouchet","CHAMONIX, France",,,,"(045) 053-6159",,http://www.mbchx.com
"Micro-br. L&L Alphand","BP 10 - Place Du Village VALLOUISE",", France",,,,"(049) 223-2000",,http://www.brasserie-alphand.com
"Micro-br. Le Scala","96 Route Du Polygone","STRASBOURG - NEUDORF, France",,,,"(039) 041-2445",,
"Micro-Brasserie De Chamonix","350 Route Du Bouchet","Chamonix, France",,,,,,
"Microbrasserie De Granges Sur Baume","Route De Marre","Granges Sur Baume, France",,,,,,
"Micro-Brasserie De Llnstitut","De La Brasserie Malterie Boite Postale 267","Vandoeuvre-cedex, France",,,,"83 442532",regional,
"Miellerie Gachet","Le Bost De Fortunières","CHAZELLES-SUR-LAVIEU, France",,,,,,
"Mobsby's Brasserie Artisanale","Le Moulin Perroux","Saint-Germain-de-Tallevende, France",,,,,,
"Mobsby's Brewery","Le Moulin Perreux","SAINT GERMAIN DE TALLEVENDE, France",,,,"(023) 167-3531",,http://www.mobsbys.com
"Mon Village","1 Grande Rue","CHASSEY-LÈS-MONTBOZON, France",,,,"(038) 459-0788",,
"Mon Village","53 Rue Aristide Briand","OFFEMONT, France",,,,"(038) 454-8200",,http://www.hotelmonvillage.envergure.net
"Mor Braz","4 Rue Ampère - Zone St Léonard Nord","THEIX, France",,,,"(029) 742-5353",,http://www.morbraz.com
"Moulin De Saint Martin","6 Chemin De La Laiterie","Saint-Martin-de-Bossenay, France",,,,,,
"Moulin De Saint-Martin","6 Chemin De La Laiterie","SAINT MARTIN DE BOSSENAY, France",,,,"(032) 521-0475",,http://www.lemoulindesaintmartin.com
"Moulin Des Moines","SA Moulin Meckert Diemer","Krautwiller, France",,,,88511356,regional,
"Moulins D'Ascq","270 Rue Des Fusillés","VILLENEUVE D'ASCQ, France",,,,"(032) 041-5848",,http://www.moulinsdascq.fr
"Musée Français De La Brasserie","62 Rue Charles Courtois","ST NICOLAS DE PORT, France",,,,"(038) 346-9552",,http://www.passionbrasserie.com
"My Beer Company","106 Rue Louis Rouquier","LEVALLOIS-PERRET, France",,,,,,http://www.mybeercompany.fr
"My Beer Company","106 Rue Louis Ronquier","Leallois Pereet, France",,,,,,
Nimbus,"1 Rue De Mahouas","BART, France",,,,"(038) 198-4064",,
"Ninkasi Fabriques","1 Avenue Edouard Herriot","TARARE, France",,,,"(047) 276-8907",,http://www.ninkasi.fr
"Ninkasi Fabriques","267 Rue Marcel Mérieux","Lyon, France",,,,,,
Nogentaise,"24 Rue Sainte Anne","NOGENT LE ROTROU, France",,,,,,http://www.brasserie-nogentaise.fr
"O' Neil","20 Rue Des Canettes","PARIS, France",,,,"(014) 633-3666",,http://www.oneilbar.fr
"OC ' ALE","Jambayle St Simon","LAFRANCAISE, France",,,,"(056) 365-9173",,
"Ouche Nanon","Bouchereux Village","CROISY, France",,,,,,http://www.ouche-nanon.fr
Outland,"49 Rue Du Lieutenant Thomas","BAGNOLET, France",,,,,,http://www.facebook.com/brasserieoutland
"Paname Brewing Company","41 bis Quai de la Loire","Paris, France",,,,,brewpub,
Parisis,"34 Rue De La Forêt - Local K","EPINAY-SOUS-SÉNART, France",,,,"(016) 046-6233",,http://www.brasserie-parisis.com
Pelboise,"2 Place René Groussard","MELLE, France",,,,"(054) 927-0128",,http://www.lecafeduboulevard.com
"Petite Brasserie Ardennaise","2 Chemin Du Vivier Guyon","CHARLEVILLE-MEZIERES, France",,,,"(032) 432-3247",,http://www.petite-brasserie-ardennaise.com
"Petite Brasserie Ardennaise","2 Chemin Du Vivier Guyon","Charleville-Mézières, France",,,,,,
"Petite Brasserie Picarde","89 Rue Du Puissot","GRANDFRESNOY, France",,,,"(034) 441-6609",,http://www.petitebrasseriepicarde.fr
"Petite Isle",Champsiaux,"LA MEYZE, France",,,,"(055) 500-7359",,
"Petrazoller (Bière De Moon)","4 Rue Du Temple Neuf","HATTEN, France",,,,,,http://www.bieredemoon.com
Picardennes,"29 Rue Jules Lardière - Bâtiment E","CORBIE, France",,,,"(032) 252-2849",,http://www.facebook.com/picardennes
Picardennes,"29 Rue Jules Lardière - Bâtiment E","CORBIE, France",,,,"(032) 252-2849",,http://www.facebook.com/picardennes
Picaro,"17 Rue Prosper Mérimée, Vincendo","SAINT JOSEPH, France",,,,"(026) 228-8446",,
Pico'Mousse,"ZI Du Génie - Allée Denis Papin","VÉNISSIEUX, France",,,,"(047) 870-9416",,http://www.picomousse.fr
Pietra,"Route De La Marana","FURIANI, France",,,,"(049) 530-1470",,http://www.netcorse.tm.fr/pietra/
"Pietra Brewery","Lieu dit Arbucetta","RN 193 - 20620 BIGUGLIA, France",,,,"+33 495.301.470",micro,
"Pression Paloise","Rue Saint Exupéry","LESCAR, France",,,,"(055) 981-2784",,http://pression-paloise.net23.net
Prisca,"Chemin Du Pilon","BULLY, France",,,,,,
"Pub Le Barabis","3 Rue De La Trémoille","VITRÉ, France",,,,"(029) 975-2364",,http://bressan.pub.free.fr
"Pub-brasserie Malker","147 Av. De Galliéni","BAGNOLET, France",,,,,,
Rainette,"Moulin De Chazelles","CHAZELLES, France",,,,"(054) 562-1723",,
Redoutey,"13 Rue De Chanois","LAVIGNEY, France",,,,"(038) 492-1497",,http://www.brasserieredoutey.com
Robiche,"Rue Des Champs De Pierres - Pinay","PARIGNY LES VAUX, France",,,,,,
Robin'Son,"17 Rue De La Quérelle","NANTIAT, France",,,,"(055) 553-3883",,http://www.brasserie-robinson.fr
Rollus,"28 Grande Rue","LOUVRECHY, France",,,,"(032) 241-1215",,http://www.le-carre-aux-buis.fr
"S.A. Brasseries Kroenbourg","68 Rte. D`oberhausbergen","67037 STRASBOURG, France",,,,"88 27 44 88",regional,
Sabot,"Le Breuil","THIAT, France",,,,"(055) 560-4720",,http://www.brasseriesabot.fr
Sabot,"Le Breuil","THIAT, France",,,,"(055) 560-4720",,
"Saint Georges","Saint Georges","GUERN, France",,,,"(029) 738-1680",,
"Saint Martin Bottlers","Mingo Industrial Ctr","La Savanne, France",,,,590-87-72-92,micro,
"Saint Paul","La Corderie","LE MENIL BERARD, France",,,,"(023) 334-1162",,
"Saint Paul","La Corderie","LE MENIL BERARD, France",,,,"(023) 334-1162",,
"Sainte Barbe","EURL La Cude Plein Nord Lieu Dit La Sain","HYEMONDANS, France",,,,"(038) 196-0391",,
"Sainte Colombe","La Landelle","SAINTE COLOMBE, France",,,,"(029) 947-7323",,http://www.brasserie-sainte-colombe.com
Saint-Germain,"26 Route D'Arras","AIX-NOULETTE, France",,,,"(032) 172-2424",,
Saint-Germain,"26 Route D'Arras","AIX-NOULETTE, France",,,,"(032) 172-2424",,http://www.page24.fr
Saint-Omer,"9 Rue Édouard Devaux","SAINT-OMER, France",,,,"(032) 198-7600",,http://www.brasserie-saint-omer.com
"San Miguel Brewery Inc","9 Avenue Franklin Roosevelt","75008 Paris, France",,,,,,
Sancerroise,"258 Route D'Amigny","SANCERRE, France",,,,"(024) 854-2991",,http://www.brasserie-sancerroise.com
"Saveurs & Nature","Chemin De Melen MOUSTIERS-SAINTE-MARIE","MOUSTIERS-SAINTE-MARIE, France",,,,"(049) 274-6448",,
"Science Infuse","Université De La Rochelle , Département","LA ROCHELLE CEDEX, France",,,,"(054) 645-7249",,http://science-infuse.univ-lr.fr
S'Humpaloch,"2 Chemin Du Petemit","GUEBWILLER, France",,,,"(038) 976-8408",,
Silviacus,"15 Avenue Charles De Gaulle","SAMER, France",,,,"(032) 180-1078",,http://brasserie-silviacus.com
"Single Track","2 Rue Victor Hugo","FONTAINES SUR SAÔNE, France",,,,,,http://www.brasserie-singletrack.fr
"Single Track","2 Rue Victor Hugo","FONTAINES SUR SAÔNE, France",,,,,,
"Société Ardennaise De Brasserie","20 Avenue Roger Ponsart","LAUNOIS SUR VENCE, France",,,,"(032) 435-4650",,http://www.ardwen.fr
"Société Ardennaise De Brasserie","20 Avenue Roger Ponsart","Launois-sur-Vence, France",,,,,,
Sorebra,"12 Rue André Robert","St LOUIS DE LA REUNION, France",,,,"(026) 226-8242",,
"St Alphonse","3 Route D'Algolsheim","VOGELGRUN, France",,,,"(038) 972-9098",,
"Ste Lagardère","Rue Du Pont Machet","Ars-en-Ré, France",,,,,,
"Tavarn Sur La Guette","La Biolée","CUISIA, France",,,,"(038) 444-9073",,
"Teddy Beer","1 Impasse Du Pont Carpin","ST MARTIN D'HERES, France",,,,,,http://www.brasserieteddybeer.fr
"Terra Comtix","4 Rue Du Chalet","MALANS, France",,,,"(038) 153-4289",,
"Terra Comtix","4 Rue Du Chalet","MALANS, France",,,,"(038) 153-4289",,
"Terre De Bières","218 Rue De L'Ecossais","LIMAS, France",,,,"(047) 468-4181",,http://www.terredebieres.com
"The Frog & British Library","114 Avenue De France","PARIS, France",,,,"(014) 584-3426",,http://www.frogpubs.com
"The Frog & Princess","9 Rue Princesse","PARIS, France",,,,"(014) 051-7738",,http://www.frogpubs.com
"The Frog & Rosbif","116 Rue St Denis","PARIS, France",,,,"(014) 236-3473",,http://www.frogpubs.com
"The Frog & Rosbif (Bordeaux)","23 rue Ausone","Bordeaux, France",,,,"+33 5.56.48.55.85",brewpub,
"The Frog At Bercy Village","25 Cours St Emilion - Bercy-Village","PARIS, France",,,,"(014) 340-7071",,http://www.frogpubs.com
Theillier,"11 Rue De La Chaussee","BAVAY, France",,,,"(032) 763-1018",,
Thiriez,"22 Rue De Wormhout","ESQUELBECQ, France",,,,"(032) 862-8844",,http://www.brasseriethiriez.com
"Tom & Charly","54 Rue De La Fontaine","BINING, France",,,,,,http://www.bitchum.fr
"Tom & Charly","54 Rue De La Fontaine","BINING, France",,,,,,
"Tonnerre De Brest","6 Rue De Porstrein","Brest, France",,,,,,
"Tri Martolod","Z.A. De Keranguyon","Benodet, France",,,,,,
"Tri Martolod","ZA De Colguen","CONCARNEAU, France",,,,"(029) 866-2022",,http://www.trimartolod.fr
"Tri Martolod","ZA De Colguen","CONCARNEAU, France",,,,"(029) 866-2022",,
Troiff,"La Rochette","DONZENAC, France",,,,"(077) 888-1293",,
"Val' Aisne","5 Rue Fontaine Noisetier NANTEUIL LA FOSSE","NANTEUIL LA FOSSE, France",,,,"(032) 355-8615",,
"Val' Aisne","5 Rue Fontaine Noisetier NANTEUIL LA FOSSE","NANTEUIL LA FOSSE, France",,,,"(032) 355-8615",,http://www.valaisne.fr
Vellavia,"Les Estreys","POLIGNAC, France",,,,"(047) 109-9143",,
Verfeuille,"Rue Des Taillades","BRANOUX LES TAILLADES, France",,,,"(046) 654-5071",,http://www.verfeuille.fr
Zymotik,"65 Rue Danton","MONTREUIL, France",,,,,,
Zymotik,"65 Rue Danton","Montreuil, France",,,,,,
