name,address,city,state,zip,phone,type,url
,"10 Rue De La Ronde",,,,"(024) 794-2822",,http://www.brasseriedelombre.com
"A Tribbiera","RN 198 - Casamozza PRUNELLI DI FIU MORBO",,,,"(049) 556-7648",,http://corsica.fiumorbu.free.fr/atribbiera.htm
"AB Bière","1 Allée Des Bois",,,,"(032) 647-0633",,
"ABBA (Association Bienfaisante Des Brasseurs Amateurs)","6 Rue Du Moulin",,,,"(024) 079-0564",,
"Académie De La Bière","88 Bis Boulevard Port Royal",,,,,,
Aguiana,"640 Route De Larègle",,,,"(052) 426-1506",,
Akerbeltz,"Zone Artisanale Larre Lore",,,,"(055) 923-8421",,http://www.akerbeltz.fr
Aliénor,"24 Chemin Du Terrail",,,,,,http://alienor-bieres.com
"An Alarc'h","Zone Artisanale Du Vieux Tronc",,,,"(029) 899-9199",,
"An Alarc'h","Z.A. Di Vieux Tronc",,,,,,
"Annceullin/Brasserie D","4 Grand Pl",,,,"(032) 086-8360",,
Artésienne,"Parc De La Porte Des Flandres - Rue Simo",,,,,,http://brasserie.artesienne.free.fr
"Artis. De Pouldreuzic",Tregonguen,,,,"(029) 854-3771",,
"Artis. De Rarécourt","Ferme De La Vallée",,,,"(032) 988-4195",,http://www.rarecourtoise.com
"Artis. De Riquewihr","8 Avenue Jacques Preiss",,,,"(038) 973-7034",,http://www.gilbertholl.com
"Artis. Des Albères","29 Avenue Des Flaments Roses",,,,"(046) 895-7909",,http://www.cap-dona.com
"Artis. Des Grands Cols","5 Av. Du Dauphiné BRIANCON",,,,"(049) 221-3149",,http://www.brasseriedesgrandscols.fr
"Artisanale De Puisaye","Ferme Des Grenouillettes La Plauderie",,,,"(038) 674-9495",,http://pagesperso-orange.fr/grenouillettes
"Artisanale De Sabaudia (B.A.S)","61 Chemin De La Brondelle",,,,"(047) 960-4293",,http://www.b-a-s.fr
"Artisanale Des Vosges","680 Rue De La Brasserie",,,,"(032) 962-2896",,http://www.brasserie-lamadelon.fr
"Artisanale Du Cambier","18 Bis Rue Pasteur",,,,"(032) 792-0995",,
"Artisanale Du Sud","69 Av. Frédéric Mistral",,,,"(047) 526-9575",,http://www.la-grihete.com
"Artisanale Landaise (La Séquère)","125 Route De Saubagnacq",,,,,,http://www.lasequere.com
"Artisanale Ratz","725 Avenue Saint Exupéry - Parc D'activi",,,,"(056) 553-0563",,http://www.biereratz.fr
"Artisanale Saaloise","8 Rue De L'Eglise",,,,"(038) 897-7680",,http://www.facebook.com/brasserieartisanale.saaloise
ArtMalté,"7 Boulevard Bellevue",,,,"(067) 474-4421",,http://www.artmalte.com
"Associative Soif'Art","86 Grand'Rue",,,,"(038) 922-4390",,http://www.facebook.com/brasserie.soifart
"Au Brasseur","22 Rue Des Veaux",,,,"(038) 836-1213",,http://www.aubrasseur.fr
"Au Chevalier Barbu","Commanderie De Saint Antoine NÉVACHE",,,,"(049) 220-0842",,http://www.chevalierbarbu.com/fr/
"Au Royaume Du Boeuf","100 Rue Georges Clémenceau",,,,,,
Bailleux,"2 Rue Piémont",,,,"(032) 739-8904",,
"Bar L'Estaminet","45 Rue Rouyers",,,,"(032) 986-0786",,http://www.brasserie-de-verdun.com
Barbaroux,L'Hermet,,,,"(047) 174-3846",,http://www.brasseriebarbaroux.fr
"Bastide Brewery","11 Rue Du Loup",,,,"(055) 327-1567",,http://www.bastidebrewery.com
"Bastide Brewery","11 Rue Du Loup",,,,,,
Begusseau,"Le Cremat",,,,"(046) 645-9337",,
"Bell' De Loing","Rue Eugène Lacroix",,,,,,
Bicof,"22 Rue Paul Déroulède",,,,"(038) 220-1958",,
Bicof,"22 Rue Paul Déroulède",,,,"(038) 220-1958",,
Biercors,"Ferme Marceau, Villevieille",,,,,,http://www.biereduvercors.fr
"Bière Boutique","13 Grande Rue",,,,"(038) 186-0456",,http://www.biere-boutique.fr
"Bière De Sedan","9 Place Cappel",,,,,,http://www.biere-sedan.com
"Bière D'Esgar","Le Village",,,,"(047) 521-2950",,http://www.esgar.fr
"Bière Du Doubs","26 Grande Rue",,,,"(038) 156-8575",,http://bierequicoule.canalblog.com
"Bière Du Plateau","Route Des Chardons HAUTEVILLE LOMPNES",,,,"(047) 435-2201",,
"Bière Et Montagne","14 Avenue De Chambéry",,,,,,
"Bières 23","2 Place Lascougiraud - Route De Marsac SAINT ETIENNE DE FURSAC",,,,"(055) 563-5917",,http://www.bieres-23.com
"Bières Artzner",,,,,"011 336 8984 3041",planning,
"Bières Bio Mont D'Or","18 Chemin Des Carrières",,,,,,http://www.bieresbio.fr
"Bières De Carcassonne","13 Avenue De La Promenade AIGUES VIVES",,,,"(046) 824-8817",,http://www.bieresdecarcassonne.com
"Bières De Ré","11, ZAC Des Clémorinand",,,,"(054) 643-8263",,
"Bières De Ré",Clémorinant,,,,,,
Bières23,"Route De Marsac",,,,,,
Blondel,"34 Avenue De L'Europe MONTLUÇON",,,,"(047) 051-4338",,http://www.brasserieblondel.fr
Bootlegger,"82 Rue De IOuest",,,,,,
"Borée Ale","Refuge De La Fontaysse",,,,"(047) 529-1588",,
Bos,"155 Route De La Charité",,,,"(024) 865-9071",,http://www.brasserie-bos.fr
Bourbon,"60, Quai Ouest",,,,"(026) 290-2200",,http://www.ladodo.com
Bourganel,"7 Avenue Claude Expilly",,,,"(047) 594-0316",,http://www.bieres-bourganel.com
"Brassereie Castelain","13 Rue Pasteur",,,,,,
"Brassereie Coreff","2 Place De La Gare",,,,,,
"Brassereie De Rarecourt","Ferme De La Vallee",,,,,,
"Brassereie Du Pays Basque","RD 936",,,,,,
"Brassereie Du Pays D'Oc","10 Avenue Marcellin Albert",,,,,,
"Brassereie La Cornue","75 Chemin Des Valladets",,,,,,
"Brasserie Adelshoffen","B.P. 68",,,,,regional,
"Brasserie Alphand","Chemin De La Plaine",,,,,,
"Brasserie Apolonia","19 Rue De Boussières",,,,"+33 (0)6 42 76 08 30",,
"Brasserie Arnaud","2, Rue Jules Barbe",,,,,,
"Brasserie Artésienne","Route Nationale",,,,,,
"Brasserie Artisanale D'Ariège-Pyrénées","6 Ter Avenue René Plaisant",,,,,,
"Brasserie Artisanale De Die","Route De Romeyer",,,,,,
"Brasserie Artisanale De La Crécelle","155 Route De La Charité",,,,,,
"Brasserie Artisanale Des 2 Caps","Route D'ausques",,,,,,
"Brasserie Artisanale Des Vosges","680 Rue De La Brasserie",,,,,,
"Brasserie Artisanale Di Der","6 Bis Avenue De Lorraine",,,,,,
"Brasserie Artisanale Du Cambier","18 Bis Rue Pasteur",,,,,,
"Brasserie Artisanale Du Val D'Ainan","La Martinette",,,,,,
"Brasserie Artisanale La Châouette","20 Route Nationale",,,,,,
"Brasserie Artisanale Ratz","Route De Cahors",,,,,,
"Brasserie Artisanale Savoyarde","572 Boulevard Henry Bordeaus",,,,,,
"Brasserie Artisanale Touken","Z.A. De Kernevec",,,,,,
"Brasserie Artisanle Du Sud","69 Avenue Frédéric Mistral",,,,,,
"Brasserie Artisinale Du Tregor",Kernevec,,,,33-29692-1586,,
"Brasserie Atrisanale Des Grands Cols","5 Avenue Du Dauphiné",,,,,,
"Brasserie Audomaroise","6-8 Rue Louis Martel",,,,,,
"Brasserie Bailleux","2 Rue De Piémont",,,,,,
"Brasserie Bourganel","7 Avenue Claude Expilly",,,,,,
"Brasserie Bressan","3 Rue De La Tremoille",,,,,,
"Brasserie Carpe Diem","Le Conduit",,,,,,
"Brasserie Celtik","Z.A. De Bellevue",,,,,,
"Brasserie Coopérative De Basse Semois","19 Place De La Halle",,,,,,
"Brasserie D'Alauna","Chasse Des Amourettes",,,,,,
"Brasserie D'Annoeullin","5 Grand Place",,,,,,
"Brasserie De Bellefois","17 Rue De Vendeuvre",,,,,,
"Brasserie De Bobtail","Le Bois De La Roue",,,,"(054) 598-5492",,
"Brasserie De Bretagne",Kerouel,,,,,,
"Brasserie De Chandres","Rue Theophile Bourgeois",,,,,,
"Brasserie De Clerk","42 Rue G.Clemenceau",,,,22843094,regional,
"Brasserie De La Briere","Le Nézyl",,,,,,
"Brasserie De La Côte De Jade","10 Rue Henri Becquerel",,,,,,
"Brasserie De La Creuse","Avenue De La Gare",,,,,,
"Brasserie De La Divatte","Le Norestier",,,,,,
"Brasserie De La Goutte D'Or","28 Rue De La Goutte D or",,,,,,
"Brasserie De La Lanterne","5 Rue De La Lanterne",,,,,,
"Brasserie de la Lanterne","5, Rue De La Lanterne",,,,"+33 (0)3 88 32 10 10",,
"Brasserie De La Loire","109 Route De Saint-Côme",,,,,,
"Brasserie De La Motte Julliet","Chemin De La Brasserie",,,,,,
"Brasserie De La Pigeonnelle","10 Rue De La Ronde",,,,,,
"Brasserie De La Source","14 Rue De Prielle",,,,,,
"Brasserie De La Vallée Javot","12 Rue Vallée",,,,,,
"Brasserie De L'Atlantique","12 Rue Chaufour",,,,,,
"Brasserie De Launay","La Gare De Moncontour",,,,,,
"Brasserie De L'Ermitage","4 Place De La Basilique",,,,,,
"Brasserie De Pouldreuzic",Tregonguen,,,,,,
"Brasserie De Riquewihr","8 Avenue Jacques Presis",,,,,,
"Brasserie de Saint Omer","9 Rue Edouard Devaux BP 190",,,,,,
"Brasserie De Saint Sylvestre","SA 1 Rue De La Chapelle",,,,28401549,regional,
"Brasserie De Saverne","S.A. Boite Postale 19 60 RTE De Dettwiller",,,,88717474,regional,
"Brasserie De St-Sylvestre","126 Route Chapelle",,,,,,
"Brasserie De Vauclair",Giey-Sur-Aujon,,,,,,
"Brasserie Déodatienne","37 Route D'Herbaville",,,,,,
"Brasserie Des Abers","2 Avenue De Porstall",,,,,,
"Brasserie Des Albères","29 Av Des Flaments Roses",,,,,,
"Brasserie Des Cimes","152 Avenue St Simond",,,,,,
"Brasserie Des Côteaux","La Pech",,,,,,
"Brasserie Des Deux Rivieres","1 Pl De La Madeleine",,,,98634192,regional,
"Brasserie Des Diaouligs","Les Landes",,,,,,
"Brasserie Des Fontaines","Les Basses Fontaines",,,,,,
"Brasserie Des Garrigues","Rue De LArnede",,,,,,
"Brasserie Des Naufrageurs","Saint Georges D Oleron",,,,,,
"Brasserie Des Rempart","19 Boulevard De Préval",,,,,,
"Brasserie Des Sources","2 Avenue Du Collège",,,,,,
"Brasserie Des Trois Fontaines","12 Rue Moulin Des Etangs",,,,,,
"Brasserie Des Vignes","21 Bis Chemin De La Bouscayrolle",,,,,,
"Brasserie Di Cerf","26 Bis Belle Allée",,,,,,
"Brasserie Distillerie Du Mont Blanc","128 Rue René Cassin",,,,,,
"Brasserie D'Orgemont","10 Rue De L'Hôtel Dieu",,,,,,
"Brasserie Dreum","Rue Basse",,,,,,
"Brasserie Du Bobtail","Le Bois De La Roue",,,,45985492,regional,
"Brasserie Du Bouffay","54 Rue Des Monceaux",,,,,,
"Brasserie Du Bourbonnais","5 Route De Decize",,,,,,
"Brasserie Du Caou","67 Rue Valentin Duriez",,,,,,
"Brasserie Du Chant Du Loup","19 Route De Duclair",,,,,,
"Brasserie Du Chardon","Eco-centre 441",,,,,,
"Brasserie Du Château Fort","45 Promenoir Des Prêtres",,,,,,
"Brasserie Du Haut Limousin",Coulerolles,,,,,,
"Brasserie Du Pays Flamand","33 Rue Notre Dame",,,,,,
"Brasserie Du Pays Lorrain","1 Route Longway",,,,,,
"Brasserie Du Roy","10 Rue De Verdun",,,,,,
"Brasserie Du Scala","96 Route Du Polygone",,,,,,
"Brasserie Du Trégor","Z.A. De Kernevec",,,,,,
"Brasserie Du Val De Drôme","Le Vilage",,,,,,
"Brasserie Du Ventoux","Route De Saint-Trinit",,,,,,
"Brasserie D'Uerach","30 Grand Rue",,,,,,
"Brasserie Duplessi","13 Rue Aux Moines",,,,,,
"Brasserie Dutailly","85 Rue De Paris",,,,,,
"Brasserie Duyck","113 Rue Nationale B.P. 6",,,,"(032) 749-7003",,http://www.duyck.com
"Brasserie Duyck S.A.",,,,,27497003,regional,
"Brasserie Eduens","6 Place De La-Mairie",,,,,,
"Brasserie Eldorado","52 Rue Francois Lavielle",,,,,,
"Brasserie Fischer","Boite Postale 48 7 Route De Bischwiller",,,,"88 33 8200",regional,
"Brasserie Franc Comtoise","24 Faubourg De France",,,,,,
"Brasserie Georges","30 Cours De Verdun Perrache",,,,,,
"Brasserie Gildard","La Rivière",,,,,,
"Brasserie Gildard","4, La Rivière",,,,,,http://lacambrousse.fr
"Brasserie Grain d'Orge","38 Rue Anatole France",,,,,,http://www.brasserie-graindorge.com
"Brasserie Grain D'Orge","38 Rue Anatole France",,,,,,
"Brasserie Gruber","9 Rte De Bischwiller",,,,,regional,
"Brasserie Henry","6 Rue Musard",,,,,,
"Brasserie Historique De L'Abbaye Du Cateau","16 Rue Marché Aux Chevaux",,,,,,
"Brasserie Hotteterre","12 Rue Hotteterre",,,,,,
"Brasserie Janicol","8 Bis Rue De L'espinet",,,,,,
"Brasserie Jeanne DArc","Boite Postale 5 38 Rue Anatole France",,,,20536285,regional,
"Brasserie Jephie","2B Rue Adolphe Thiers",,,,,,
"Brasserie Jestin","50 Boulevard De La Liane",,,,,,
"Brasserie Kohler Rehm","13 Rue Des Grandes Arcades",,,,,,
"Brasserie La Chapelle","Le Centre",,,,,,
"Brasserie La Choulette","16 Rue Des Escoles",,,,27357244,regional,
"Brasserie La Franche","33 Rue De Repoutot",,,,,,
"Brasserie La Lutine","Route Du Bugue",,,,,,
"Brasserie La Morgat","Port Salio",,,,,,
"Brasserie La Saint Pierre","30 Rue Principale",,,,,,
"Brasserie La Suzannaise","Route Des Coëvrons",,,,,,
"Brasserie Lancelot","La Mine d Or",,,,33-02-9774-7474,regional,
"Brasserie Lauth","63 Rue Principale",,,,,,
"Brasserie Les Brasseurs","22 Place De La Gare",,,,"(032) 006-4625",regional,
"Brasserie Malterie","7 Rue Du Boisla Champelle",,,,,,
"Brasserie Malterie Du Pecheur","7 Route De Bischwiller B.P. 48, 67 041",,,,62.90.90,large,
"Brasserie Mélusine","La Barboire",,,,,,
"Brasserie Meteor","L. Haagmetzer & Cie SA 6 Rue Du General Lebocq",,,,88.71.73.73,regional,
"Brasserie Milly","13 Rue De La Gare",,,,,,
"Brasserie Monceau Saint Waast","Rue De La Brasserie",,,,,,
"Brasserie Morbraz","St Léonard Nord",,,,,,
"Brasserie Moulins D'Ascq","270 Rue Des Fusillés",,,,,,
"Brasserie Nouvelle De Lutece","15 Rue Du Moulin Bateau",,,,"(334) 377-0078",regional,
"Brasserie OC'ALE","Saint Simon",,,,,,
"Brasserie of Marseille","148 Av. P. Mendes",,,,,,
"Brasserie Outland","49 Rue Du Lieutenant Thomas",,,,,,
"Brasserie Pietra","Route De La Marama",,,,,,
"Brasserie Saâloise","8 Rue De L'Eglise",,,,,,
"Brasserie Saint Alphonse","3 Route D'Algolsheim",,,,,,
"Brasserie Saint Martial","8 Place Denis Dussoubs",,,,,,
"Brasserie Saint Paul","La Corderie",,,,,,
"Brasserie Saint-Germain","26 Route S'Arras",,,,,,
"Brasserie Schutzenberger","8 Rue De La Patrie",,,,,,
"Brasserie St Colombe","La Landelle",,,,,,
"Brasserie Thiriez","22 Rue Wormhout",,,,,,
"Brasserie Torra","Route De Caldaiccia",,,,,,
"Brasserie Warenghem","Route De Guigamp",,,,,,
"Brasseries De Bourbon","60 quai ouest, BP 420-97468 Saint-Denis Cedex",,,,"+262 (0) 262 90 22 00",micro,http://www.ladodo.com
"Brasseries Heineken","19 Rue Des Deux-Gares",,,,"47 14 36 50",regional,
"Brasseries Kronenbourg","68 rte d Oberhausbergen",,,,"+33(0)3 88 27 44 88",large,http://www.brasseries-kronenbourg.com
"Brasseries Kronenbourg-Champigneulles","2 rue Gabriel Bour",,,,,large,http://www.brasseries-kronenbourg.com
"Brasseries Kronenbourg-Obernai","Blvd De L`Europe BP 48",,,,"+33(0)3 88 27 44 88",large,http://www.brasseries-kronenbourg.com
"Brasseurs De Bercloux","16 Rue De La Mairie",,,,,,
"Brasseurs De Lorraine","3 Rue Du Bois Le Prêtre",,,,,,
"Brasseurs Du Sornin","400 Route Roanne",,,,,,
"Brasseurs Savoyards","124 Rue Des Roseaux Grand Epagny Nord",,,,"(045) 022-9162",,http://www.brasseurs-savoyards.fr
"Brassreie Redoutey","Rue De Chanois",,,,,,
"Brauhaus Amneville","Centre Thermal Et Touristique Bois De Coulangae",,,,,regional,
"Breassereie Du Canardou",D9,,,,,,
"Brewery in Planning - Cannes",,,,,,planning,
"Bulles D'Orge","106 Rue Du Perron",,,,"(095) 186-2867",,
Burgonde,"10 Rue De Verdun",,,,"(038) 096-7934",,http://brasserie-burgonde.over-blog.com
"Buron Saint Georges","Les Prés Grands",,,,"(047) 146-5190",,http://www.buronsaintgeorges.fr
Burval,"24 Avenue De Méreille",,,,"(032) 965-1817",,http://www.val-heureuse.com
Burval,"24 Avenue De Méreille",,,,"(032) 965-1817",,
"Café De La Poste","16 Place Du Général Leclerc",,,,"(032) 103-3587",,
Castelain,"13 Rue Pasteur",,,,"(032) 108-6868",,http://www.chti.com
"Cerva D'Oc","Le Mas Buisson",,,,"(055) 539-1796",,
Cervac-Est,"1 Allee Chaptal",,,,,regional,
"Cervoise Saint Marcel","185 Rue Des Tanneurs",,,,"(049) 477-2512",,
"Cervoiserie Du Terre-Neuvas","69 Rue Emmanuel Foy",,,,,,
Champigneulles,"2 Rue Gabriel Bour",,,,"(038) 339-5002",,http://www.brasserie-champigneulles.fr
Chaumontoise,"12 Rue Raymond Pillon",,,,,,http://www.brasseriechaumontoise.fr
Coreff,"Place De La Gare",,,,"(029) 893-0070",,http://www.coreff.com
Corrézienne,"La Grange",,,,"(055) 518-2135",,http://www.brasserie-correzienne.com
"Croix Du Sud","2 Quai Toulon",,,,,,http://www.brasseriecroixdusud.com
D'Ancelle,"Le Village - Chemin De Bellevue ANCELLE",,,,"(049) 252-3162",,
"D'Ariège Pyrénées","6 Ter Avenue René Plaisant",,,,"(056) 196-6001",,http://www.bieres-ariege.com
"De Beaucaire","11 Avenue Des Collines D'Ugernum",,,,,,
"De Bel-Air","R.N. 147",,,,"(055) 568-2693",,
"De Bellefois","51 Route De Clan",,,,"(054) 958-3350",,http://www.brasserie-de-bellefois.fr
"De Bretagne","Kerouel, Le Minaouet",,,,"(029) 850-2597",,http://www.brasseriedebretagne.com
"De Chandres","3 Rue Parmentier",,,,"(023) 725-7756",,
"De Charmois","Château De Charmoy",,,,"(032) 980-4819",,
"De Corent","Chemin Challard",,,,,,http://www.bieredecorent.fr
"De Corse","Route De Caldaniccia",,,,"(049) 523-2200",,http://www.brasseriedecorse-torra.com
"De Die (La Manivelle)","La Roche - Route De Romeyer",,,,"(047) 521-0642",,
"De Die (La Manivelle)","La Roche - Route De Romeyer",,,,"(047) 521-0642",,
"De Fleurac","30 Fleurac",,,,"(047) 140-6063",,http://www.brasserie-fleurac.com
"De Haute-Rive","Earl Des Guillaumettes Ferme De Haute-Ri",,,,"(038) 752-5008",,http://micro-brasserie-de-haute-rive.over-blog.com
"De Kerav'ale",Keravel,,,,"(029) 829-7743",,http://www.brasseriekeravale.fr
"De La Baie","6 Route De Roche Torin",,,,"(023) 360-3765",,http://www.brasseriedelabaie.com
"De La Basse Lande","La Basse Lande",,,,"(024) 397-0726",,
"De La Bourdette","La Bourdette De Saint Jean",,,,"(056) 223-5526",,
"De La Cère","13 Rue Du Clos Saint-Cirq",,,,"(056) 538-1550",,http://www.lesbieresdejulien.fr
"De La Châouette","22 Rue Nationale",,,,"(038) 324-4528",,http://chaouette.blogspot.fr
"De La Côte Basque","5 Rue De La Négresse",,,,,,
"De La Côte De Jade","10 Rue Becquerel - ZI De La Blavetière",,,,"(024) 082-8716",,
"De La Creuse",,,,,"(055) 567-5814",,http://www.brasseriedelacreuse.com
"De La Croix Du Rat","ZA De La Croix Du Rat - Route De Meyrals",,,,"(055) 329-8850",,
"De La Divatte","34bis Le Norestier",,,,"(024) 033-3894",,http://www.brasseriedeladivatte.com
"De La Dronne","Route De Riberac",,,,"(055) 305-0283",,
"De La Houblonnière","Ferme Des Vorzys",,,,,,
"De La Licorne (Saverne/ Karlsbrau)","60 Rue De Dettwiller",,,,"(038) 802-1999",,
"De La Loire","109 Route De Saint Côme",,,,"(047) 752-1745",,http://www.brasseriedelaloire.fr
"De La Mée","La Védiais",,,,"(024) 051-4984",,http://www.biereduchaudron.fr
"De La Motte-Juillet","La Motte-Juillet TREBAN",,,,"(047) 042-3655",,
"De La Mousson","Quartier La Fauchère",,,,"(047) 526-6597",,
"De La Pigeonnelle","10 Rue De La Ronde",,,,"(024) 794-2822",,http://www.brasserie-pigeonnelle.fr
"De La Pleine Lune","ZA Les Gouvernaux 2",,,,"(047) 585-4719",,http://www.brasserie-pleinelune.fr
"De La Rente Rouge","La Rente Rouge",,,,"(038) 431-5847",,http://www.larenterouge-brasserie.fr
"De La Somme","7 Route De Berneuil",,,,"(032) 254-0723",,http://www.brasseriedelasomme.fr
"De La Souffel","54B Rue De La Souffel",,,,"(038) 856-4628",,http://www.brasserie-souffel.com
"De La Vallée De Chevreuse","65 Rue De La Division Leclerc",,,,"(096) 235-2783",,http://www.brasseriechevreuse.com
"De La Vallée De Chevreuse","65 Rue De La Division Leclerc",,,,"(096) 235-2783",,http://www.brasseriechevreuse.com
"De La Vallée De L'Aa","6 Rue Saint Sébastien",,,,,,
"De La Vallée Du Giffre",Chef-lieu,,,,,,http://www.facebook.com/brasseriedugiffre
"De La Vallée Du Giffre",Chef-lieu,,,,,,
"De La Vallée Du Giffre",Chef-lieu,,,,,,
"De L'Alagnon","Rue De La Bonale",,,,"(047) 174-1890",,http://www.brasserie-alagnon.fr
"De Languidic",Kerdaniel,,,,"(029) 785-9384",,
"De L'Ardèche Méridionale","Centre Commercial - Quartier Les Vernade ROSIÈRES",,,,"(047) 593-4608",,http://www.cevenale.fr
"De Launay","La Gare De Moncontour",,,,"(029) 673-5206",,http://www.brasserie-delaunay.com
"De L'Aurore","5 Avenue De La Gare",,,,,,http://www.brasserie-aurore.fr
"De L'Escargot","910 Avenue Louis Coppel",,,,"(045) 089-7430",,
"De L'Ilet","1074 Route De Salazie",,,,,,http://www.brasserie-ilet.sitew.com
"De L'Ochsenfeld","51 Rue De La Douane",,,,"(038) 975-5217",,
"De L'Olanier","L'Olanier JOYEUSE",,,,"(047) 539-5690",,
"De L'Ombre",L'Ombre,,,,"(029) 909-7498",,http://www.brasseriedelombre.com
"De Matzenheim","23 Rue De L'Ill",,,,"(038) 874-7704",,http://www.matten.fr
"De Milly - Maeyaert","13 Rue De La Gare",,,,"(034) 481-3333",,http://www.maeyaert.fr
"De Nouvelle Calédonie","BP 98",,,,"(687) 431616",,http://www.gbnc.nc
"De Rozégat","7 Les Traouen",,,,,,
"De Saint Louis","123 Rue De Mulhouse",,,,"(038) 991-0458",,http://www.biere-de-saint-louis.com
"De Saint-Sylvestre","121 Rue De La Chapelle",,,,"(032) 840-1549",,http://www.brasserie-st-sylvestre.com
"De Seebach","14 Route De Schleithal",,,,,,
"De Solan","Saint Geniest",,,,"(056) 168-5881",,
"De St Brieuc (La Guernouillette)","120 Boulevard De L'Atlantique",,,,"(029) 694-0541",,http://www.wix.com/georgelinfranck22/guernouillette
"De Sutter","La Fosse À La Fraude",,,,,,
"De Tahiti","Place Notre Dame - BP 597",,,,"(689) 467600",,http://www.brasseriedetahiti.pf
"De Thorame Basse","Route Thorame Haute",,,,"(049) 283-4223",,http://www.cordoeil.com
"De Vauclair","Route D'Arc En Barrois",,,,"(032) 501-0040",,http://www.la-choue.com
"De Vézelay","Rue Du Gravier",,,,"(038) 634-9838",,http://www.brasseriedevezelay.com
"Des 2 Caps","Ferme De La Belle Dalle",,,,"(032) 110-5653",,http://www.2caps.fr
"Des Abers - Ets Adam","2 Avenue De Portsail",,,,"(029) 848-1072",,http://www.adam-sa.com
"Des Anciens","45 Rue Du Château",,,,,,http://www.facebook.com/excalibier
"Des Bertranges",Vingeux,,,,,,http://www.brasserie-bertranges.com
"Des Cabrioles","Ferme Des Cabrioles - Les Marches ORCIÈRES",,,,,,http://www.fermedescabrioles.com
"Des Carnutes","37 Rue De Montfort",,,,"(023) 875-0534",,http://www.carnutes.fr.nf
"Des Cévennes","Ateliers Bresson",,,,,,http://brasseriedescevennes.free.fr
"Des Cimes","152 Avenue De St Simond",,,,"(047) 988-1680",,http://brasserie-des-cimes.wifeo.com
"Des Coteaux","Domaine Du Pech",,,,"(056) 340-8101",,http://www.oxit.fr
"Des Diaoulig","Ferme Des Landes - Notre Dame De Guildo",,,,"(029) 641-1248",,http://www.fermedeslandes.com
"Des Ecluses","99 Route De La Chênetière",,,,"(023) 876-4729",,http://www.labrasseriedesecluses.fr
"Des Fontaines","Les Basses Fontaines 11 Chemin Des Quart",,,,,,http://brasserie.fontaines.free.fr
"Des Fontaines","Les Basses Fontaines 11 Chemin Des Quart",,,,,,
"Des Fontaines De Jouvence","8 Rue De Dampierre",,,,"(038) 193-0966",,http://www.fontainesdejouvence.fr.sitew.com
"Des Gabariers","17 Rue Des Gabariers",,,,"(054) 536-6136",,http://www.xobeer.com
"Des Garrigues","ZA L'Arnède Local B4",,,,"(046) 671-0553",,http://www.brasseriedesgarrigues.fr
"Des Garrigues","ZA L'Arnède Local B4",,,,"(046) 671-0553",,
"Des Hautes Vallées","L'Adrech SAINT-PAUL-SUR-UBAYE",,,,"(049) 284-3276",,
"Des Mauges","3 Chemin D'Elbée",,,,,,
"Des Maures","Lou Kasta",,,,,,http://kasta.fr
"Des Monts Et Barrages",Cholet,,,,"(055) 501-5907",,
"Des Mottes","330 Ferme Des Mottes",,,,"(032) 032-5627",,
"Des Naufrageurs","Les Landes",,,,"(054) 676-6750",,
"Des Rateliers","Rue Eugène Lacroix",,,,"(023) 898-3279",,http://www.belldeloing.fr
"Des Roches","ZA Des Tanneries",,,,,,http://www.brasseriedesroches.fr
"Des Sagnes","Les Sagnes",,,,"(047) 352-3261",,
"Des Sources","2 Avenue Du Collège BP 133",,,,"(032) 748-7777",,
"Des Sources De Vanoise","124 Montée Château Feuillet",,,,,,
"Des Sources","2 Avenue Du Collège BP 133",,,,"(032) 748-7777",,
"Des Tontons","8 Faubourg Des Graviers",,,,,,
"Des Trois Capitouls","2 Impasse Du Troy",,,,"(056) 113-3642",,
"Des Trois Épis","3 Chemin De L'Abattoir",,,,"(038) 435-2774",,
"Des Trois Fontaines","18 Rue La Plucharde",,,,"(038) 079-2012",,
"Des Trois Frontières","7, Le Ratt",,,,"(038) 250-3598",,
"Des Ursulines","4 Côte Chausson",,,,"(047) 483-6035",,http://www.biere-les-ursulines.com
"Des Vignes","9 Avenue Marcel Pagnol",,,,,,http://www.brasseriedesvignes.fr
"Des Voirons","91 Chemin Du Château",,,,,,http://www.brasseriedesvoirons.com
"Des Voirons","91 Chemin Du Château",,,,,,
"Distillerie Du Mont Blanc","1460 Avenue De La Motte Servolex",,,,"(047) 962-2399",,http://www.brasserie-montblanc.com
"Distillerie Du Mont Blanc","1460 Avenue De La Motte Servolex",,,,"(047) 962-2399",,
"Distillerie Warenghem","Route De Guimgamp",,,,"(029) 637-0008",,http://www.distillerie-warenghem.com
Dizlon,"16 Rue Neuve",,,,"(062) 654-2890",,http://www.facebook.com/dizlon
Dizlon,"16 Rue Neuve",,,,"(062) 654-2890",,http://www.facebook.com/dizlon
D'Oc,"RN 113",,,,"(046) 724-8515",,http://www.brasseriedoc.com
D'Olt,"28 Rue Sannié ST GENIEZ D'OLT",,,,"(056) 552-7503",,http://www.bieres-aveyronnaises.com
D'Orgemont,"10 Rue De L'Hôtel Dieu",,,,"(032) 668-3130",,http://www.orgemont.com
Dragonne,"Lot Les Préaux 19 Allée Du Chardonnay",,,,"(038) 540-6517",,http://www.brasserie-dragonne.com
Dreum,"Rue Basse",,,,"(032) 727-5469",,http://www.ladreum.com
"Du Barbare","34 Chemin Des Révoires LA TURBIE",,,,,,
"Du Bois Joli","ZI Du Bois Joli",,,,"(032) 962-5962",,
"Du Bouffay","54 Rue Des Monceaux",,,,"(024) 052-7616",,
"Du Bougnat","317 Avenue Gambetta",,,,"(055) 546-0404",,http://www.lebougnat.com
"Du Bouril","La Curade",,,,"(056) 356-2665",,
"Du Castel","Lou Castel",,,,,,
"Du Cateau","16 Rue Du Marché Aux Chevaux",,,,"(032) 707-1919",,http://www.brasserieducateau.fr
"Du Causse","Chemin De Tempestat, La Magaudie",,,,,,http://www.brasserieducausse.com
"Du Chant Du Loup","19 Route De Duclair",,,,"(023) 536-3744",,http://www.labrasserieduchantduloup.fr.st
"Du Chardon","Eco-centre - 441, Road Charles De Gaulle",,,,"(047) 640-4775",,http://www.brasserie-du-chardon.com
"Du Chartreux",Appagnié,,,,"(047) 469-2847",,
"Du Château Fort","45 Promenoir Des Prêtres",,,,"(032) 453-1352",,http://www.biere-la-sedane.com
"Du Chaudron","51 Rue Edmond Gerard",,,,"(038) 043-0312",,
"Du Colombier","Château Du Colombier - 2 Place Du Généra ANNONAY",,,,"(047) 532-5009",,http://www.labrasserieducolombier.com
"Du Dauphiné","33 Rue Champ Roman",,,,"(043) 837-1967",,http://www.mandrin.biz
"Du Der","7 Rue D'Alsace",,,,"(032) 555-9919",,http://www.brasserieartisanaleduder.fr
"Du Désert","Maison Couspeau",,,,"(047) 526-7117",,
"Du Galibier","ZA De La Bonne Eau",,,,"(047) 959-0495",,http://www.biere-galibier.com
"Du Guenin","Rue Aubret",,,,,,
"Du Hérisson","Lotissement Le Rio",,,,,,
"Du Larzac","Le Pinel Du Larzac MILLAU",,,,"(056) 559-0296",,
"Du Léman","600b Route De Blaves",,,,"(045) 037-4583",,http://www.biere-leman.com
"Du Luberon","72 Rue Philippe De Girard",,,,"(049) 009-5500",,http://www.brasserie-luberon.com
"Du Lycée Sainte Croix","6 Rue Du Pont De Pierres",,,,"(032) 782-2875",,http://www.lycee-sainte-croix.com
"Du Marais Poitevin","2 Rue Du Port De Brouillac",,,,"(077) 795-7757",,http://brasseriedumaraispoitevin.over-blog.fr
"Du Mas","1972 Route De Jounquières - Parc Saint C",,,,,,
"Du Mascaret","Domaine Pascaud RD 10",,,,"(095) 292-1138",,http://www.bieremascaret.com
"Du Merchien","Domaine Du Merchien - Penchenier",,,,"(056) 364-9721",,http://www.merchien.com
"Du Mont Aiguille","Z.A. De La Croizette",,,,,,http://www.brasseriedumontaiguille.com
"Du Mont Givre","Le Mont Givre - Lotissement Les Ecureuil",,,,,,http://www.facebook.com/brasserie.dumontgivre
"Du Mont Salève","151 Rue Du Jura",,,,"(045) 074-9661",,http://labrasseriedumontsaleve.com
"Du Pays Des Gaves","1a Camin De Catibère",,,,"(056) 232-7661",,http://brasseriedesgaves.com
"Du Pays D'Oc","10 Avenue Marcellin Albert",,,,"(046) 788-4007",,http://www.bieresdumonde.net
"Du Pays Flamand","425 Rue André Plockyn",,,,"(032) 841-7499",,http://www.bracine.com
"Du Pays Flamand","425 Rue André Plockyn",,,,"(032) 841-7499",,http://www.bracine.com
"Du Pays Welche","206 Faurupt - Le Bonhomme",,,,,,http://www.brasseriedupayswelche.fr
"Du Pic Saint Loup","ZAE Des Hautes Garrigues - Route Du Frou",,,,,,http://www.bieresdupic.com
"Du Pilat","ZA Des Grands Prés",,,,"(047) 751-5617",,http://www.brasseriedupilat.com
"Du Pintadier","9 Rue Henri Baigue",,,,"(038) 153-5697",,
"Du Pintadier","9 Rue Henri Baigue",,,,"(038) 153-5697",,
"Du Plateau","La Gare",,,,"(055) 567-5137",,
"Du Tarnon","Lieu Dit Moulin D'Astier",,,,,,
"Du Triangle Vert","50 Route D'Orsay",,,,"(016) 980-6124",,
"Du Trièves","Place Du Vercors",,,,"(047) 634-0651",,
"Du Vaillant Fourquet","Au Village",,,,"(053) 110-0038",,
"Du Val D'Ainan","La Martinette",,,,"(047) 606-3345",,http://www.la-dauphine.fr
"Du Val De Drôme","La Brasserie Du Val De Drôme",,,,"(047) 576-4324",,http://www.markusbiere.com
"Du Val De Loire","23 Rue Du Maréchal De Lattre De Tassigny",,,,,,http://brasserievaldeloire.olympe-network.com
D'Uberach,"30 Grand Rue",,,,"(038) 807-0777",,
"Dumazeau Veyrat","33 Rue De La Gare",,,,,,
"Dumazeau Veyrat","33 Rue De La Gare",,,,,,
Duplessi,"13 Rue Aux Moines",,,,"(023) 251-5575",,http://www.brasserieduplessi.fr
Dutailly,"85 Rue De Paris",,,,"(032) 907-9450",,http://www.brasserie-dutailly.com
"Ecole Nationale Des Industries Laitières","Rue De Versailles",,,,"(038) 473-7676",,
"Ecomusée Vosgien De La Brasserie","Route De Mirecourt",,,,"(032) 936-5805",,http://www.musee-vosgien-brasserie.asso.fr
Eldorado,"52 Rue François De La Vieille",,,,"(023) 353-0868",,
"Entre Deux Mondes","12 Rue Ernest Reyer",,,,"(038) 160-0715",,
Entre-Deux-Bières,"Les Blanchets-Nanot",,,,"(055) 671-1757",,http://www.entre-deux-bieres.com
Ermitage,"4 Place De La Basilique",,,,"(038) 893-4123",,http://www.hotel-ermitage.com
"ESAT Malécot","29 Rue Coli",,,,"(032) 017-6850",,
"ESAT Malécot","29 Rue Coli",,,,"(032) 017-6850",,
"Et La Bière Fût","10 Quai Victor Augagneur",,,,"(098) 106-6602",,http://www.etlabierefut.com
"Etxeko Bob’s Beer","69 Rue Francis Jammes",,,,"(055) 929-7039",,http://www.etxekobobsbeer.fr
"Etxeko Bob's Beer","69 R Francis Jammes",,,,,,
"Fabrique De Bières De La Baie","6 Rue De Roche Thorin",,,,,,
"Fabrique Des Bières D'Anjou","La Gare",,,,"(024) 157-6278",,http://www.bieresdanjou.fr
"Fabrique Des Bières D'Anjou","La Gare",,,,"(024) 157-6278",,http://www.bieresdanjou.fr
"Ferme Brasserie Beck",Eeckelstraete,,,,,,
"Ferme Brasserie Des Collines",Querbis,,,,,,
"Ferme Brasserie Des Sagnes","Les Sagnes",,,,,,
"Ferme Brasserie Du Bocage",Coliquan,,,,,,
"Ferme Brasserie Du Vexin","3 Rue De La Croix Des Ruelles",,,,,,
"Ferme Brasserie Garland","Les Pesquiès",,,,,,
"Ferme Brasserie La Margoutie","La Margoutie",,,,,,
"Ferme Brasserie La Soyeuse","Route De Fonrieu",,,,,,
"Ferme Brasserie Saint Rieul","Rue D'Arraines",,,,,,
"Ferme Breasserie De Saint Maritn","Rue St Martin",,,,,,
"Ferme De Laubicherie",Laubicherie,,,,,,
"Ferme Des Mottes","330 Rue De La Ferme Des Mottes",,,,,,
"Ferme Laubicherie",Laubicherie,,,,"(055) 352-6990",,http://www.gitesenperigordvert.com
"Ferme Rabourdin","Lieu Dit Gaillon",,,,"(016) 425-7605",,http://www.biere-de-brie.com
"Ferme-bracerie De La Mée","La Védiais",,,,,,
"Ferme-Bras. Beck",Eeckelstraete,,,,"(032) 849-0390",,http://www.fermebeck.com
"Ferme-bras. Des Collines","Famille Delboulbe",,,,"(056) 394-2481",,
"Ferme-bras. Garland","Les Pesquiés",,,,"(056) 375-7468",,
"Ferme-bras. St Martin","Rue St Martin",,,,,,
"Ferme-bras. St Rieul","588 Rue De Drucy",,,,"(034) 459-0049",,http://www.st-rieul.com
"Ferme-bras. St Rieul","588 Rue De Drucy",,,,"(034) 459-0049",,
"Ferme-Brasserie De Gaillon",,,,,,,
"Ferme-Brasserie Du Vexin","3 Rue De La Croix Des Ruelles",,,,"(013) 039-2823",,
Flamine,"417 Rue Du Docteur Guérin",,,,,,
"Fleur De Houblon","5 Rue Louis De Funès",,,,"(055) 735-9847",,http://www.aquitaine-france.com/le-passeport-gourmand/fleurdehoublon.htm
Forest,"246 Rue De La Brasserie",,,,"(032) 762-4187",,
"Fort Boyard","7 Rue Pierre Marie Touboulic Z.I. Du Pon",,,,,,http://www.brasseriefortboyard.com
"Franc Comtoise","24 Faubourg De France",,,,"(038) 429-5637",,
"François Rabelais","La Vinerderie",,,,"(024) 744-6468",,
"Freme Brasserie Blossier","La Basse Lande",,,,,,
"Frog & Rosbif","23 Rue D'Ausone",,,,"(055) 648-5585",,http://www.frogpubs.com
"Frog & Rosbif","14 Rue De L'Industrie",,,,"(056) 199-2857",,http://www.frogpubs.com
"Frog and British Library","113 avenue de France M Bibiotheque",,,,"+33 1 45 84 34 26",brewpub,http://www.frogpubs.com
"Frog and Princess","9 rue Princess",,,,"+33 1.40.51.77.38",brewpub,http://www.frogpubs.com
"Frog And Rosbif","116 Rue St Denis",,,,"+ 331-42-36-34-73",brewpub,http://www.frogpubs.com
"Frog and Rosbif (Toulouse)","14 rue de l'industrie",,,,"+33 5.61.99.28.57",brewpub,http://www.frogpubs.com
"Frog at Bercy Village","25 cour St Emilion",,,,"+33 1.43.40.70.71",brewpub,
"Frog XVI","110 Bis Avenue Kléber",,,,"(014) 727-8888",,http://www.frogpubs.com
Gabriel,"7 Rue Des Moncets",,,,"(032) 653-3019",,
Gaïa,"Lieu Dit Ravel",,,,"(047) 321-1724",,http://www.gaia-biere-du-sancy.com
Gaillarde,"Les Brandals",,,,"(056) 527-2107",,http://www.labrasseriegaillarde.fr
Gasconha,"Château Bersol. Bat 5 , 218/228 Avenue D",,,,,,http://www.gasconha.fr
Georges,"30 Cours De Verdun",,,,"(047) 256-5454",,http://www.brasseriegeorges.com
Gessienne,"358 Rue De Perruet - ZA De La Maladière ORNEX",,,,"(045) 040-5989",,http://www.brasseriegessienne.fr
"G-RAF/Propaganda Products","Le Gildo Pastor Center 7 rue du Gabian",,,,"377 97 98 50 50",,
"Grande Brasserie Alsacienne","Adelshoffen 87 Route De Bischwiller",,,,88.83.90.20,large,
"Grande Brasserie Alsacienne","16 Place of the Town Hall 74100 Annemasse",,,,"(045) 092-1311",regional,
"Grande Brasserie De La Patrie","8 Rue De La Patrie BP 182, 67034",,,,88331467,regional,
"Grande Brasserie Enfants De","Boite Postale 89 63 Fbg De Paris",,,,27882622,regional,
"Grande Brasserie Moderne","Boite Postale 409 3 Quai D`Anvers",,,,20269226,regional,
Grenaille,"9 Rue D'Alsace",,,,,,http://www.grenaille.fr
Grésiv'ale,"37 Chemin Des Gites",,,,,,http://www.facebook.com/brasserie.gresivale
"Grobul Factory","Place Du Triskell",,,,"(029) 624-3421",,
"GSA Brasseries","9 Rue Ed.-Devaux (pas-de-Calais)",,,,"21 98 76 00",regional,
Guyanaise,"3 Chemin Mogès",,,,,,http://www.jeunegueule.com
"Haut Limousin",Coulerolles,,,,"(055) 571-5182",,
"Heineken - France","11, Av. François Chardigny MARSEILLE",,,,"(049) 118-8518",,http://www.heineken.fr
"Heineken - MONS EN BAROEUL","Z.I. De La Pilaterie - 375 Rue Du Généra",,,,"(032) 033-6700",,http://www.heineken.fr
"Heineken - SCHILTIGHEIM","10 Rue Saint Charles",,,,"(038) 819-5800",,http://www.heineken.fr
Holtzmann,"40 Rue Des Vignes",,,,"(038) 851-4841",,http://brasserie-holtzmann.com
I.F.B.M.,"7 Rue Du Bois De La Champelle",,,,"(038) 344-8800",,http://www.ifbm.fr
"ISA Institut Supérieur Agricole","48 Boulevard Vauban",,,,"(032) 838-4848",,http://www.isa-lille.fr
"IUT Lyon 1 - Site De Bourg-en-Bresse","Rue Henri De Boissieu BOURG-EN-BRESSE",,,,"(047) 445-5265",,http://iut.univ-lyon1.fr
"Jean-Yves Martinal","Village De Belmont BELMONT-LUTHÉZIEU",,,,"(047) 987-4554",,
Jephie,"3 Avenue Clotilde Delatour MERY SUR SEINE",,,,"(032) 582-9009",,
"Joli Rouge","109 Chemin De La Lande",,,,"(056) 365-1029",,http://brasseriejolirouge.eklablog.com
Karlsbräu,"60 Rue Dettwiller",,,,,,
"Kohler Rehm","11-13 Rue Des Grandes Arcades",,,,"(038) 832-1593",,http://www.kohler-rehm.com
Kronenbourg,"Blvd De L' Europe",,,,"(038) 827-4488",,http://www.brasseries-kronenbourg.com
Kronenbourg,"Bld De L`Europe",,,,,regional,
"L.Haag-Metzger and Cie SA","Brasserie Meteor 6 Rue Du General Lebocq",,,,88717373,regional,
"La Bambelle",Lanvaux,,,,,,http://www.labambelle.com
"La Bar De La Lune","22 Rue Palaprat",,,,,,
"La Barbaude","17 Boulevard Sergent Triaire",,,,"(046) 605-7217",,http://www.brasserielabarbaude.com
"La Bascule","Maison Forestière N°2",,,,"(047) 521-0249",,
"La Bierataise","848 Route De Poucharramet",,,,,,
"La Biérataise","848 Route De Poucharramet",,,,"(056) 214-7105",,http://www.biere-midi-pyrenees.com
"La Bière Du Haut Buëch","La Jarjatte",,,,,,http://www.bhb-brasserieartisanale.fr
"La Bouquine","5ter Rue De La Gare",,,,,,http://www.bierebouquine.com
"La Brasserie D'Olt","28 Rue Sannie",,,,,,
"La Brasserie Du Pilat","ZA Du Grand Pré",,,,,,
"La Cabane Du Brasseur","21 Place Henri Mengin",,,,,,
"La Castagne Du Cévenol","Brasserie A La Ferme 30450 Aujac",,,,"(046) 654-4981",,http://www.la-castagne-du-cevenol.fr
"La Caussenarde","GAEC Du Masandral SAINT BEAULIZE",,,,"(056) 549-4576",,
"La Cave À Bulles","45 Rue Quincampoix",,,,,,
"La Cervoiserie","49 Rue De June 18 17138 Puilboreau",,,,330546016785,,
"La Cervoisière","Le Bourg",,,,"(054) 571-4406",,http://www.lacervoisiere.com
"La Cévenale",Solpérières,,,,"(046) 642-9616",,
"La Chapelle","Le Bourg",,,,"(023) 509-2154",,http://www.northmaen.com
"La Chopine Ardente","37 Route D'Herbaville",,,,,,http://www.lachopineardente.fr
"La Choulette","16 Rue Des Écoles",,,,"(032) 735-7244",,http://www.lachoulette.com
"La Cloche","Le Bourg",,,,"(054) 523-9469",,
"La Dionysos","9 Rue De La Poste",,,,,,
"La Fabrique","2570 Route De Bonneville",,,,"(045) 003-0317",,
"La Fabrique","53 Rue Du Faubourg Saint Antoine",,,,,,
"La Ferme De Philou",Montcigoux,,,,"(055) 578-5142",,
"La Ferme Des Traditions","61 Rue Jean Monnet",,,,"(032) 727-8566",,http://www.lafermedestraditions.com
"La Ferme Du Col",,,,,"(047) 521-6480",,
"La Ferme Du Col",,,,,"(047) 521-6480",,
"La Fine Mousse","6 Avenue Jean Aicard",,,,,,
"La Foline","Les Graillots",,,,"(038) 552-1802",,
"La Franche","28 Rue Principale",,,,"(038) 437-5765",,http://www.lafranche.net
"La Franche","28 Rue Principale",,,,"(038) 437-5765",,
"La Frivole","406 Montée Des Charpennes",,,,"(095) 193-0040",,http://www.brasserielafrivole.com
"La Frivole","406 Montée Des Charpennes",,,,"(095) 193-0040",,
"La Gargouille","46 Rue Victor Hugo",,,,,,
"La Georgette",,,,,"(046) 644-2746",,
"La Gérômoise","2 Avenue Morand",,,,"(032) 960-9145",,http://www.lageromoise.fr
"La Goële","623 Rue Du Coizel",,,,,,http://www.brasserielagoele.fr
"La Goule","8 Rue De L'Eglise",,,,"(054) 535-8757",,http://www.la-goule.com
"La Goutte D'Or","28 Rue De La Goutte D'Or",,,,,,http://www.brasserielagouttedor.com
"La Grande Brasserie Moderne","3, Quad D`Anvers 59057 Routaux Cedex",,,,"20 26.92.26",regional,
"La Grange Du Seigneur",D219,,,,,,
"La Grange Du Seigneur","La Grange Du Seigneur",,,,"(047) 558-0108",,
"La Gueule Cassée","7 Rue Du Priez",,,,,,http://www.gueule-cassee.fr
"La Gueuse","19 Rue Soufflot",,,,,,
"La Houblonnerie","26 Rue Gambetta",,,,,,
"La Jeunette Flamande","196 Rue Parmentier",,,,"(032) 798-1881",,
"La Lanterne","5 Rue De La Lanterne",,,,"(038) 832-1010",,
"La Lie","65 Bis, Route D'Harcourt",,,,,,http://www.biere-lalie.fr
"La Lutine","Route Du Bugue",,,,"(055) 357-4780",,http://www.lalutine.com
"La Maison De Père Georges","Les Thoules",,,,"(045) 073-5029",,http://www.valdabondance.com/vallee/news/ferouge.htm
"La Maison Du Terre-Neuvas","69 Rue Emmanuel Foy",,,,,,
"La Malou","94 Route De Cordes",,,,"(056) 377-5203",,http://brasserie-la-malou.com
"La Mare Aux Bieres","16 Bis La Place",,,,,,
"La Margoutie","Les Margouties",,,,"(055) 335-1409",,
"La Margoutie","Les Margouties",,,,"(055) 335-1409",,
"La Matrue","Ferme Des Saignes",,,,"(047) 728-8176",,
"La Matrue","Ferme Des Saignes",,,,"(047) 728-8176",,
"La Nogentaise","Rue Sainte Anne",,,,,,
"La Perle Toulousaine","4 Rue De La République",,,,,,http://www.facebook.com/laperletoulousaine
"La Pilloise",Taschet,,,,"(054) 564-1082",,http://nat.lib.free.fr
"La Pompe À Bière","6 Place Général De Gaulle",,,,"(038) 541-1630",,http://www.murphys-chalon.fr/pompe_a_biere.html
"La Porte De La Forêt","33 Rue Lecomte",,,,"(032) 909-3430",,
"La P'tite Mousse","120b Boulevard Des Loges",,,,,,
"La Rieuse","2 Cabane De L'Angle Suiré",,,,,,http://brasserie-larieuse.fr
"La Rondelle","Route De La Montagne",,,,,,
"La Rondelle Sarl","Les Grandes Terres Boite Postale 71",,,,85375200,regional,
"La Rouget De Lisle - RBM","Rue Des Vernes",,,,"(038) 485-0918",,http://www.brasserie-rouget-lisle.fr
"La Saint Loupoise","52 Rue Fernand Lemercier",,,,,,
"La Saint Pierre","30 Rue Principale",,,,"(038) 808-8295",,http://www.lasaintpierre.com
"La Souriante","34 Rue Des Chênes",,,,,,
"La Soyeuse","Route De Fondrieu",,,,"(047) 857-5290",,http://blog.lasoyeuse.info
"La Suzannaise","11 Rue Des Coëvrons",,,,,,
"La Taverne Du Brasseur","Centre Thermal B.P. 22",,,,"(038) 770-1177",,
"La Taverne Saint Martin","92 Rue Jean Jaurès",,,,,,
"La Taverne St Martin","92 Rue Jean Jaurès",,,,"(029) 880-4817",,
"La Tireuse","24 Rue Pargaminières",,,,,,
"La Touken","Z.A. De Kernévec",,,,"(029) 692-2452",,http://www.philomenn.fr
"La Vache À Bière","Z.A. Pey De L'Encre - Route Des Lacs",,,,,,
"La Vingeannie Mauricienne","Rue Du Four",,,,"(038) 075-8772",,
L'Abreuvoir,"21 Rue Mont Saint Odile",,,,,,http://www.brasserie-abreuvoir.com
L'Affoleuse,"Vers Boeuf",,,,"(047) 403-2258",,http://laffoleuse.over-blog.com
L'Affoleuse,"Vers Boeuf",,,,"(047) 403-2258",,
L'Agrivoise,"Quartier De La Gare",,,,"(047) 530-7076",,http://www.lagrivoise.fr
L'Alzina,"4 Cami Réal",,,,"(046) 857-3284",,http://biere-alzina.com
Lancelot,"La Mine D'Or",,,,"(029) 774-7474",,http://www.brasserie-lancelot.com
Lancelot,"La Mine D'Or",,,,"(029) 774-7474",,http://www.brasserie-lancelot.com
"L'Antre De L'Echoppe","Rue Berlioz NARBONNE",,,,"(046) 849-5947",,http://www.echoppemedievale.net
L'Aoucataise,"Place De La Mairie",,,,"(056) 298-6335",,
L'Aravissante,"L'Envers Du Villaret",,,,,,http://www.laravissante.fr
Larché,"89 Rue Bellocier",,,,"(038) 665-1989",,http://www.brasserie-larche.fr
Larché,"89 Rue Bellocier",,,,"(038) 665-1989",,
"L'Atelier De La Bière","Z.I. Villedieu-Niherne - Route De Châtea",,,,"(025) 460-8769",,http://www.atelierdelabiere.fr
"L'Atelier De La Bière","Z.I. Villedieu-Niherne - Route De Châtea",,,,"(025) 460-8769",,http://www.atelierdelabiere.fr
"L'Atelier De La Bière","10 Bd Marx Dormoy",,,,,,
Lauth,"63 Rue Principale",,,,"(038) 850-6605",,http://www.brasserie-restaurant-lauth.com
"Le Brasseur Rochelais","13 Bis Rue Des Greffières",,,,"(054) 607-9689",,http://www.brasseur-rochelais.com
"Le Brewery","La Poelerie",,,,"(023) 337-7726",,http://www.le-brewery.com
"Le Burat","Le Rouziet",,,,,,http://www.brasserieleburat.fr
"Le Clandestin (Piste Rouge)","36 Avenue De La République",,,,"(055) 354-1917",,
"Le Comptoir Du Malt","15 Avenue De Grèce - Vallée Des Vignes",,,,"(032) 233-6750",,http://www.lecomptoirdumalt.fr
"Le Goubelin","18 Rue Saint Exupéry",,,,"(067) 451-6439",,http://www.bierelegoubelin.fr
"Le Goubelin","Rue Saint Exupéry",,,,,,
"Le Jardin D'Helant","23 Rue Principale",,,,"(032) 157-4044",,http://www.lejardindhelant.com
"Le Palais De La Biere","1 Rue Terme",,,,,,
"Le Paradis","1 Rue De La Filature",,,,,,http://brasserieleparadis.com
"Le Plan B","32 Avenue De La Libération",,,,,,http://www.bieres-leplanb.com
"Le Pub Irlandais","507 Rue Du Centre",,,,"(045) 075-8602",,
"Le Sottai Malté","46 Cours Berriat",,,,,,http://www.sottai-malte.fr
Lebbe,"Le Village",,,,"(056) 296-4727",,
"L'Ecume Des Jours","29 Rue Du Pavé",,,,,,
"LEGTA De Douai Wagnonville","458 Rue De La Motte Julien",,,,"(032) 799-7555",,http://www.epl-nord.educagri.fr
Léon,"48 Boulevard De Verdun",,,,"(055) 734-3282",,http://brasseriesaintleon.com
Lepers,"199 Bis Rue Marle",,,,"(032) 086-8360",,http://www.brasserie-dannoeullin.com
"L'Epi Noir","4 Rue Georges Lardennois",,,,,,
"Les 3 Brasseurs","22 Place De La Gare",,,,"(032) 006-4625",,
"Les 3 Brasseurs","ZAC Champ Du Pont",,,,"(047) 237-9200",,http://www.les3brasseurs.com
"Les 3 Brasseurs","23 Rue Jules Rimet",,,,"(014) 998-4910",,http://www.les3brasseurs.com
"Les 3 Brasseurs","Rue Pierre Gilles De Gennes",,,,"(056) 288-8222",,http://www.3-brasseurs-rouen.com/home_toulouse.htm
"Les 3 Brasseurs","Avenue Du 8 Mai 1945 - Bât. Solo 3",,,,"(047) 629-1753",,http://sites.google.com/site/restoles3brasseursgrenoble
"Les 3 Brasseurs","Rue Jaunaie",,,,"(024) 003-3023",,http://www.les3brasseurs.com
"Les 3 Brasseurs","275 Yonge Street",,,,,brewpub,
"Les 3 Brasseurs","Odysseum - 1 Place De France",,,,"(046) 720-1448",,http://www.les3brasseurs.com
"Les 3 Brasseurs","8 Av. Des 28 Arpents ZAC Des Varennes",,,,"(015) 671-8045",,http://www.les3brasseurs.com
"Les 3 Brasseurs","Palais Des Congrès De Madiana",,,,"(059) 672-1529",,
"Les 3 Brasseurs","Rue Clos Santeuil",,,,"(013) 037-0603",,
"Les 3 Brasseurs","33, Pro. R. Laroque - Baie Des Citrons",,,,"(687) 260865",,
"Les 3 Brasseurs","Quai Gallieni, PPT - BP 4489",,,,"(689) 50 60 25",,http://les3brasseurs@mail.pf
"Les 3 Brasseurs","2 Cité Canabady",,,,"(026) 296-4539",,
"Les 3 Brasseurs","ZI St Tonquet",,,,"(049) 002-1630",,
"Les 3 Brasseurs","63 Place Ouest Centre Commercial Carré-S",,,,"(016) 413-6565",,http://www.les3brasseurs.com
"Les 3 Brasseurs","22 Place De La Gare",,,,"(032) 006-4625",,http://www.les3brasseurs.com
"Les 3 Brasseurs","Avenue Jean Moulin",,,,"(034) 436-4536",,http://www.les3brasseurs.com
"Les Bières D'Ax","3ème Bazerque",,,,,,
"Les Bières De Charlotte","14 Rue De Chateaulin",,,,,,http://www.lesbieresdecharlotte.fr
"Les Bières Des Hauts","29 Le Village",,,,"(032) 960-0418",,
"Les Bières Des Hauts","29 D23",,,,,,
"Les Bières Du Bouc","24 Les Colins - Ferme De La Pierre À Che",,,,"(032) 941-2041",,
"Les Bières Du Temps","85 Allée Des Acacias",,,,"(047) 479-5296",,http://www.lesbieresdutemps.com
"Les Bières Du Temps","85 Allée Des Acacias",,,,"(047) 479-5296",,
"Les Bières Du Ventoux","Route De Saint-Trinit",,,,"(049) 064-0228",,
"Les Bières D'Uzès","9030 Chemin De La Flesque - ZI Du Mas De",,,,"(046) 637-0015",,
"Les Brasseries Kronenbourg","68 Route D`Oberhausbergen BP 13, 67037",,,,88.27.44.88,large,
"Les Brasseurs","22-24 Pl De La Gare",,,,,,
"Les Brasseurs D'Air","4 Rue Du Grand Puits",,,,"(097) 598-7915",,
"Les Brasseurs De Gayant","63 Faubourg De Paris - B.P. 89",,,,"(032) 793-2622",,http://www.brasseurs-gayant.com
"Les Brasseurs De Gayant","BP 89",,,,,regional,
"Les Brasseurs De Gayant","63 Faubourg De Paris",,,,,,
"Les Brasseurs De Guadeloupe","291a Route De La Grippière",,,,"(059) 038-2959",,
"Les Brasseurs De Lorraine","3 Rue Du Bois Le Prêtre",,,,"(038) 380-0264",,http://www.brasseurs-lorraine.com
"Les Brasseurs De Lorraine","3 Rue Du Bois Le Prêtre",,,,"(038) 380-0264",,http://www.brasseurs-lorraine.com
"Les Brasseurs Du Bercloux","16, Rue De La Mairie",,,,"(054) 694-1775",,http://www.bercloise.fr
"Les Brasseurs Du Sornin","400 Rue De Roanne",,,,"(047) 760-8228",,http://www.brasseursdusornin.com
"Les Brasseurs Savoyards","17 Place De La République",,,,,,
"Les Brassins De Saint-Malo","4 Rue Chateaubriand",,,,"(029) 920-5299",,http://www.facebook.com/lesbrassinsdesaintmalo
"Les Buld'Or Du Boischaut","Les Chartons",,,,,,
"Les Caves De La Brasserie","6 Rue Du Houblon",,,,"(038) 957-4848",,
"Les Caves Du Conquérant","10Ter Av. Ox and Bucks",,,,"(023) 188-3150",,
"Les Chopes Des Gouris","34 Rue Haut",,,,"(038) 473-2878",,
"Les Chopes Des Gouris","34 Rue Haut",,,,"(038) 473-2878",,
"Les Chopes Du Moulin","21b, Rue Vincent D'Indy LAMASTRE",,,,"(047) 506-5660",,http://www.leschopesdumoulin.com
"Les Chopes Du Moulin","21b, Rue Vincent D'Indy LAMASTRE",,,,"(047) 506-5660",,
"Les Chopes Du Moulin","21 Bis Rue Vincent D'Indy",,,,,,
"Les Délices De La Ferme","Rue De Sillé - L'Hommeau",,,,"(024) 325-3082",,http://www.lesdelicesdelaferme.fr
"Les Eaux Vives","422 Chemin Des Détours",,,,,,
"Les Fahams","Domaine Les Fahams , 3 Chemin Saul , Bra",,,,,,http://lesfahams.com
"Les Fous","Pen Ar Vern",,,,"(029) 621-5232",,http://www.les-fous.com
"Les Frères Brasseurs","49 Route De Paris",,,,"(095) 153-7157",,http://www.freresbrasseurs.com
"Les Frères Brasseurs","Z.A. La Tronquié",,,,,,
"Les Prés En Bulles","Avenue De Marides",,,,,,
"Les Prés En Bulles","Avenue De Marides QUILLAN",,,,"(046) 869-8664",,
"Les Radicaux Libres",Boudiguen,,,,"(029) 871-3782",,
"Les Trois Brasseurs","1006 Route Nationale 20",,,,"(023) 883-9150",,
"Les Trois Brasseurs","Rue Aristide Boucicaut MONDEVILLE",,,,"(023) 135-4949",,http://www.3brasseurs.net
"Les Trois Brasseurs","ZAC De Bois-Cany 24 Boulevard Pierre Bro",,,,"(023) 211-0101",,http://www.les3brasseurs.com
"Les Trois Brasseurs","73 Place Drouet D'Erlon",,,,"(032) 847-8626",,http://www.les3brasseurs-reims.com
"Les Trois Brasseurs","Z.I. Et Commerciale",,,,"(038) 752-2266",,http://www.les3brasseurs.com
"Les Trois Brasseurs","Centre Commercial Pôle Marine",,,,"(032) 859-6060",,http://www.les3brasseurs-dk.com
"Les Trois Brasseurs","ZA Grand But",,,,"(032) 017-1166",,http://www.les3brasseurs.com
"Les Trois Brasseurs","Centre Commercial Auchan Englos",,,,"(032) 010-8240",,http://www.les3brasseurs.com
"Les Trois Brasseurs","CC Auchan - Boulevard D'Halluin",,,,"(032) 028-2828",,http://www.les3brasseurs.com
"Les Trois Brasseurs","48 Avenue François Mitterand - ZAC Aucha",,,,"(032) 709-9929",,http://www.les3brasseurs.com
"Les Trois Brasseurs","14 Avenue Lavoisier",,,,"(047) 315-1000",,http://www.3brasseurs.fr
"Les Trois Brasseurs","Cité De L'Europe 1001 Boulevard Du Kent",,,,"(032) 185-3002",,http://www.les3brasseurs.com
"Les Trois Brasseurs","C.Cial Auchan",,,,"(032) 113-7980",,http://www.les3brasseurs.com
"Les Trois Brasseurs","ZAC De La Porte Nord",,,,"(032) 154-7135",,http://www.les3brasseurs.com
"Les Trois Brasseurs","Boulevard Salvador Allende",,,,"(046) 675-7760",,http://www.les3brasseurs.com
"Les Trois Loups","19 Rue Pascal TRÉLOU SUR MARNE",,,,"(032) 369-8604",,http://brasserie-les3loups.com
"Les Trois Loups","19 Rue Pascal TRÉLOU SUR MARNE",,,,"(032) 369-8604",,http://brasserie-les3loups.com
"Les Ursulines - Biere De Crémieu","4 Côte Chausson",,,,,,
L'Esperluette,"Ancienne Cave Coopérative",,,,"(049) 404-1070",,
Lobsann,"4bis Rue Principale",,,,"(036) 991-5369",,http://brasserie-lobsann.com
Lorraine,"Quartier Union",,,,"(059) 651-1955",,http://www.brasserielorraine.com
"Lycée Agricole De Douai Wagnonville","458 Rue De La Motte Julien",,,,,,
"Lycée Professionnel Et Technologique Claude Daunot","10 Boulevard Georges Clémenceau",,,,"(038) 355-1156",,
"Maison De Brasseur","32, Rue Antoine De Saint Exupéry",,,,"(330) 474-3901",,
"Maison De Brasseur","32 Rue Saint Exupéry PONT D'AIN",,,,"(047) 439-0188",,http://www.maisondebrasseur.fr
Malissoles,Fontagneux,,,,,,
Manev'Ale,"Le Riou",,,,,,http://www.brasseriemanevale.com
Marchal,"2 Rue Aristide Briand",,,,"(038) 372-9709",,
"Mare Nostrum","Place Saint Michel CASTILLON MENTON",,,,"(049) 304-0383",brewpub,http://www.marenostrum-france.com
Matheysine,"Ser Bouvet",,,,,,
Mélusine,"ZA La Barboire",,,,"(025) 161-5152",,http://www.brasserie-melusine.com
"Merchien Brasserie",Penchenier,,,,,,
Météor,"6 Rue Du Général Lebocq",,,,"(038) 802-2222",,http://www.brasserie-meteor.fr
"Michard (Saint-Martial)","8 Place Denis Dussoubs",,,,"(055) 579-3798",,
"Micro Brasserie De Chamonix","350 Route Du Bouchet",,,,"(045) 053-6159",,http://www.mbchx.com
"Micro-br. L&L Alphand","BP 10 - Place Du Village VALLOUISE",,,,"(049) 223-2000",,http://www.brasserie-alphand.com
"Micro-br. Le Scala","96 Route Du Polygone",,,,"(039) 041-2445",,
"Micro-Brasserie De Chamonix","350 Route Du Bouchet",,,,,,
"Microbrasserie De Granges Sur Baume","Route De Marre",,,,,,
"Micro-Brasserie De Llnstitut","De La Brasserie Malterie Boite Postale 267",,,,"83 442532",regional,
"Miellerie Gachet","Le Bost De Fortunières",,,,,,
"Mobsby's Brasserie Artisanale","Le Moulin Perroux",,,,,,
"Mobsby's Brewery","Le Moulin Perreux",,,,"(023) 167-3531",,http://www.mobsbys.com
"Mon Village","1 Grande Rue",,,,"(038) 459-0788",,
"Mon Village","53 Rue Aristide Briand",,,,"(038) 454-8200",,http://www.hotelmonvillage.envergure.net
"Mor Braz","4 Rue Ampère - Zone St Léonard Nord",,,,"(029) 742-5353",,http://www.morbraz.com
"Moulin De Saint Martin","6 Chemin De La Laiterie",,,,,,
"Moulin De Saint-Martin","6 Chemin De La Laiterie",,,,"(032) 521-0475",,http://www.lemoulindesaintmartin.com
"Moulin Des Moines","SA Moulin Meckert Diemer",,,,88511356,regional,
"Moulins D'Ascq","270 Rue Des Fusillés",,,,"(032) 041-5848",,http://www.moulinsdascq.fr
"Musée Français De La Brasserie","62 Rue Charles Courtois",,,,"(038) 346-9552",,http://www.passionbrasserie.com
"My Beer Company","106 Rue Louis Rouquier",,,,,,http://www.mybeercompany.fr
"My Beer Company","106 Rue Louis Ronquier",,,,,,
Nimbus,"1 Rue De Mahouas",,,,"(038) 198-4064",,
"Ninkasi Fabriques","1 Avenue Edouard Herriot",,,,"(047) 276-8907",,http://www.ninkasi.fr
"Ninkasi Fabriques","267 Rue Marcel Mérieux",,,,,,
Nogentaise,"24 Rue Sainte Anne",,,,,,http://www.brasserie-nogentaise.fr
"O' Neil","20 Rue Des Canettes",,,,"(014) 633-3666",,http://www.oneilbar.fr
"OC ' ALE","Jambayle St Simon",,,,"(056) 365-9173",,
"Ouche Nanon","Bouchereux Village",,,,,,http://www.ouche-nanon.fr
Outland,"49 Rue Du Lieutenant Thomas",,,,,,http://www.facebook.com/brasserieoutland
"Paname Brewing Company","41 bis Quai de la Loire",,,,33140364355,micro,http://www.panamebrewingcompany.com
Parisis,"34 Rue De La Forêt - Local K",,,,"(016) 046-6233",,http://www.brasserie-parisis.com
Pelboise,"2 Place René Groussard",,,,"(054) 927-0128",,http://www.lecafeduboulevard.com
"Petite Brasserie Ardennaise","2 Chemin Du Vivier Guyon",,,,"(032) 432-3247",,http://www.petite-brasserie-ardennaise.com
"Petite Brasserie Ardennaise","2 Chemin Du Vivier Guyon",,,,,,
"Petite Brasserie Picarde","89 Rue Du Puissot",,,,"(034) 441-6609",,http://www.petitebrasseriepicarde.fr
"Petite Isle",Champsiaux,,,,"(055) 500-7359",,
"Petrazoller (Bière De Moon)","4 Rue Du Temple Neuf",,,,,,http://www.bieredemoon.com
Picardennes,"29 Rue Jules Lardière - Bâtiment E",,,,"(032) 252-2849",,http://www.facebook.com/picardennes
Picardennes,"29 Rue Jules Lardière - Bâtiment E",,,,"(032) 252-2849",,http://www.facebook.com/picardennes
Picaro,"17 Rue Prosper Mérimée, Vincendo",,,,"(026) 228-8446",,
Pico'Mousse,"ZI Du Génie - Allée Denis Papin",,,,"(047) 870-9416",,http://www.picomousse.fr
Pietra,"Route De La Marana",,,,"(049) 530-1470",,http://www.netcorse.tm.fr/pietra/
"Pietra Brewery","Lieu dit Arbucetta",,,,"+33 495.301.470",micro,
"Pression Paloise","Rue Saint Exupéry",,,,"(055) 981-2784",,http://pression-paloise.net23.net
Prisca,"Chemin Du Pilon",,,,,,
"Pub Le Barabis","3 Rue De La Trémoille",,,,"(029) 975-2364",,http://bressan.pub.free.fr
"Pub-brasserie Malker","147 Av. De Galliéni",,,,,,
Rainette,"Moulin De Chazelles",,,,"(054) 562-1723",,
Redoutey,"13 Rue De Chanois",,,,"(038) 492-1497",,http://www.brasserieredoutey.com
Robiche,"Rue Des Champs De Pierres - Pinay",,,,,,
Robin'Son,"17 Rue De La Quérelle",,,,"(055) 553-3883",,http://www.brasserie-robinson.fr
Rollus,"28 Grande Rue",,,,"(032) 241-1215",,http://www.le-carre-aux-buis.fr
"S.A. Brasseries Kroenbourg","68 Rte. D`oberhausbergen",,,,"88 27 44 88",regional,
Sabot,"Le Breuil",,,,"(055) 560-4720",,http://www.brasseriesabot.fr
Sabot,"Le Breuil",,,,"(055) 560-4720",,
"Saint Georges","Saint Georges",,,,"(029) 738-1680",,
"Saint Martin Bottlers","Mingo Industrial Ctr",,,,590-87-72-92,micro,
"Saint Paul","La Corderie",,,,"(023) 334-1162",,
"Saint Paul","La Corderie",,,,"(023) 334-1162",,
"Sainte Barbe","EURL La Cude Plein Nord Lieu Dit La Sain",,,,"(038) 196-0391",,
"Sainte Colombe","La Landelle",,,,"(029) 947-7323",,http://www.brasserie-sainte-colombe.com
Saint-Germain,"26 Route D'Arras",,,,"(032) 172-2424",,
Saint-Germain,"26 Route D'Arras",,,,"(032) 172-2424",,http://www.page24.fr
Saint-Omer,"9 Rue Édouard Devaux",,,,"(032) 198-7600",,http://www.brasserie-saint-omer.com
"San Miguel Brewery Inc","9 Avenue Franklin Roosevelt",,,,,,
Sancerroise,"258 Route D'Amigny",,,,"(024) 854-2991",,http://www.brasserie-sancerroise.com
"Saveurs & Nature","Chemin De Melen MOUSTIERS-SAINTE-MARIE",,,,"(049) 274-6448",,
"Science Infuse","Université De La Rochelle , Département",,,,"(054) 645-7249",,http://science-infuse.univ-lr.fr
S'Humpaloch,"2 Chemin Du Petemit",,,,"(038) 976-8408",,
Silviacus,"15 Avenue Charles De Gaulle",,,,"(032) 180-1078",,http://brasserie-silviacus.com
"Single Track","2 Rue Victor Hugo",,,,,,http://www.brasserie-singletrack.fr
"Single Track","2 Rue Victor Hugo",,,,,,
"Société Ardennaise De Brasserie","20 Avenue Roger Ponsart",,,,"(032) 435-4650",,http://www.ardwen.fr
"Société Ardennaise De Brasserie","20 Avenue Roger Ponsart",,,,,,
Sorebra,"12 Rue André Robert",,,,"(026) 226-8242",,
"St Alphonse","3 Route D'Algolsheim",,,,"(038) 972-9098",,
"Ste Lagardère","Rue Du Pont Machet",,,,,,
"Tavarn Sur La Guette","La Biolée",,,,"(038) 444-9073",,
"Teddy Beer","1 Impasse Du Pont Carpin",,,,,,http://www.brasserieteddybeer.fr
"Terra Comtix","4 Rue Du Chalet",,,,"(038) 153-4289",,
"Terra Comtix","4 Rue Du Chalet",,,,"(038) 153-4289",,
"Terre De Bières","218 Rue De L'Ecossais",,,,"(047) 468-4181",,http://www.terredebieres.com
"The Frog & British Library","114 Avenue De France",,,,"(014) 584-3426",,http://www.frogpubs.com
"The Frog & Princess","9 Rue Princesse",,,,"(014) 051-7738",,http://www.frogpubs.com
"The Frog & Rosbif","116 Rue St Denis",,,,"(014) 236-3473",,http://www.frogpubs.com
"The Frog & Rosbif (Bordeaux)","23 rue Ausone",,,,"+33 5.56.48.55.85",brewpub,
"The Frog At Bercy Village","25 Cours St Emilion - Bercy-Village",,,,"(014) 340-7071",,http://www.frogpubs.com
Theillier,"11 Rue De La Chaussee",,,,"(032) 763-1018",,
Thiriez,"22 Rue De Wormhout",,,,"(032) 862-8844",,http://www.brasseriethiriez.com
"Tom & Charly","54 Rue De La Fontaine",,,,,,http://www.bitchum.fr
"Tom & Charly","54 Rue De La Fontaine",,,,,,
"Tonnerre De Brest","6 Rue De Porstrein",,,,,,
"Tri Martolod","Z.A. De Keranguyon",,,,,,
"Tri Martolod","ZA De Colguen",,,,"(029) 866-2022",,http://www.trimartolod.fr
"Tri Martolod","ZA De Colguen",,,,"(029) 866-2022",,
Troiff,"La Rochette",,,,"(077) 888-1293",,
"Val' Aisne","5 Rue Fontaine Noisetier NANTEUIL LA FOSSE",,,,"(032) 355-8615",,
"Val' Aisne","5 Rue Fontaine Noisetier NANTEUIL LA FOSSE",,,,"(032) 355-8615",,http://www.valaisne.fr
Vellavia,"Les Estreys",,,,"(047) 109-9143",,
Verfeuille,"Rue Des Taillades",,,,"(046) 654-5071",,http://www.verfeuille.fr
Zymotik,"65 Rue Danton",,,,,,
Zymotik,"65 Rue Danton",,,,,,
