name,address1,address2,city,state,zip,phone,type,url
"Apponaug Brewing",,,"East Greenwich",RI,02818-2925,"(401) 384-0512",,http://www.apponaugbrewing.com
"Birra Del Borgo Srl","Loc. Piana di spedino snc","Borgorose, Italy",,,,39074631287,,http://www.birradelborgo.it
"Brewery in Planning - east greenwich",,,"East Greenwich",RI,02818-1645,,,
"Brutopia Brewery and Kitchen","505 Atwood Ave",,Cranston,RI,02920-5327,"(401) 464-8877",,http://www.brutopiabrewery.com
"Buttonwoods Brewery","530 Wellington Ave Ste 16",,Cranston,RI,02910-2997,"(401) 461-2337",,http://www.buttonwoodsbrewery.com
"Coddington Brewing Co","210 Coddington Hwy",,Middletown,RI,02842-4884,,,
"Crooked Current Brewery","560 Mineral Spring Ave Ste 2-112",,Pawtucket,RI,02860-8612,"(401) 473-8312",,http://www.crookedcurrentbrewery.com
"Foolproof Brewing Company","241 Grotto Ave",,Pawtucket,RI,02860-3403,"(401) 721-5970",,http://www.foolproofbrewing.com
"Grey Sail Brewing Co. LLC","63 Canal St",,Westerly,RI,02891-1552,"(410) 212-7592",,http://www.greysailbrewing.com
"Long Live Beerworks","425 W Fountain St Unit 104",,Providence,RI,02903-3530,,,http://www.longlivebeerworks.com
"Mohegan Cafe and Brewery","213 Water St",,"Block Island",RI,02807,"(401) 466-5911",,
"Narragansett Brewing Co","461 Main St",,Pawtucket,RI,02860-2913,"(401) 437-8970",,http://www.narragansettbeer.com
"Newport Storm Brewery / Coastal Extreme Brewing Company","293 JT Connell Hwy",,Newport,RI,02840,"(401) 849-5232",,http://www.newportstorm.com
"Newport Vineyards",,,Middletown,RI,02842-5529,"(401) 848-5161",,http://www.newportvineyards.com
"Proclamation Ale Company","141 Fairgrounds Rd",,"West Kingston",RI,02892-1512,"(401) 787-6450",,http://www.proclamationaleco.com
"Ravenous Brewing Company","840 Cumberland Hill Rd",,Woonsocket,RI,02895-5657,"(401) 216-5331",,http://www.ravenousbrew.com
"Revival Brewing","505 Atwood Ave",,Cranston,RI,02920-5327,"(401) 372-7009",,http://www.revivalbrewing.com
"Shaidzon Beer Company, LLC","141 Fairgrounds Rd.",,"West Kingston",RI,02892,"(401) 829-3147",,http://www.shaidzonbeerco.com
"Sons of Liberty Beer & Spirits Co.","1425 Kingstown Rd",,Wakefield,RI,02879-8313,"(401) 284-4006",,http://www.solspirits.com
"Tilted Barn Brewery","1 Helmsley Pl",,Exeter,RI,02822-3740,"(401) 829-6088",,http://www.tiltedbarnbrewery.com
"Trinity Brewhouse","186 Fountain St",,Providence,RI,02903-1813,"(401) 453-2337",,http://www.trinitybrewhouse.com
"Union Station Brewery","36 Exchange Ter Ste 2",,Providence,RI,02903-1798,"(401) 274-2739",,http://www.johnharvards.com
"Whalers Brewing Company","1174 Kingstown Rd",,Wakefield,RI,02879-8316,"(401) 552-0002",,https://whalers.com
"Willie's Superbrew","461 Main St",,Pawtucket,RI,02143,"(617) 515-0383",,http://www.williessuperbrew.com
