name,address1,address2,city,state,zip,phone,type,url
"2nd Story Brewing Company","117 Chestnut St Frnt",,Philadelphia,PA,19106-4700,"(267) 314-5770",brewpub,http://www.2ndstorybrewing.com
"2SP Brewing Company","120 Concord Rd",,Aston,PA,19014-2909,"(484) 483-7860",micro,http://www.2spbrewing.com
"3 Guys and A Beer'd Brewing Co","10 Enterprise",,Carbondale,PA,18407-1880,"(570) 280-2739",micro,http://www.3guysandabeerd.com
"858 Brewing Company",,,"West Grove",PA,19390-8808,"(484) 459-2383",planning,http://www.858brewing.com
"A.R. Tart LLC",,,Philadelphia,PA,19118-3446,,planning,
"Abaris Brewing Co.",,,Walnutport,PA,18088-9441,"(484) 767-7339",planning,http://www.abarisbrewing.com
"Abbey Wright Brewing Co / Valley Inn","204 Valley St",,Williamsport,PA,17702-6738,"(570) 326-3383",brewpub,http://www.thevalley-inn.com
"Aldus Brewing Company","555 Centennial Ave",,Hanover,PA,17331-3936,"(717) 634-2407",brewpub,http://www.aldusbrewing.com
"All Saints Brewing Co","1602 State Route 119",,Greensburg,PA,15601-7317,"(724) 289-1202",micro,http://www.allsaintscraftbrewing.com
"Allegheny City Brewing","507 Foreland St",,Pittsburgh,PA,15212-4910,,micro,http://www.alleghenycitybrewing.com
"Allentown Brew Works","812 Hamilton St",,Allentown,PA,18101-2437,"(610) 433-7777",brewpub,http://www.thebrewworks.com
"American Honor Beer Co","700 N Pennsylvania Ave",,"Wilkes Barre",PA,18705-2451,"(800) 961-8176",contract,http://www.boondogglebeer.com
"Angry Bear Brewing Company",,,Pittsburgh,PA,15212-1105,,planning,
"Appalachian Brewing Co - Collegeville","50 W 3rd Ave Collegeville Station 2nd Floor",,Collegeville,PA,19426-3655,"(484) 973-6064",brewpub,http://www.abcbrew.com
"Appalachian Brewing Co - Gettysburg Gateway","70 Presidential Cir",,Gettysburg,PA,17325-8399,"(717) 398-2419",brewpub,http://www.abcbrew.com
"Appalachian Brewing Co - Harrisburg","50 N Cameron St",,Harrisburg,PA,17101-2407,"(717) 221-1080",micro,http://www.abcbrew.com
"Appalachian Brewing Co - Lititz","55 N Water St",,Lititz,PA,17543-1610,"(717) 221-1080",brewpub,http://www.abcbrew.com
"Appalachian Brewing Co - Mechanicsburg","6462 Carlisle Pike",,Mechanicsburg,PA,17050-2384,"(717) 795-4660",brewpub,http://www.abcbrew.com
"Arundel Cellars & Brewing Co","11727 E Main Rd",,"North East",PA,16428-3635,"(814) 725-1079",micro,http://www.arundelcellars.com
"Aston Abbey Brewing Co",,,Aston,PA,19014-1590,,planning,
"Aurochs Brewing Company","8321 Ohio River Blvd",,Pittsburgh,PA,15202-1451,"(724) 260-8737",micro,
"Bar Hygge / Brewery Techne","1720 Fairmount Ave",,Philadelphia,PA,19130-2858,,brewpub,
"Barley Creek Brewing Co","1774 Sullivan Trl",,Tannersville,PA,18372-7893,"(570) 629-9399",brewpub,http://www.barleycreek.com
"Battlefield Brew Works","248 Hunterstown Rd",,Gettysburg,PA,17325-7840,"(724) 953-1112",brewpub,http://www.battlefieldbrewworks.com
"Beaver Brewing Co","1820 7th Ave",,"Beaver Falls",PA,15010-4001,,brewpub,http://www.beaverbrewingcompany.com
"Benny Brew @ Marty's Blue Room","1429 Sans Souci Pkwy",,"Wilkes Barre",PA,18706-6025,"(570) 235-6995",micro,http://www.martysblueroom.com
"Berwick Brewing Co","328 W Front St",,Berwick,PA,18603-4757,"(570) 752-4313",brewpub,http://www.berwickbrewing.com
"Birthright Brewing Co.",,,Nazareth,PA,18064-8995,,planning,http://www.birthrightbrewingco.com
"Black Cap Brewing Company","5 W High St",,"Red Lion",PA,17356-1701,"(443) 418-9473",brewpub,http://www.blackcapbrew.com
"Black Forest Brewery","301 W Main St",,Ephrata,PA,17522-1713,"(717) 721-9268",micro,http://www.blackforestbrewery.net
"Bloom Brew","100 Riverside Dr",,"West Newton",PA,15089-1542,"(724) 322-4494",micro,http://www.bloombrew.com
"Blue Canoe Brewery","113 S Franklin St",,Titusville,PA,16354-1737,"(814) 775-0077",brewpub,
"Blueprint Brewing Co.",,,Warminster,PA,18974,,planning,http://www.5oclockbrew.com
"Bluestone Brewing Company","18 Pitney St",,Sayre,PA,18840-2720,"(570) 731-0222",brewpub,http://www.bluestonebrewingcompany.com
"Bog Turtle Brewery, LLC","14 South Thrid St., Suite 1",,Oxford,PA,19363,"(484) 758-0416",micro,http://www.bogturtlebrewery.com
"Boneshire Brew Works","7462 Derry St",,Harrisburg,PA,17111-5228,"(717) 469-5007",micro,http://www.boneshire.com
"Bonn Place Brewing","310 Taylor St",,Bethlehem,PA,18015-,"(610) 419-6660",micro,http://www.bonnbrewing.com
"BÃ¶ser Geist Brewing Co.",,,Nazareth,PA,18064-8766,"(484) 293-8005",planning,
"Boxcar Brewing Co LLC","306 Westtown Rd Ste C",,"West Chester",PA,19382-4983,,micro,http://www.boxcarbrewingcompany.com
"Breaker Brewing Company","787 E Northampton St",,"Wilkes Barre",PA,18702-7521,,brewpub,
"Brew Gentlemen","512 Braddock Ave",,Braddock,PA,15104-1806,"(412) 871-5075",micro,http://www.brewgentlemen.com
"Brewerie at Union Station, The","123 W 14th St",,Erie,PA,16501-1717,"(814) 454-2200",brewpub,http://www.brewerie.com
"Brewery In Planning - Abington",,,Abington,PA,19001-3118,,planning,
"Brewery in Planning - Aldan",,,Aldan,PA,19018-3702,"(708) 204-7376",planning,
"Brewery in Planning - Ambler",,,Ambler,PA,19002-4407,,planning,
"Brewery in Planning - Bala Cynwyd",,,"Bala Cynwyd",PA,19004-1929,"(610) 324-8227",planning,http://www.pabrewreview.com
"Brewery in Planning - Bellefonte",,,Bellefonte,PA,16823-1202,"(213) 393-1785",planning,http://www.gamblemillotwf.com
"Brewery In Planning - Bethlehem",,,Bethlehem,PA,18017,,planning,
"Brewery In Planning - Blue Bell",,,"Blue Bell",PA,19422-2155,,planning,
"Brewery In Planning - Canonsburg",,,Canonsburg,PA,15317,,planning,
"Brewery in Planning - Clarion",,,Clarion,PA,16214,,planning,
"Brewery In Planning - Culver City",,,Pittsburgh,PA,15222-4227,,planning,
"Brewery In Planning - Danville PA",,,Danville,PA,17821-1769,,planning,
"Brewery In Planning - Easton",,,Easton,PA,18045-7464,"(917) 710-1582",planning,http://www.westnewyorkbrewery.com
"Brewery in Planning - Erie",,,Erie,PA,16506-3510,,planning,
"Brewery in Planning - Erie",,,Erie,PA,16505-4202,,planning,
"Brewery in Planning - Hanover",,,Hanover,PA,17331-2816,"(717) 965-2587",planning,
"Brewery In Planning - Kirkwood",,,Kirkwood,PA,17536,"(717) 591-0912",planning,
"Brewery in Planning - Lancaster",,,Lancaster,PA,17601-5088,"1 717 984 2533",planning,
"Brewery In Planning - Lansdale",,,Lansdale,PA,19446,,planning,
"Brewery In Planning - Levittown PA",,,Phoenixville,PA,19460-5918,,planning,
"Brewery In Planning - Macungie",,,Macungie,PA,18062-9239,,planning,
"Brewery In Planning - Marysville",,,Marysville,PA,17053-9744,,planning,
"Brewery In Planning - Media",,,Media,PA,19063-6311,"(610) 952-0462",planning,
"Brewery In Planning - Mount Gretna PA",,,"Mount Gretna",PA,17064-0190,,planning,
"Brewery in Planning - Orwigsburg",,,"Orwigsburg ",PA,17961,"(860) 395-9409",planning,
"Brewery in Planning - Phila",,,Phila,PA,19129-1634,"(215) 219-8787",planning,
"Brewery in Planning - Philadelphia",,,Philadelphia,PA,19123-3212,"(412) 335-6059",planning,
"Brewery in Planning - Philadelphia",,,Philadelphia,PA,19148-,,planning,http://www.cartesianbrewing.com
"Brewery in Planning - Philadelphia",,,Philadelphia,PA,19125-1928,,planning,http://www.dekoconsulting.com
"Brewery In Planning - Philadelphia",,"Philadelphia, PA",,,,,planning,
"Brewery In Planning - Philadelphia",,,Cheltenham,PA,19012-1603,"(609) 412-5524",planning,
"Brewery in Planning - Philadelphia",,,Philadelphia,PA,19115-4130,,planning,
"Brewery In Planning - Pittsburgh",,"Pittsburgh, PA",,,,,planning,
"Brewery In Planning - Pittsburgh",,,Pittsburgh,PA,15206,"(412) 398-3236",planning,
"Brewery in Planning - Quentin",,,Quentin,PA,17083,,planning,
"Brewery In Planning - Springfield",,,Springfield,PA,19064-3701,"(609) 638-3890",planning,
"Brewery in Planning - Venetia",,,Venetia,PA,15367,"(972) 951-8725",planning,
"Brewery in Planning - Venetia",,,Venetia,PA,15367,"(412) 977-0981",planning,
"Brewery in Planning - Warrington",,,Warrington,PA,18976-1555,"(215) 530-3501",planning,
"Brewery in Planning - West Mifflin",,,"West Mifflin",PA,15122-1038,,planning,
"Brewery In Planning - Wilkes Barre",,,"Wilkes Barre",PA,18702,,planning,
"Brewery in Planning - Wyncote",,,Wyncote,PA,19095-1525,,planning,
"Brewery in Planning - Yardley",,,Yardley,PA,19067-5760,"(201) 803-8640",planning,
"Brewery In Planning- Claysburg, PA.",,"Claysburg, PA",,,,"(907) 229-7942",planning,http://www.oldebbc.com
"Brewtus Brewing Co","22 Chestnut Ave",,Sharon,PA,16146-,"(724) 308-6293",micro,http://www.brewtusbrewing.com/
"Brixton Brewing","165 Brighton Ave",,Rochester,PA,15074-2203,"(724) 728-2227",brewpub,http://www.brixtonbrewing.com
"Broken Chair Brewery",,,Wernersville,PA,19565-9336,"(610) 781-6266",planning,
"Broken Goblet Brewing","1500 Grundy Ln Bldg 1",,Bristol,PA,19007-1521,"(267) 812-5653",brewpub,http://www.brokengoblet.com
"Bubes Brewery","102 N Market St",,"Mount Joy",PA,17552-1306,"(717) 653-2056",brewpub,http://www.bubesbrewery.com
"Bucks County Brewery","31 Appletree Ln",,Pipersville,PA,18947-1083,"(609) 439-2468",micro,http://www.buckscountybrewery.com
"Bullfrog Brewery","229 W 4th St",,Williamsport,PA,17701-6112,"(570) 326-4700",brewpub,http://www.bullfrogbrewery.com
"Butler Brew Works","101 S Main St",,Butler,PA,16001-5907,"(724) 264-5347",brewpub,http://www.butlerbrewworks.com
"Chatty Monks Brewing Company",,,Phoenixville,PA,19460,"(484) 818-0176",planning,http://www.chattymonks.com
"Chatty Monks Brewing Company","610 Penn Ave",,Reading,PA,19611-1004,"(484) 818-0176",micro,http://www.chattymonks.com
"Church Brew Works/Lawrenceville Brewery Inc.","3525 Liberty Ave",,Pittsburgh,PA,15201-1324,"(412) 688-8200",brewpub,http://www.churchbrew.com
"Clarion River Brewing Company","600 Main St # 604",,Clarion,PA,16214-1108,"(814) 297-8399",brewpub,http://www.clarionriverbrew.com
"Cobblehaus Brewing Company",,,Coraopolis,PA,15108-1803,,planning,
"Collusion Tap Works","105 S Howard St",,York,PA,17401-2001,"(717) 848-8400",brewpub,http://www.collusiontapworks.com
"Columbia Kettle Works","40 N 3rd St",,Columbia,PA,17512-1104,"(717) 342-2374",brewpub,http://www.columbiakettleworks.com
"Conshohocken Brewing - Bridgeport",,,Bridgeport,PA,19405-1074,,planning,
"Conshohocken Brewing Co.","739 E Elm St Ste B",,Conshohocken,PA,19428-2301,"(610) 897-8962",brewpub,http://www.conshohockenbrewing.com
"Consumption Brewing Company",,,Northampton,PA,18067-8301,,planning,
"Conyngham Brewing Company","PO Box AM 309 Main St",,Conyngham,PA,18219-0910,"(570) 710-5752",micro,http://www.conynghambrewing.com
"Copper Kettle Brewing Co","557 Greenfield Ave",,Pittsburgh,PA,15207-1093,"(412) 906-9400",micro,http://www.copperkettlepgh.com
"CoStar Brewing Inc.","919 N Saint Clair St",,Pittsburgh,PA,15206-2133,"(412) 401-8433",micro,http://www.costarbrewing.com
"Country Roads Brewing Company-Brewery In Planning- Delaware",,,Philadelphia,PA,19107-1103,,planning,
"Crime & Punishment Brewing Company","2711 W Girard Ave",,Philadelphia,PA,19130-1212,"(215) 235-2739",brewpub,http://www.crimeandpunishmentbrewery.com
"Crooked Eye Brewery","13 E Montgomery Ave Ste 2",,Hatboro,PA,19040-2618,"(215) 285-9253",micro,http://crookedeyebrewery.com
"Crooked Tongue Brewing","2516 Benjamin Franklin Hwy",,Edinburg,PA,16116-4302,"(724) 856-3765",micro,http://www.crookedtonguebrewing.com
"Crowded Castle Brewing Co. Inc.","221 Warren Ct",,Exton,PA,19341-3063,,micro,
"Crystal Ball Brewing","1612 W King St",,York,PA,17404-5618,,micro,http://www.crystalballbrewing.com
"D. G. Yuengling and Son Inc","500 Mahantongo St",,Pottsville,PA,17901,"(570) 622-4141",regional,http://www.yuengling.com
"D. G. Yuengling and Son Inc","310 Mill Creek Ave",,Pottsville,PA,17901-8692,"(215) 631-9461",regional,http://www.yuengling.com
"Dabbler Brewing Company",,,Philadelphia,PA,19116,,planning,
"Dancing Gnome Beer","925 Main St",,Pittsburgh,PA,15215-2301,"(412) 408-2083",micro,http://www.dancinggnomebeer.com
"Daugherty Brewing Company",,,Erie,PA,16510-3680,,planning,http://www.daughertybrewingcompany.com
Delete.,,,"camp hill",PA,17011,"(717) 433-0518",planning,
"Desperate Times Brewing Co","201 Pine Creek Dr",,Carlisle,PA,17013-9675,,brewpub,
"Divine Swine BBQ","2684 Lebanon Rd",,Manheim,PA,17545-9524,"(717) 879-9494",brewpub,http://www.divine-swine-bbq.com
"Do Good Brewing","2865 Sellers St",,Philadelphia,PA,19137-1922,"(267) 752-3548",micro,http://www.dogoodbrewing.com
"Doc G's Brewing Company","208 W Long Ave",,"Du Bois",PA,15801-2106,"(814) 299-7938",brewpub,
"Dock Street Brewery","701 S 50th St Fl 1",,Philadelphia,PA,19143-1689,"(215) 726-2337",brewpub,http://www.dockstreetbeer.com
"Doylestown Brewing Co","22 S Main St",,Doylestown,PA,18901-4668,"(267) 454-7240",brewpub,http://www.doylestownbrewingcompany.com
"Draai Laag Brewing","501 E Ohio St",,Pittsburgh,PA,15209-2671,,micro,
"Duquesne Brewing of Pittsburgh","932 W North Ave",,Pittsburgh,PA,15233-1606,"(412) 831-2779",contract,
"Earth Bread + Brewery","7136 Germantown Ave",,Philadelphia,PA,19119-1843,"(215) 242-6666",brewpub,http://www.earthbreadbrewery.com
"East End Brewing Co","147 Julius St",,Pittsburgh,PA,15206-,,micro,
"Eclipse Craft Brewing",,,Sunbury,PA,17801-5337,,planning,
"Eleventh Hour Brewing Co",,,Pittsburgh,PA,15201-3201,"(412) 716-5107",planning,http://www.eleventhhourbrews.com
"Elk Creek Cafe + Aleworks","PO Box 432",,Millheim,PA,16854-0432,"(814) 349-8850",brewpub,http://www.elkcreekcafe.net
"Emerald Isle Brewery",,,Lansdale,PA,19446-5278,,planning,
"Erie Ale Works","416 W 12th St",,Erie,PA,16501-1506,"(814) 314-9089",micro,http://www.eriealeworks.com
"Erie Brewing Co","1213 Veshecco Dr",,Erie,PA,16501-1570,"(814) 459-7741",micro,http://www.eriebrewingco.com
"Ever Grain Brewing Co","4444 Carlisle Pike Ste C",,"Camp Hill",PA,17011-4102,"(717) 525-8222",brewpub,
"Evil Genius Beer Co","1727 N Front St",,Philadelphia,PA,19122-3203,"(484) 961-0237",micro,http://evilgenius.beer
"Fegley's Brew Works","569 Main St",,Bethlehem,PA,18018-5810,"(610) 882-1300",brewpub,http://www.thebrewworks.com
"Forest & Main Brewery and Pub","61 N Main St",,Ambler,PA,19002-5728,"(215) 542-1776",brewpub,http://www.forestandmain.com
"Forgotten Road Ales",,,Hollidaysburg,PA,16648-3203,"(434) 203-1993",planning,
"Four Seasons Brewing Co","745 Lloyd Ave Ext",,Latrobe,PA,15650,"(724) 520-4111",brewpub,http://www.fsbrewing.com
"Free Will Brewing Company","410 E Walnut St Ste 10",,Perkasie,PA,18944-1683,,micro,
"Full Pint Brewing Company","1963 Lincoln Hwy",,"North Versailles",PA,15137-2749,"(412) 467-6414",micro,http://www.fullpintbrewing.com
"Fun Guys Brewery",,,Pittsburgh,PA,15203,,planning,
"Funk Brewing Company","19 S 6th St",,Emmaus,PA,18049-3741,"(610) 421-8270",micro,http://www.funkbrewing.com
"GearHouse Brewing Company",,,Chambersburg,PA,17201-1627,"(803) 422-6145",planning,http://www.gearhousebrewingco.com
"Geronimo Brewing Inc",,,"Upper Black Eddy",PA,18972-9786,"(267) 371-9852",planning,http://www.geronimobrewing.com
"Golden Avalanche Brewing Co","272 W Main St",,Kutztown,PA,19530-1604,"(610) 683-9600",brewpub,http://www.kutztowntavern.com
"Great Barn Brewery","665 Kintner Rd",,Kintnersville,PA,18930-9739,,micro,http://www.greatbarnbrewery.com
"Green Street Brewery","196 Miller Drive",,"Pocono Pines",PA,18350,"(917) 543-7799",contract,http://www.greenstreetbrewery.com
"Grist House Craft Brewery","10 Sherman St",,Pittsburgh,PA,15209,"(412) 447-1442",brewpub,http://www.gristhouse.com
"Gunpowder Falls Brewing Co","15556 Elm Dr",,"New Freedom",PA,17349-9344,"(717) 759-0330",micro,http://www.gunpowderfallsbrewing.com
"Happy Valley Brewing Company","137 Elmwood St",,"State College",PA,16801-6851,,brewpub,
"Hardball Beverage, Inc.",,,"Mount Bethel",PA,18343-5105,,planning,
"Harty Brewing Company","146 Walden Way",,Mechanicsburg,PA,17050-4105,,brewpub,http://www.hartybrewco.com
"Helicon Brewing","102 Union Ave",,Oakdale,PA,15071-1328,"(724) 693-4204",micro,http://www.heliconbrewing.com
"Helltown Brewing","13 Henry C Frick St",,"Mount Pleasant",PA,15666-1343,"(724) 542-4339",micro,http://www.helltownbrewing.com
"Hidden River Brewing Co","1808 W Schuylkill Rd",,Douglassville,PA,19518-9101,"(484) 273-2266",brewpub,http://www.hiddenriverbrewing.com
"Hidden Sands Brewing",,,Southampton,PA,18966,,planning,
"HiJinx Brewing Co","905 Harrison St",,Allentown,PA,18103-3188,"(484) 714-0080",micro,http://www.hijinxbrewing.com
"Hitchhiker Brewing Co.","190 Castle Shannon Blvd",,Pittsburgh,PA,15228-2267,"(412) 343-1950",brewpub,http://www.hitchhikerbrewing.com
"Hofbrauhaus Pittsburgh","3201 S Water St",,Pittsburgh,PA,15203-,"(412) 224-2328",brewpub,http://www.hofbrauhauspittsburgh.com
"Home Brewing Co Of Pennsylvania",,,"Conneaut Lake",PA,16316,"(412) 860-3015",planning,
"Hop Farm Brewing Co","5601 Butler St",,Pittsburgh,PA,15201-2326,"(412) 726-7912",micro,http://www.hopfarmbrewingco.com
"Hop Hill Brewing Company",,,Bethlehem,PA,18015-5310,"(484) 893-0767",planning,http://www.hophillbeer.com
"Hounds Run Brewing",,,"Lower Burrell",PA,15068,,planning,
"Insurrection Aleworks","1635 E Railroad St",,Heidelberg,PA,15106-4026,"(412) 276-2030",micro,http://insurrectionaleworks.com
"Intercourse Brewing Co","4166 Ironbridge Dr",,Collegeville,PA,19426-1188,"(610) 812-9426",contract,http://www.intercoursebrewingco.com
"Iron Hill Brewery & Restaurant - Chestnut Hill","8400 Germantown Ave",,Philadelphia,PA,19118-3328,"(215) 948-5600",brewpub,
"Iron Hill Brewery & Restaurant - Huntingdon Valley","785 Huntingdon Pike",,"Huntingdon Valley",PA,19006,,,
"Iron Hill Brewery & Restaurant - Lancaster","781 Harrisburg Ave",,Lancaster,PA,17603-2655,"(717) 291-9800",brewpub,
"Iron Hill Brewery & Restaurant - Media","30 E State St",,Media,PA,19063-2904,"(610) 627-9000",brewpub,http://www.ironhillbrewery.com
"Iron Hill Brewery & Restaurant - North Wales","1460 Bethlehem Pike",,"North Wales",PA,19454-2159,"(267) 708-2000",brewpub,http://www.ironhillbrewery.com
"Iron Hill Brewery & Restaurant - Phoenixville","130 Bridge St # 138",,Phoenixville,PA,19460-3448,"(610) 983-9333",brewpub,http://www.ironhillbrewery.com
"Iron Hill Brewery & Restaurant - West Chester","3 W Gay St",,"West Chester",PA,19380-3010,"(610) 738-9600",brewpub,http://www.ironhillbrewery.com
"Iron Hill Brewery & Restaurant (Ardmore)","60 Greenfield Ave",,Ardmore,PA,19003-1204,"(302) 888-2739",brewpub,
"Irving Cliff Brewery","2 Chapel St",,Honesdale,PA,18431-2094,"(570) 647-0644",brewpub,http://www.irvingcliffbrewery.com
"JoBoy's Brew Pub","27 E Main St",,Lititz,PA,17543-1926,"(717) 664-5402",brewpub,http://www.joboysbrewpub.com
"Jones Brewing Co","PO Box 746 254 Second Street",,Smithton,PA,15479-0746,,contract,http://www.stoneysbeer.com
"Kennett Brewing Company","109 S Broad St Ste 2",,"Kennett Square",PA,19348-3101,"(610) 444-0440",brewpub,http://www.kennettbrewingcompany.com
"Lancaster Brewing Co","302 N Plum St # 304",,Lancaster,PA,17602-2402,"(717) 391-6258",micro,http://www.lancasterbrewing.com
"Laurel Highlands Brewing",,,Uniontown,PA,15401-,"(724) 880-5497",planning,
"Lavery Brewing Co","128 W 12th St",,Erie,PA,16501-1750,"(814) 454-0405",micro,http://www.laverybrewing.com
"Levante Brewing Company","208 Carter Dr Ste 2",,"West Chester",PA,19382-4500,,micro,http://levantebrewimg.com
"Levity Brewing Co","1381 Wayne Ave Ste A",,Indiana,PA,15701-,"(724) 840-7611",brewpub,http://www.levitybrewing.com
"Lion Brewery Inc, The","700 N Pennsylvania Ave",,"Wilkes Barre",PA,18705-2451,"(570) 823-8801",regional,http://www.lionbrewery.com
"Liquid Hero Brewery","50 E North St",,York,PA,17401-2421,,micro,http://www.liquidhero.com
"Locust Lane Craft Brewery",,,Malvern,PA,19355-3984,,planning,
"Lost Tavern Brewing","782 Main St",,Hellertown,PA,18055-1540,"(484) 851-3980",micro,http://www.losttavernbrewing.com
"Mad Chef Craft Brewing","2023 Miller Rd",,"East Petersburg",PA,17520-1624,"(717) 283-6469",brewpub,http://www.madchefcraftbrewing.com
"Mad Princes Brewing","2537 Bogarts Tavern Rd.",,Buckingham,PA,18912,"(267) 697-9235",micro,
"Manayunk Brewing Co & Restaurant","4120 Main St",,Philadelphia,PA,19127-1618,"(215) 482-8220",brewpub,http://www.manayunkbrewery.com
"Market Cross Pub & Brewery","113 N Hanover St",,Carlisle,PA,17013-2422,"(717) 258-1234",brewpub,http://www.marketcrosspub.com
"Marley's Brewery & Grille","1323 Columbia Blvd",,Bloomsburg,PA,17815-8860,"(570) 784-9600",brewpub,http://www.marleysbrewery.com
"Marzoni's Brick Oven and Brewery","164 Patchway Rd",,Duncansville,PA,16635-8431,"(814) 695-1300",brewpub,http://www.marzonis.com
"McKenzie Brew House","451 Wilmington Pike - W Chester Pike",,"Glen Mills",PA,19342-1249,"(610) 361-9800",brewpub,http://www.mckenziebrewhouse.com
"McKenzie Brew House (#2)","240 Lancaster Ave",,Malvern,PA,19355-1802,"(610) 296-2222",brewpub,http://www.mckenziebrewhouse.com
"McKenzie Brew House (#3)","324 W Swedesford Rd",,Berwyn,PA,19312-1165,"(610) 361-9800",brewpub,
"Mexitaly Brick Oven Brewhouse","2440 E Market St",,York,PA,17402-2409,"(717) 600-8226",brewpub,http://www.mexitaly.com
"Miscreation Brewing Company","6 Center Sq",,Hanover,PA,17331-3001,"(717) 698-3666",brewpub,http://www.miscreationbrewing.com
"Missing Links Brewery",,,Renfrew,PA,16053-9209,"(724) 996-2948",planning,http://www.missinglinksbrewery.com
"Molly Pitcher Brewing Co","10 E South St",,Carlisle,PA,17013-3426,"(717) 609-0969",micro,http://www.mollypitcher.com
"Moo-Duck Brewery","79 S Wilson Ave",,Elizabethtown,PA,17022-2166,,brewpub,http://www.mooduckbrewery.com
"Mortals Key Brewing Company","4224 E Lake Rd PO Box 313",,Jamestown,PA,16134-4524,"(724) 932-1080",brewpub,http://www.mortalskey.com
"Mudhook Brewing Co","34 N Cherry Ln",,York,PA,17401-5306,"(717) 542-4015",brewpub,http://www.mudhookbrewing.com
"Naked Brewing Co","51 Buck Rd",,"Huntingdon Valley",PA,19006-1501,"(267) 355-9561",micro,http://www.nakedbrewingcompany.com
"Neshaminy Creek Brewing Co","909 Ray Ave",,Croydon,PA,19021-7510,"(215) 458-7081",micro,http://www.neshaminycreekbrewing.com
"Nimble Hill Brewing Co","219 Windswept Ln",,Mehoopany,PA,18629-7885,"(570) 836-9463",micro,http://www.nimblehillbrewingcompany.com
"Noble Stein Brewing Co.","1170-G Wayne Avenue",,Indiana,PA,15701,"(724) 801-8087",micro,http://www.noblesteinbeer.com
"North Country Brewing Co. LLC","141 S Main St",,"Slippery Rock",PA,16057-1246,"(724) 794-2337",brewpub,http://www.northcountrybrewing.com
"North Country Canning Co","111 Arrowhead Dr. Unit B",,"Slippery Rock",PA,16057-2667,"(724) 794-2337",micro,
"Oakbrook Brewing Company","628 Park Ave",,Reading,PA,19611-1926,"(484) 755-5289",brewpub,http://www.oakbrookbrew.com
"Old Forge Brewing Co","601 E Market St Ste 150",,Danville,PA,17821-2092,"(570) 275-8151",brewpub,http://www.oldforgebrewingcompany.com
"Old Forge Brewing Co","298 Mill St Frnt",,Danville,PA,17821-2090,"(570) 275-8151",brewpub,http://www.oldforgebrewingcompany.com
"Original 13 Ciderworks",,,Philadelphia,PA,19122-3811,"(610) 724-8637",planning,http://www.original-13.com
"Ottos Pub & Brewery","2235 N Atherton St",,"State College",PA,16803-1529,"(814) 470-1394",brewpub,http://www.ottospubandbrewery.com
"Pennsylvania Brewing Co","800 Vinial St",,Pittsburgh,PA,15212-5151,"(412) 237-9402",micro,http://www.pennbrew.com
"Philadelphia Brewing Co","2423 Amber St",,Philadelphia,PA,19125-1606,"(215) 427-2739",micro,http://www.philadelphiabrewing.com
"Pittsburgh Brewing Co","3340 Liberty Ave",,Pittsburgh,PA,15201-1394,"(412) 682-7400",contract,http://www.pittsburghbrewing.com
"Pizza Boy Brewing Co","4520 Valley St Ste C",,Enola,PA,17025-1572,"(717) 728-3840",micro,http://www.pizzaboybrewing.com
"Point Breeze Brewing",,,Philadelphia,PA,19146-,,planning,http://www.pointbreezebrewing.com
"Prism Brewing Company","810 Dickerson Rd Ste B",,"North Wales",PA,19454-2369,"(267) 613-8572",micro,http://www.prismbeer.com
"Race Street Brew Works","511 Spruce St Ste 2",,Clearfield,PA,16830-1923,"(814) 303-9286",brewpub,http://www.racestreetbrew.com
"Reclamation Brewing Company","221 S Main St",,Butler,PA,16001-5908,"(724) 282-0831",brewpub,http://www.reclamationbrewing.com
"Red Castle Brewery","80 E Bridge St",,Lehighton,PA,18235-2200,"(570) 732-0020",brewpub,http://www.redcastlebrewery.com
"Riepstines Pub","913 Arch St",,Williamsport,PA,17701-5630,"(570) 329-2739",brewpub,http://www.riepstinespub.com
"Ritter Brewing Company LLC",,,Peckville,PA,18452-1631,,planning,http://www.ritterbrewing.com
"River Barge Brewing","71 Grovedale Ln",,Wyalusing,PA,18853-7854,"(570) 746-1400",brewpub,http://www.riverbargebrewing.com
"River Bend Hop Farm And Brewery",,,Newport,PA,17074-7622,"(717) 329-9688",planning,
"River Bend Hop Farm And Brewery",,,Newport,PA,17074-7622,,planning,
"Rivertowne Brewery - Production Facility","5578 Old William Penn Hwy",,Export,PA,15632-9303,"(724) 519-2145",micro,http://www.myrivertowne.com
"Rivertowne Pour House","312 Center Rd",,Monroeville,PA,15146-1322,"(412) 372-8199",brewpub,http://www.myrivertowne.com
"Robin Hood Brewing Co",,,Bellefonte,PA,16823,,brewpub,
"Rock Bottom Brewery - King Of Prussia","1001 King of Prussia Plz",,"King of Prussia",PA,19406-2912,"(610) 230-2739",brewpub,http://www.rockbottom.com
"Rock Bottom Brewery - Pittsburgh","171 E Bridge St",,Homestead,PA,15120-5043,,brewpub,http://www.rockbottom.com
"Rooney's Beer Company","800 Vinial St Ste B204",,Pittsburgh,PA,15212-5151,,contract,http://www.rooneysbeer.com
"Root Down Brewing Company",,,"Chester Springs",PA,19425-1423,"(215) 776-3443",planning,http://www.rootdownbrewing.com
"Round Guys Brewing Co","324 W Main St",,Lansdale,PA,19446-2006,"(610) 715-1512",micro,http://www.roundguysbrewery.com
"Roundabout Brewery","4901 Butler St",,Pittsburgh,PA,15201-2718,"(412) 621-0540",micro,http://www.roundaboutbeer.com
"Roundback Brewery LLC",,,Danville,PA,17821-9134,"(570) 854-8067",planning,
"Roy Pitz Brewing Co","301 Roy Pitz Ave Ste 3",,Chambersburg,PA,17201-1668,"(717) 496-8753",brewpub,http://www.roypitz.com
"Rumspringa Brewing Co","3174 Old Philadelphia Pike",,"Bird In Hand",PA,17505-9727,"(717) 768-7194",micro,
"Rusty Rail Brewing","5 N 8th St Ste 1",,Mifflinburg,PA,17844-1003,"(570) 966-7878",brewpub,http://www.rustyrailbrewing.com
"Saint Benjamin Brewing Co","1710 N 5th St",,Philadelphia,PA,19122-2909,,micro,
"Saint Boniface Craft Brewing Co","1701 W Main St",,Ephrata,PA,17522-1106,"(717) 721-1744",micro,
"Samuel Adams Pennsylvania Brewing Co","7880 Penn Dr",,Breinigsville,PA,18031-1508,"(610) 395-6811",regional,
"Saucony Creek Brewing Company","15032 Kutztown Rd",,Kutztown,PA,19530-9275,"(610) 683-3128",micro,http://www.sauconycreekbrewing.com
"Schuylkill Valley Brewing Co.",,,Douglassville,PA,19518-9576,,planning,
"Scruft Brothers Brewing","51 Redwing Ln",,Coudersport,PA,16915-7997,"(814) 203-5061",,http://scruftbrothers.com
"Selins Grove Brewing Co","119 N Market St",,Selinsgrove,PA,17870-1905,"(570) 374-7308",brewpub,http://www.selinsgrovebrewing.com
"Shawnee Craft Brewery","1 River Rd",,"Shawnee on Delaware",PA,18356,"(570) 424-4000",brewpub,
"ShuBrew, LLC","210 S Main St",,Zelienople,PA,16063-1150,,micro,
"SideEffects Brewery LLC",,,Nazareth,PA,18064-1416,"(610) 217-4750",planning,http://www.sideeffectsbrewing.com
"Sly Fox Brewhouse and Eatery","520 Kimberton Rd Pikeland Village Square",,Phoenixville,PA,19460-4737,"(610) 935-4540",brewpub,http://www.slyfoxbeer.com
"Sly Fox Brewing Co","331 Circle of Progress Dr",,Pottstown,PA,19464-3811,"(484) 524-8210",regional,http://www.slyfoxbeer.com
"Snitz Creek Brewery","7 N 9th St",,Lebanon,PA,17046-4902,"(717) 450-4467",brewpub,http://www.snitzcreekbrewery.com
"Sobel's Obscure Brewery, LLC",,,"New Stanton",PA,15672-1109,,planning,
"Sole Artisan Ales",,,Emmaus,PA,18049,,proprietor,http://www.soleales.com
"Something Wicked Brewing Company","34 Broadway Ste 200",,Hanover,PA,17331-3104,"(717) 316-5488",brewpub,http://www.somethingwickedbrewing.com
"South County Brewing Co","104 Mill St",,"Fawn Grove",PA,17321-9654,,micro,
"Spoonwood Brewing Company","5981 Baptist Rd",,Pittsburgh,PA,15236-3303,"(412) 833-0333",micro,http://www.spoonwoodbrewing.com
"Sprague Farm and Brew Works","22043 US Highway 6 and 19",,Venango,PA,16440-2507,"(814) 398-2885",micro,http://www.sleepingchainsaw.com
"Spring House Brewery","209 Hazel St",,Lancaster,PA,17603-5629,"(717) 872-0925",micro,http://www.springhousebeer.com
"Spring Mountain Brewing Company",,,Schwenksville,PA,19473-1811,,planning,
"Stable 12 Brewing Company","368 Bridge St",,Phoenixville,PA,19460-3358,,micro,http://www.stable12.com
"Sterling Pig Brewery","609 W State St",,Media,PA,19063-2641,"(484) 444-2526",brewpub,http://www.sterlingpigbrewery.com
"Stickman Brews","326 N Lewis Rd # 240",,Royersford,PA,19468-1509,,brewpub,
"Stolen Sun Brewing Co",,,Exton,PA,19341-1948,,planning,
"Stone Church Pizza & Brewpub","600 S Hermitage Rd",,Hermitage,PA,16148-,"(724) 418-2531",brewpub,http://www.stonechurchbrewpub.com
"Stoudts Brewing Co","PO Box 880",,Adamstown,PA,19501-0880,"(717) 484-4386",micro,http://www.stoudtsbeer.com
"Straub Brewery","303 Sorg St",,"Saint Marys",PA,15857-1592,"(814) 335-6518",regional,http://www.straubbeer.com
"Sunday Morning Brewing",,,Dillsburg,PA,17019-8504,"(717) 386-0920",planning,
"Super Fun Time Brewing Company",,,Bangor,PA,18013-9244,"(610) 597-4402",planning,
"Susquehanna Brewing Co","635 S Main St",,Pittston,PA,18640-3215,"(570) 654-3557",micro,http://www.sbcbeer.com
"Swashbuckler Brewing Co","2775 Lebanon Rd",,Manheim,PA,17545-8711,"(717) 665-7021",micro,http://www.parenfaire.com
"Swill Mill Brewing Co",,,Scranton,PA,18509-2205,,planning,http://www.swillmillbrew.com
"Tannery Run Brew Works",,,Ambler,PA,19002,"(215) 290-8684",planning,
"Tattered Flag Brewery & Still Works","1 S Union St",,Middletown,PA,17057-1446,,brewpub,http://www.tatteredflagbsw.com
"The Brewery At Hershey","598 Schoolhouse Rd",,Middletown,PA,17057-4029,"(717) 944-1569",brewpub,http://www.vineyardathershey.com
"The Collingwood Brewery","3962 Portland St",,Coplay,PA,18037-2224,"(289) 888-1901",contract,http://www.thecollingwoodbrewery.com
"The Millworks Brewery","340 Verbeke St",,Harrisburg,PA,17102-2052,,brewpub,http://www.millworksharrisburg.com
"The North Slope Brewing Company","2439 Sr 309 Hwy",,Dallas,PA,18612-9251,"(570) 255-4012",brewpub,http://www.northslopebrewing.com
"The Other Farm Brewing Company","128 E Philadelphia Ave Ste 1",,Boyertown,PA,19512-1161,"(610) 367-1788",brewpub,http://www.theotherfarmbrewingcompany.com
"The Proper Brewing Company","117 W Broad St",,Quakertown,PA,18951-1200,"(267) 490-5168",brewpub,http://www.theproperbrewing.com
"Timber Creek Tap & Table","11191 Highline Dr",,Meadville,PA,16335-6589,"(814) 807-1005",brewpub,http://www.timbercreektapandtable.com
"Tired Hands Brewing Co","16 Ardmore Ave",,Ardmore,PA,19003-1302,"(610) 896-7621",brewpub,http://www.tiredhands.com
"Tired Hands Brewing Co","35 S Cricket Ter",,Ardmore,PA,19003-2203,"(484) 413-2983",brewpub,http://www.tiredhands.com
"Towerhill Brewery","237 W Butler Ave",,Chalfont,PA,18914-3020,"(215) 822-8788",brewpub,http://www.towerhillbrewery.com
"Triple Bottom Brewing Company",,"Philadelphia, PA",,,,"(228) 324-5919",planning,http://www.triplebottombrewing.com
"Triumph Brewing Co of New Hope","400 Union Square Dr",,"New Hope",PA,18938-1367,"(215) 862-8300",brewpub,http://www.triumphbrew.com
"Troegs Brewing Co","200 E Hershey Park Dr",,Hershey,PA,17033-2719,"(717) 534-1297",regional,http://www.troegs.com
"Tuned Up Brewing Company","135 N Main St",,"Spring City",PA,19475-1874,"(610) 306-3182",micro,
"Turkey Hill Brewing Co Pub","991 Central Rd",,Bloomsburg,PA,17815-8990,"(570) 387-8422",brewpub,http://www.turkeyhillbrewing.com
"Two Rivers Brewing Co","542 Northampton St",,Easton,PA,18042-3517,"(610) 829-1131",brewpub,http://www.tworiversbrewing.com
"Union Barrel Works","PO Box 495",,Reamstown,PA,17567-0495,"(717) 335-7837",brewpub,
"Vault Brewing Co","10 S Main St",,Morrisville,PA,19067-1511,"(267) 573-4291",brewpub,http://www.vaultbrewing.com
"Victory Brewing Co","3127 Lower Valley Rd",,Parkesburg,PA,19365-9617,"(610) 873-0881",regional,http://www.victorybeer.com
"Victory Brewing Co","420 Acorn Ln",,Downingtown,PA,19335-3040,"(610) 873-0881",regional,http://www.victorybeer.com
"Victory Brewing Co","650 W Cypress St Ste 1",,"Kennett Square",PA,19348-3059,"(484) 730-1870",brewpub,http://www.victorybeer.com
"Voodoo Brewing Co","215 1/2 Arch St",,Meadville,PA,16335-3432,"(412) 468-0295",brewpub,http://www.voodoobrewery.com
"Wacker Brewing Co","417 W Grant St",,Lancaster,PA,17603-,,micro,
"Wallenpaupack Brewing Company",,,Hawley,PA,18428,"(845) 798-0186",planning,http://www.wallenpaupackbrewingco.com
"Wandering Oats Brewing Company- Central PA",,,Etters,PA,17319-9346,,planning,
"Warehouse Gourmet Bistro & Brew Pub","7 Pennsylvania Ave",,Hanover,PA,17331-2432,"(717) 451-9595",brewpub,http://www.warehousegourmet.net
"Western Pennsylvania Brewing Co","119 Jefferson St",,Latrobe,PA,15650,,regional,http://www.citybreiwng.com
"Weyerbacher Brewing Co","905 Line St Ste G",,Easton,PA,18042-7379,"(610) 559-5561",regional,http://www.weyerbacher.com
"Wheatfield Brewing Company",,,Duncannon,PA,17020-9708,,planning,
"White Clay Brewing Company",,,Landenberg,PA,19350-1540,,planning,
"Whitehorse Brewing LLC","824 Diamond St",,Berlin,PA,15530-1539,"(814) 279-8761",micro,http://www.whitehorsebrewing.com
"Wigle Whiskey","2401 Smallman St",,Pittsburgh,PA,15222-4673,"(412) 728-0053",contract,http://www.threadbarecider.com
"Williamsport Brewing Company",,,Williamsport,PA,17701-6209,,planning,
"Wissahickon Brewing Company",,,Philadelphia,PA,19128-4129,,planning,
"Wolf Brewing Company",,,Harrisburg,PA,17112-1550,"(717) 645-2752",planning,http://www.wolfbrewingco.com
"Wooden Nickel Brewery And Spirits",,,Planning,PA,18914,,planning,
"Wyndridge Farm Brewing","885 S Pleasant Ave",,Dallastown,PA,17313-9650,"(717) 244-9900",brewpub,http://www.wyndridge.com
"Yards Brewing Co","901 N Delaware Ave",,Philadelphia,PA,19123-3110,"(215) 634-2600",regional,http://www.yardsbrewing.com
"Yellow Bridge Brewing Co.","2266 Route 66",,Delmont,PA,15626,"(724) 300-3922",micro,http://www.yellowbridgebrewing.com
"Yergey Brewing","518B Bank Street",,Emmaus,PA,18049,"(610) 417-2804",micro,http://yergeybrewing.com
"Yorkholo Brewing Co","19 N Main St",,Mansfield,PA,16933-1403,"(570) 404-5805",brewpub,http://www.yorkholobrewing.com
"Zealous Beer Company",,,Fleetwood,PA,19522-8828,,planning,
"Zeroday Brewing Company","250 Reily St Ste 103",,Harrisburg,PA,17102-2550,"(717) 745-6218",brewpub,http://www.zerodaybrewing.com
