name,address,city,state,zip,phone,type,url
"Abbaye De Scourmont","294 Route Du Rond Point",,,,,,
"Abdij Der Trappisten","Antwerpsesteenweg 496",,,,"03 3 12 05 35",regional,
"Affligem Brouwerij BDS","Ringlaan 18",,,,"+32 052/35.99.11",micro,http://www.affligem.biz
"Artois Breweries Sa","Vaartstraat 94",,,,016/24.71.11,large,
"Bavik Sprl Brasserie De","Riijksweg 16a",,,,"056 71 90 91",regional,
"BGI Tien Gaing","26 Avenue Reine Astrid",,,,,,
"Bieres de Chimay S.A.","Route Charlemagne 8",,,,"(326) 021-0311",,http://www.chimay.be
"Boon Brouwerij NV","Fonteinstraat 65",,,,"(322) 356-6644",,
"Brasseri La Binchoise","Rue D`Hubertise 51",,,,,,
"Brasserie a Vapeur","Rue du Marechal 1b",,,,"(326) 966-2047",,http://www.vapeur.com
"Brasserie Abbaye De Scourmont","Rue De La Trappe 294",,,,"060 21 30 63",regional,
"Brasserie Achouffe","Rue du Village 32",,,,"(326) 128-8147",regional,http://www.achouffe.be
"Brasserie Artois, NV Interbrew","Vaartstraat 94",,,,,regional,
"Brasserie Blaugies","Rue de la Frontiere 435",,,,"(326) 565-0360",,
"Brasserie Cantillon S.p.r.l.","Rue Gheudestraat 56",,,,"(322) 521-4928",,
"Brasserie D Orval SA",,,,,"(326) 131-1261",,
"Brasserie de Brunehaut S.A.","Rue des Panneries 17-19",,,,"(326) 934-6411",,http://www.brunehaut.com
"Brasserie De Chimay","Route Charlemagne 8",,,,,large,
"Brasserie de l` Abbaye Notre-Dame de St. Remy A.s.","Route de Ciney 8",,,,"(328) 422-0147",,
"Brasserie De LAbbaye",,,,,"084 21 31 81",,
"Brasserie De LAbbaye Des Rocs","Chaussee Brunehaut 37",,,,065/75.99.76,,
"Brasserie De Silly","141 Ville Basse",,,,"068 55 16 95",,
"Brasserie De Silly S.A.","141A rue Ville Basse",,,,"(326) 855-1695",,http://www.silly-beer.com
"Brasserie des Fagues","Route de Nismes 26",,,,"(326) 031-1570",,http://www.brasseriedesfagues.be
"Brasserie Devaux","1 rue de l`Eglise Saint-Philippe",,,,"(327) 166-6347",,
"Brasserie Domus","Tiensestraat 8",,,,,,
"Brasserie du Bocq S.A.","4 rue de la Brasserie",,,,"(328) 261-0780",,http://www.bocq.be
"Brasserie Dubuisson","Chaussee de Mons 28",,,,"(326) 967-2221",,http://www.bush-beer.com
"Brasserie Dupont","Rue Basse 5",,,,"(326) 967-1066",,http://www.brasserie-dupont.com
"Brasserie Fantome","Rue Preal 8",,,,"(328) 647-7044",,
"Brasserie Friart","Rue d`Houdeng 220",,,,"(326) 466-2151",,
"Brasserie Gigi S.p.r.l.","Grand rue 96",,,,"(326) 357-7515",,
"Brasserie Haacht","Provincietsteenweg 28",,,,016-60.15.01,large,
"Brasserie La Ferme Au Chene","Rue Comte D`Ursel 115",,,,,,
"Brasserie Lefebvre","52 Rue Du Croly",,,,"067 67 07 66",,
"Brasserie Lefebvre S.A.","54 chemin du Croly",,,,"(326) 767-0766",,
"Brasserie M. Poncelet","Rue Charleville 72",,,,"(326) 158-8554",,
"Brasserie Moortgat","Breendonkoop 58",,,,,regional,
"Brasserie Palm S.A.","Steenhuffeldorp, 3",,,,,regional,
"Brasserie Piessens","Oostberg 52",,,,,,
"Brasserie Poncelet","72 Rue De Charleville",,,,"061 58 85 54",regional,
"Brasserie Timmermans S.A.","Dilbeek, Kerkstraat 11",,,,"+32 (2) 5690357/8",,
"Brasserie Vander Linden","Brouwerijstraat 2",,,,"02 356 50 59",,
"Brassico S.A.","Route De Wallonie 4",,,,"016 24 71 11",regional,
"Brewery De Halve Maan","Walplein 26",,,,,,
"Brewery Duvel Moortgat","Pastoor Somerslaan 28",,,,"32 (0)3 860 94 00",,
"Brewery Haacht NV","Provinciesteenweg 28",,,,,,
"Brewery Het ANKER Ltd.","Guido Gezellelaan 49",,,,"+323 15 20 38 80",regional,http://www.hetanker.be/dutch/brew-history.asp
"Brewery In Planning - Plancenoit",,,,,,planning,
"Brewery Moortgat","Breendonkdorp 58",,,,,regional,
"Brouwerij Bavik N.V.","Rijksweg 33",,,,"(325) 671-9091",,http://www.bavik.be
"Brouwerij Bockor N.V.","Kwabrugstraat 5",,,,"(325) 623-5171",,http://www.bockor.be
"Brouwerij Bosteels N.V.","Kerkstraat 92",,,,"(325) 233-2282",regional,
"Brouwerij Clarysse & Co. N.V.","Krekelput 18",,,,"(325) 531-1721",,
"Brouwerij Cnudde BVBA","Fabriekstraat 8",,,,"(325) 531-1834",,
"Brouwerij Contreras","Molenstraat 115",,,,"091 84 27 06",regional,
"Brouwerij Crombe","Hospitaalstraat 10",,,,,regional,
"Brouwerij De Block","Nieuwbaan 92",,,,,regional,
"Brouwerij De Es","Schalkhovenstraat 38",,,,"012 23 10 54",regional,
"Brouwerij De Gouden Boom N.V.","Langestraat 45",,,,"050 33 06 99",regional,
"Brouwerij De Keersmaeker","Lierput 1",,,,"02 4 52 47 47",regional,
"Brouwerij De Keersmaeker N.V.","Lierput 1",,,,"(322) 454-1111",,
"Brouwerij De Kluis NV","Stoopkenstraat 46",,,,"(321) 676-6107",,
"Brouwerij De Koninck N.V.","Mechelsesteenweg 291",,,,"(323) 218-4048",,http://www.dekoninck.com
"Brouwerij de Kroon B.v.b.a.","Beekstraat 20",,,,"(321) 647-7104",,
"Brouwerij De Leyerth","Krommekeerstraat 21",,,,"32 (0)51 68 89 99",micro,http://www.urthel.com
"Brouwerij De Rijck Gouden Acend","Kerkstraat 24",,,,"(325) 362-2302",,
"Brouwerij De Smedt N.V.","Ringlaan 18",,,,"(325) 235-9911",,
"Brouwerij De Troch B.V.B.A.","Langestraat 20",,,,"(322) 582-1027",,
"Brouwerij Deca S.A.","Elverdingestraat 4",,,,"(325) 742-2075",,
"Brouwerij der Trappisten v. Westmalle CVBA","Antwerpse Steenweg 496",,,,,,http://www.trappistwestmalle.be
"Brouwerij Drie Fonteinen","H. Teirlinckplein 3",,,,,,
"Brouwerij Facon B.v.b.a.","Kwabrugstraat 23",,,,"(325) 622-0769",,
"Brouwerij Frank Boon NV","Fonteinstraat 65",,,,"(322) 356-6644",,
"Brouwerij Friart","Rue D`Houdeng 20",,,,,,
"Brouwerij G. Crombe","Hospitaalstraat 10",,,,"(329) 360-0240",,
"Brouwerij Girardin","Lindenberg 10-12",,,,"(322) 453-9419",,
"Brouwerij Keersmaeker N.V.","Kerkstraat 14",,,,,regional,
"Brouwerij Kerkom","Naamsesteenweg 469",,,,"(321) 168-2087",,
"Brouwerij Leroy","Diksmuidseweg 406",,,,"(325) 742-2005",,
"Brouwerij Liefmans N.V.","Aalststraat 200",,,,"(325) 163-8168",large,http://www.liefmans.be
"Brouwerij Lindemans","Lenniksebaan 1479",,,,"(322) 569-0390",regional,http://www.lindemans.be
"Brouwerij Louis Cnudde","Fabriekstraat 8",,,,"055 31 18 34",regional,
"Brouwerij Maes Brasserie","Waarloosveld 10-2571 Kontich",,,,,large,
"Brouwerij Martens N.V.","Reppelerweg 1",,,,"(328) 947-2980",,http://www.martens.be
"Brouwerij Martnes NV","Reppelwerg 1",,,,,regional,
"Brouwerij Moortgat Nv","Breendonkdorp 58",,,,"03 886 71 21",regional,
"Brouwerij Neyt Pvba","Molenhoek 15",,,,"091 53 04 59",,
"Brouwerij Palm N.V.","Steenhuffeldorp 3",,,,"(325) 230-9481",,http://www.palm.be
"Brouwerij Riva N.V.","Wontergemstraat 42",,,,"(325) 163-3681",,
"Brouwerij Roberg","Rodebergstraat 46",,,,,,
"Brouwerij Rodenbach N.V.","Spanjestraat 133-141",,,,"(325) 122-3400",,http://www.rodenbach.be
"Brouwerij Rodenbach NV","Spanjestraat 133-141",,,,"(325) 127-2700",regional,http://www.rodenbach.be
"Brouwerij Roman N.V.","Hauwaart 105",,,,"(325) 545-5401",,
"Brouwerij Sint-Jozef B.v.b.a.","Itterplein 19",,,,"(328) 986-4711",,
"Brouwerij Slaghmuylder N.V.","Denderhoutembaan 2",,,,"(325) 433-1831",,
"Brouwerij St. Bernard","Trappistenweg 23",,,,"(325) 738-8021",,
"Brouwerij Sterkens","Wenenstraat 9 2321 Meer (Transportzone)",,,,"(323) 317-0050",micro,http://www.sterkensbrew.be
"Brouwerij Straffe Hendrik","Walplein 26",,,,"(325) 033-2697",,
"Brouwerij Strubbe","Markt 1",,,,"(325) 158-8116",,
"Brouwerij Van den Bossche B.V.B.A.","St. Lievensplein 16",,,,"(325) 450-0411",,
"Brouwerij Van Eecke N.V.","Douvieweg 2",,,,"(325) 738-8030",,
"Brouwerij Van Honsebrouck N.V.","Oostrozebekestraat 47",,,,"(325) 133-5160",,
"Brouwerij Van Melle NV","Brusselsesteenweg 282",,,,"091 52 15 01",regional,
"Brouwerij Van Steenberge N.V.","Lindenlaan 25",,,,"091 44 00 94",regional,
"Brouwerij Vander Linden B.V.B.A.","Brouwerijstraat 2",,,,"(322) 356-5059",,
"Brouwerij Vandervelden","Laarheidestraat 230",,,,"(322) 380-3396",,
"Brouwerij Verhaeghe Vichte N.V.","Beukenhofstraat 96",,,,"(325) 677-7032",,
"Brouwerij Walrave NV","Lepelstraat 36",,,,,,
"Brouwerij Willy Contreras","Molenstraat 115",,,,"+32 (91) 3842706",,
"Brouwerijen Alken-Maes S.A.","Waarloosveld 10",,,,"(321) 530-9011",,http://www.maes.be
"Brouwerij-Mouterij Callewaert Pvba","Lichterveldestraat 45",,,,"(325) 161-1087",,
"Brouwerij-Mouterij Walrave (Brouw. Pick-up) N.V.","Lepelstraat 36",,,,"(329) 369-0134",,
"Brouwerj Rodenbach NV","Spanjestraat 133-141",,,,32-(0)51-27-27-00,,
"Brouwery De Koninck","Mechelse Steenweg 291",,,,,regional,
"Brouwery Palm N.V.","Steenhuffeldorp 3 B-1840",,,,"32 (0) 52 31 74 11",,
"Browerij Van Steenberge","Lindenlaan 25",,,,"(329) 344-5071",,
"Bureau Rola Brasserie Dupont","5 Rue Basse",,,,,,
"De Dolle Brouwers","Roeselarestraat 128",,,,"051/50 27 81",,
"Duvel Moortgat NV.","Breendonkdorp 58",,,,"(323) 860-9400",large,http://www.duvel.be
"En Stoemelings","1 rue du miroir",,,,,micro,
"Eupener Bierbrauerei Ag","12 Rue Pavee",,,,"087 55 47 31",regional,
"Gebr. Louwaege N.V., Brouwerij de Arend","Markt 14",,,,"(325) 156-6067",,
"Huisbrouwerij Sint Canarus","Polderweg 2",,,,,,
"Huyghe Brasserie De Melle","Brusselsesteenweg 282,Melle",,,,"+32 0 9 252 15 01",,
"Interbrew S A","Vaartstraat 94",,,,"(321) 624-7111",,
"Interbrew S.A.","Vaartstraat 94",,,,"(321) 624-7111",,http://www.interbrew.com
Jupiler,"Brasserie Piedboeuf Rue De Vise 243",,,,,large,
"Mort Subite","Brusselstraat 1 B-1703",,,,4662228,regional,
"N.V. Brouwerij de Gouden Boom","Langestraat 45",,,,"(325) 033-0699",,
"N.V. Brouwerij Haacht","Provinciesteenweg 28",,,,"016 60 15 01",regional,
"N.V. Holvrieka","Postbus 19 Wervikstraat 350",,,,,regional,
"N.V. Huyghe-Brouwerij van Melle","282 Brusselse Steenweg",,,,"+32 (91) 2521501",,
"Palm Breweries","Spenfestraat 133-141",,,,"(325) 127-2700",regional,http://www.rodenbach.be
"Palm Breweries NV","Steenhuffeldorp 3",,,,,,http://www.palm.be
"Palm Brouwerij NV","Steenhuffeldorp 3",,,,"(325) 231-7411",,
"Riva PVBA","Wontergemstraat 42",,,,"051 63 36 81",regional,
"S.A. Brasseries Alken-Maes","2 Stationstraat",,,,,regional,
"S.p.r.l. Brasserie La Binchoise","Faubourg Saint Paul 38",,,,"(326) 433-6186",,
"St. Sebastian Belgian Micro","Meerdrop 20",,,,"(323) 315-8650",regional,
"Trappistenbrouwerij van Westmalle CVBA","Antwerpsesteenweg 496",,,,"(323) 312-9222",,
"Vliegende Paard Brouwers","Beverhoutsveldstraat 33",,,,,micro,http://www.prearis.be
