name,address,city,state,zip,phone,type,url
"3 Bier","Büren 59",,,,,,
"3Bier GmbH","Buren 59",,,,"+41 62 874 08 26",micro,
"476 Faulensee","Interlakenstrasse 70",,,,,,
523,,,,,,,
7Peaks,"Route De La Patinoire 15a",,,,,,
"A. Egger AG","Brauereiweg 3",,,,"(031) 839-0357",,
AabachBier,"Bachstrasse 21",,,,,,
"Aare Bier","Neuenburgstrasse 42",,,,,,
Aathaler-Bräu,"Zürichstrasse 15",,,,,,
Adler,"Hauptstrasse 34",,,,,,
"Adler AG","Hauptstrasse 34",,,,"058 81 11 08",,
"Aktienbrauerei Flims Surselva AG","Postfach 41",,,,,,
"Altes Tramdepot","Grosser Muristalden 6",,,,,,
"Amicale Des Brasseurs De Vollèges","Chemin De La Laiterie",,,,,,
Ängelbräu,"Pündtenweg 421",,,,,,
"Angler Bräu","Zollweidenstr. 15",,,,,,
Arlibrau,"Haupstrasse 15",,,,,,
Baar,"Langgasse 41",,,,,,
"Baar AG","Langgasse 41",,,,"041 31 12 08",,
"Back and Brau",,,,,"(052) 212-1212",,
Bahnhof,"Bahnhöfli GmbH Untere Bahnhofstrasse 10",,,,,,
"Barbarus Bäri-Bier","Baumastrasse 2",,,,,,
Bartis,"Rue Centrale 58",,,,,,
"Baselbieter Bier","Hauptstrasse 30",,,,,,
Bäsibräu,"Wiesenweg 14",,,,,,
"Basiliske Bier",,,,,,,
Beerrificio,"Via Piotti 1",,,,,,
"Benedix Klosterbräu","Stygstrasse 15",,,,,,
Bertbier,Birkenweg,,,,,,
"BFM (Brasserie Des Franches-Montagnes)","Chemin Des Buissons 8",,,,,,
Biberbräu,"Buhaldenstrasse 9",,,,,,
"Bier Factory Rapperswil","Schönbodenstr. 3",,,,,,
"Bier Factory Rapperswil AG","Eichwiesstrasse 6 CH-8645",,,,,micro,http://www.bierfactory.ch
"Bier Von Vier (Mittwochsbräu)","Obfalken 16",,,,,,
"Biera Engiadinaisa","Flora Da Bütz",,,,,,
"Bierbräu Buob",Steinackerrin,,,,,,
"Bierbrauclub Chlepfimoos","Moosweg 2",,,,,,
"Bière Buse","Croix-du-Péage 1",,,,,,
"Bière De Posieux","Route De Fribourg 71",,,,,,
"Bière Du Foudre","Rue Du Simplon 10",,,,,,
"Bière Du Lac",,,,,,,
"Bières De Neuch","Rue Des Prélets 26",,,,,,
Bières&Co,,,,,,,
Biergarage,"Sömmerlistrasse 37",,,,,,
"BierVision Monstein","Hauptstrasse 36",,,,,,
"Bierzunft Wehntal","Wehntalerstrasse 26",,,,,,
Bigen,"Chemin De La Grande-Cour 8",,,,,,
"Birra Bozz","Via Campisci 3",,,,,,
"Birra Broggini","Soodring 34e",,,,,,
"Birra Schmid",,,,,,,
"Birrificio Ticinese","Via Vite 5",,,,,,
Bîrtel,"Flughafenstrasse 31",,,,,,
"Blanche Pierre",,,,,,,
Bodensee,,,,,,,
BoFo,,,,,,,
Boxer,"Avenue Des Sports 11",,,,,,
Brass-Art,,,,,,,
"Brasse Mortier","Place Du Bourg 9",,,,,,
"Brasserie Artisanale De Porrentruy","Rte De Courgenay 86",,,,,,
"Brasserie Des 3 Lacs",,,,,,,
"Brasserie Des 5 Quatre Mille","Rue Des Cinq 4000",,,,,,
"Brasserie Des Condémines","En Condémines 6",,,,,,
"Brasserie Du Boxer SA","Rte D`Echallens 32",,,,"(021) 646-5363",,
"Brasserie Du Cardinal SA","Passage Du Cardinal Case Postale",,,,037-82-11-51,large,
"Brasserie Du Chauve","Ch. Des Roches 1",,,,,,
"Brasserie Du Manoir (Bières Bader)",,,,,,,
"Brasserie Du Trio","Route D'Oron 16",,,,,,
"Brasserie Valaisanne SA","Rte De Riddes 42 Case Postale",,,,"027 33 11 33",large,
"Brauage Du Garage À La Plage",,,,,,,
BRAUBAR,"Aarestrasse 60",,,,,,
"Braubude Basel","Oetlingerstrasse 84",,,,,,
"Brauerei Baar AG","Langasse 41",,,,,,http://www.brauereibaar.ch
"Brauerei Eichhof","Obergrundstr 110",,,,041-49-11-11,regional,
"Brauerei Fischerstube","Rheingasse 45",,,,,,http://www.uelibier.ch
"Brauerei Hurlimann AG","Brandschenkestrasse 150 Postfach 654",,,,"01 288 26 26",large,
"Brauerei Kloster Fischingen AG","Spannerstrasse 23",,,,"0041 79 41441070",micro,http://www.brauhaus.ch
"Brauerei Loewenbraeu AG","Brandschenkestrasse 150 Postfach",,,,"01 288 20 20",large,
"Brauerei Uster (Braukultur)","Braueresistrasse 16",,,,,,
"Brauerei.sh (Hegaustross)","Hegaustrasse 4",,,,,,
"Brauhaus Möntha",Zehntenhaus,,,,,,
"Brauhaus Strenen","Hohenzornstrasse 2",,,,,,
"Brauhuus Mengestorfberg",,,,,,,
"Braumanufaktur Schnack Bier","Stockhornstrasse 20",,,,,,
"Brauverein Dagmersellen",Mühle,,,,,,
"Brauverein Pfäffikon","Hörnlistrasse 76 (GerAtrium)",,,,,,
Brauwerk,"In Der Längelen 3",,,,,,
"Brauwerkstatt Egghubel","Sädelstrasse 35",,,,,,
"Brauwerkstatt Jegenstorf","Bernstrasse 16",,,,,,
Brauwiler,,,,,,,
BrewBorthers,"Schulgässli 13",,,,,,
"Brewery In Planning- Switzerland",,,,,,planning,
Brisenbräu,,,,,,,
Broyarde,"Place De La Concorde 21",,,,,,
"Brüll! Bier","J. Spaltensteinstrasse 14a",,,,,,
Brummbacher,"Poststrasse 10",,,,,,
"Brygger Øl",,,,,,,
"Büchler Zu Mägenwil","Chrüzacherstrasse 3",,,,,,
Budken,"Obstgartenstrasse 6",,,,,,
Buechibärgerbier,"Talstrasse 15",,,,,,
"Burg Braui","Burg 4",,,,,,
Burg-Bier,"Kappelistrasse 6",,,,,,
Burgdorfer,"Wynigenstrasse 13",,,,,,
Burggütli-Bräu,"Burggütliweg 21",,,,,,
"Café Du Marché","Grande Rue 34",,,,,,
"Calanda Haldengut AG","Haldenstrasse 69",,,,"(052) 264-4141",large,
"Carlsberg Supply Company","Spinnereistrasse 2",,,,,,
Cascade,,,,,,,
Cathélaz,"Rue Des Maisons-Neuves 2",,,,,,
"Celsius (Brasserie Artisanale D'Ayent)","Rue De L'Eglise 2",,,,,,
"Cercle Des Brasseurs De Bure","Le Paradis 163",,,,,,
Cervejinha,,,,,,,
Chastelbach-Bier,"Haupstrasse 130",,,,,,
Château,"Place Du Tunnel 1",,,,,,
"Chen Van Loon Brewers","Mattenweg 64",,,,,,
"Chrüpfe Bier","Lüterswilstrasse 28",,,,,,
Cieux,"Champ Des Pierres 9",,,,,,
Concorde,"Rue Des Grandes Forges 2",,,,,,
Côte,"Rue De L'Eglise 10",,,,,,
"Cow Water","Duensstrasse 8",,,,,,
Culina-Bräu,"Wehntalwestrasse 33",,,,,,
Degenbier,"Industriestrasse 11",,,,,,
Diepfi,"Hauptstrasse 1",,,,,,
"Docteur Gab's (Dérochet)","Ch. De Geffry 7",,,,,,
"Doppelleu Brauwerkstatt","Industriestrasse 40",,,,,,
Drachenbräu,"Bickelstrasse 22",,,,,,
"Drei Tannen","Unterführungsstrasse 20",,,,,,
Egger,"Brauereiweg 3",,,,,,
Eichhof,"Obergrundstrasse 110 Postfach",,,,"041 49 11 11",large,
Engl,"Weitegasse 8",,,,,,
"Erusbacher & Paul","Büttikerstrasse 3",,,,,,
Euelbräu,"In Der Euelwies 7a",,,,,,
Eulen-Bräu,"Baldeggstrasse 56",,,,,,
Faex,"Wangenstrasse 12",,,,,,
Fahrtwind,"Oberdorfstrasse 45",,,,,,
Falken,"Brauereistr. 1",,,,,,
"Falken AG","Brauereistrasse 1 Postfach",,,,"053 25 33 15",,
Farnsburger,"Rünenbergerstrasse 10",,,,,,
FäsSele-Bräu,"Optingenstrasse 12",,,,,,
Feldschlösschen,Theophil-Roningerstrasse,,,,,,
"Feldschlösschen Getränke AG",Theophil-Roniger-Strasse,,,,"+41 (0)848 125 000",large,http://www.feldschloesschen.com
Felsenau,"Strandweg 34",,,,"(031) 301-2206",,
Felsenau,"Strandweg 34",,,,,,
Fenisbräu,"Insstrasse 28",,,,,,
Fischerstube,"Rheingasse 45",,,,,,
Fläsche,"Rudishaldenstrasse 4",,,,,,
"Fleisch & Brau","Hauptstrasse 70",,,,,,
Flösserbräu,"Hauptstrasse 80",,,,,,
Flüegass,"Flugplatzstrasse 6",,,,,,
"Freiburger Biermanufaktur","Impasse De La Sous-Station 3",,,,,,
Freihof,"Flawilerstrasse 46",,,,,,
Fri-Mousse,"Rue De La Samaritaine 19",,,,,,
Fülli-Bier,"Unterm Rain 24",,,,,,
Fyrabig-Bräu,"Oberdofstrasse 7",,,,,,
G+G,Büel,,,,,,
G48,"Pionierstrasse 10",,,,,,
"Gheimtipp Braui",,,,,,,
"Gili Bräu","Allmendweg 46",,,,,,
Gimlé,,,,,,,
Glattfelder,"Eichhölzlistrasse 1",,,,,,
"Gleis 1 Bier","Bahnhof Sankt Johann",,,,,,
Gletscher-Bräu,"Neben Der Kirche",,,,,,
Glouglou,,,,,,,
"Gnädinger Bräu","Wiesholz 36",,,,,,
"Granicum Grenchner-Bräu","Solothurnstrasse 10",,,,,,
Grobibräu,"Husmatte 15",,,,,,
Guldibräu,"Oltnerstrasse 4",,,,,,
"Gutknecht's Hammer-Bier","In Den Linden 29",,,,,,
"H. Mueller AG","Dynamostrasse 8",,,,"056 22 80 22",,
Haldemann,"Route De La Gare 4",,,,,,
Hansibräu,"Hauptstr. 25",,,,,,
Hardeggerperle,"Hardegg 5",,,,,,
Hardwald,Zwicky-Areal,,,,,,
Hasli-Bier,"St. Urbanstrasse 34",,,,,,
"Haxli Schwändi Bräu",,,,,,,
"Heerbrugger Bier",,,,,,,
"Heineken Switzerland (Calanda)","Kasernenstrasse 36",,,,,,
"Heineken Switzerland (Eichhof)",Obergrundstrasse110,,,,,,
Heini-Bier,"Sportstrasse 4",,,,,,
Heinzenbräu,"Rümikerstrasse 14",,,,,,
"HERMANN Bier","Industriestrasse 15",,,,,,
"Herrenberg Bräu",Dorfplatz,,,,,,
Herzbräu,"Dändlikon 3",,,,,,
Hess,"Rehhubelstr. 3",,,,,,
Hofbrauerei,,,,,,,
Hof-Braui,"Eichenstrasse 1",,,,,,
"Hofmolkerei Birkenhof","Wührestr. 101",,,,,,
Hohgant,Wald,,,,,,
Hopfentropfen,Kollbrunn,,,,,,
"Hörnlibräu (Brauverein Fischenthal)","Bahnhofstrasse 5",,,,,,
"Horseshoe Braui","Gotthardstrasse 5",,,,,,
"Huerlimann Brewery Zuerich","Brandschenkestrase 150 Postfach",,,,"01 202 28 21",,
"HuM (hopfenundmalz)","Bahnhofstrasse 15",,,,,,
Hundsbräu,"Mühleweg 5",,,,,,
"Hurlimann Brewery AG","Brandschenke Strasse 150",,,,,regional,
"Husbierbräu Eiken","Rebenweg 2",,,,,,
Huus-Braui,"Schlossgässli 2",,,,,,
"Im Lot","Im Lot 10",,,,,,
Innerthal,Schräh,,,,,,
JamesBRÄU,"Dörflirain 2",,,,,,
Jorat,"Route Du Village 20",,,,,,
Jungfraubräu,Stockmatte,,,,,,
"Justitia Berner Bier","Kipfgraben 1",,,,,,
"Käppelijoch Bier","Colmarerstrasse 16",,,,,,
"Karbacher AG","Goesgerstrasse 32",,,,"064 41 12 95",,
"Kloster Fischingen","Im Kloster",,,,,,
Knuddelbräu,"Steinenbühlstrasse 3",,,,,,
Knüxx,"Solothurnstrasse 5",,,,,,
"Kocher Bräu","Allmendweg 3",,,,,,
Kornhausbräu,"Industriestrasse 21",,,,,,
Kreuzmühle,"Höfnerstrasse 14",,,,,,
KrügelBIER,"Obergütschstrasse 26",,,,,,
"Kudi Bräu","Wannenhofstrasse 22",,,,,,
Kündig-Bräu,"Hauptstrasse 49",,,,,,
"Künter Stallbräu","Hauptstrasse 9",,,,,,
"La Comète","Rue De La Serre 1",,,,,,
"La Gerboise",,,,,,,
"La Luneire",,,,,,,
"La Mule",,,,,,,
"La Nébuleuse","Chemin Du Closel 5",,,,,,
La:Marmotte,"Lac Grenon",,,,,,
Ladus,"Neufeldstrasse 3",,,,,,
"Lägere Bräu","Klosterstrasse 40",,,,,,
Lance-Pierre,"Route Des Flumeaux 39",,,,,,
"Landskroner Brau","Landskronweg 21",,,,,,
"Langnouer Braui","Oberstrasse 8b",,,,,,
"Lehner U. Rohde",,,,,,,
Lerchu-Bier,"Lerchenfeldstrasse 23",,,,,,
"Les Amis De La Bière À L'Ancienne","Route De Moures 10",,,,,,
"Les Brasseurs Genève","Rue Centrale 4",,,,,,
"Les Brasseurs Lausanne","Rue Centraale 4",,,,,,
"Les Brasseurs Neuchâtel","Faubourg Du Lac 1",,,,,,
"Les Brasseurs Nyon","Rue De La Gare 18",,,,,,
"Les Divins Brasseurs","Rue De Lausanne 27",,,,,,
"Liechtensteiner Brauhaus","Im Rösle 4",,,,,,
"Liechtensteiner Edelbrand","Schlossweg 17",,,,,,
L'Improbable,"Chemin De La Grangette 7",,,,,,
Lindenbergbräu,"Wiggwilerstrasse 8",,,,,,
"Locher AG","Alte Eggerstandenstrasse 1",,,,"071 87 13 18",,
"Loewengarten AG","St. Galler Strasse 43",,,,"071 41 14 41",,
Lonzibier,"Pflegi Muri Nordklosterrain 1",,,,,,
L'Ours,"Grand Rue 65",,,,,,
"Lozärner Bier","Littauerboden 1",,,,,,
Luterbächlihof,"Luterbächliweg 1",,,,,,
"Luzen Bier","St. Karlistrasse 13c",,,,,,
"Luzerner Bier Brauer",Steinruchhof,,,,,,
Magie-Bräu,"Oberdofstr. 23",,,,,,
"MarRei (Rotmoosbräu)","Houeta 2",,,,,,
Maupas,"Rue Du Maupas 38a",,,,,,
Meiga-Bräu,"Hegnauerstrasse 4",,,,,,
"Mein Emmental","Hohgantweg 2",,,,,,
"Mein Teil","Geristein 250",,,,,,
Molard,"Place Du Molard 9",,,,,,
"Mondlinger Bräu","Dorfstrasse 14",,,,,,
Monkeybrain,"Weidliweg 9",,,,,,
Monsterbräu,"Wallisellenstr. 26a",,,,,,
Montheysanne,"Chemin Pierre À Muguet 3",,,,,,
"Müli-Bräu (Verein Altnauer-Bier)","Seezelgstrasse 19",,,,,,
Müller,"Dynamostrasse 8",,,,,,
Murailles,"Route De Cordinge 48",,,,,,
Murerbier,"Dorfstrasse 67",,,,,,
Muschtibräu,"Frohaldenstrasse 23",,,,,,
"Mythen Bräu","Manzelnweg 1",,,,,,
Napf,"Dorf 74J",,,,,,
"Nobs Bräu","Ch. De La Prairie 10",,,,,,
"Oberdörfer Chäuerbräu","Fallernweg 1",,,,,,
Ocher,"Brauereiplatz 1",,,,,,
Octopus-Bräu,"Zelglistrasse 13",,,,,,
"Officina Della Birra","Direzione Zona Industriale 1",,,,,,
"Old School","Interlakenstrase 44",,,,,,
Önzer-Bräu,,,,,,,
Öufi,"Fabrikstrasse 4",,,,,,
"Over Board",Trottenstrasse,,,,,,
"Patschiifig Bräu","Untere Hofstatt 10",,,,,,
"Père Jakob","Route De Rougemount 15",,,,,,
"Père Porret","La Taupe À L'Ours",,,,,,
Picabräu,"Dorfgasse 24",,,,,,
Pilatusbräu,Nunwil,,,,,,
Poyet,"Chemin Des Prés 14",,,,,,
Prättigauer-Bräu,"Arälia 444",,,,,,
Prévert,"Route De Payerne 7",,,,,,
Prinzenbräu,"St. Peter 8",,,,,,
"Raben Brau","RabenBrau GmbH Bläienstrasse 9",,,,,,
"Ramseier Suisse",Niffel,,,,,,
"Rathausbrauerei Luzern","Unter Der Egg 2",,,,,,
"RAZ Atelier","Oberholzweg 14",,,,,,
"Reinecke Bräu","Widengasse 35e",,,,,,
Reinhard,"Solothurnstrasse 6",,,,,,
Rheinfall-Bräu,,,,,,,
Rieder-Bier,"Agriswilstrasse 31",,,,,,
Rietgassbräu,"Rietgassstrasse 13",,,,,,
Riethof,"Riethof 1",,,,,,
Röbi-Bräu,"Bungertstr. 36",,,,,,
"Rontaler Bierfründe","Hagenstrasse 9",,,,,,
Roscha-Bräu,"Neufeldstr. 12",,,,,,
Rosengarten,"Spitalstrasse 14",,,,,,
"Rosengarten AG","Spitalstrasse 14",,,,"055 53 21 42",,
Rössli-Bier,"Obere Hofackerstrasse 21",,,,,,
"Rud Bir","Via San Gottardo 80",,,,,,
Rüedel,"Aldergasse 1",,,,,,
"Rugenbraeu AG","Wagnerenstrasse 40",,,,"036 22 10 12",,
Rugenbräu,"Wagenerenstrasse 40",,,,,,
Rütihöfler-Bräu,"Kirchgasse 20",,,,,,
"Sam's Bier Bière Amicale",,,,,,,
"San Rocco","Prodotta Da Birra San Rocco In Salei",,,,,,
"Sankt Maria",,,,,,,
Sauhofbräu,"Lützelstr. 73",,,,,,
"Schenk's Brauhüsli","Heimenhofen 92",,,,,,
Scherlibräu,"Postfach 122",,,,,,
Schlossbier,Hüttlingen-Mettendorf,,,,,,
"Schlossbräu Rued","Hauptstrasse 26",,,,,,
"Schlossbraui Nürensdorf","Brauereiweg 3",,,,,,
Schlugg,"Lehenmattstrasse 330",,,,,,
"Schneider Braui","Bahnweg 45",,,,,,
Schoggi,,,,,,,
"Schori'S Beer","Chemin Du Daru 4",,,,,,
"Schuetzengarten AG","St.-Jakob-Strasse 37",,,,"071 24 75 24",,
Schützengarten,"St. Jakobsstrasse 37",,,,,,
Schuum,,,,,,,
"Schwarzbuebe Bier","Bifangstrasse 1",,,,,,
Seegal-Bräu,"Hauptstrasse 33",,,,,,
"Seeland Bräu","Uferweg 5",,,,,,
Seetal,"Ziegeleihof 20",,,,,,
Sennbräu,"Röllweg 5",,,,,,
Sevibräu,Stampfstr.2,,,,,,
Siechenbräu,,,,,,,
Sierrvoise,"Ile Falcon",,,,,,
Sonnenbergbier,"Erlimattstr. 17",,,,,,
"Sonnenbraeu AG","Alte Landstrasse 36",,,,"071 77 12 02",,
Sonnenbräu,"Alte Landstrasse 36",,,,,,
Sonnrain,,,,,,,
"St. Johann","Toggenburgerstrasse 3",,,,,,
"Stadtbrauerei Diessenhofen","Untere Mauer 14",,,,,,
Stadtbuehl,"E.+M. Krucker Herisauer Strasse 49",,,,"071 85 35 15",,
Stadtbühl,"Herisauer Strasse 16",,,,,,
Stadtguet,"Industriestrasse 35",,,,,,
"Stadtkeller Brauerei Luzern","Sternenplatz 3",,,,,,
"Stägi Bräu","Steghausweg 2",,,,,,
Starrest,"Industrie Nord 15a",,,,,,
"Steinegger Bräu","Baselstr. 67a",,,,,,
Steinfels,"Heinrichstrasse 267",,,,,,
"SternTHALer Bier","Alte Landstrasse 112",,,,,,
Stögu-Bier,"Äussere Ringstrasse 38",,,,,,
"Stollo's Best","Aettigüpfstrasse 26",,,,,,
Storm&Anchor,,,,,,,
Stozi-Bräu,"Strättligenstrasse 1",,,,,,
"Strättligen Bier","Bostudenstrasse 3C",,,,,,
Sudwerk,"Speckstrasse 3",,,,,,
Sunday,"Im Schachenhof 27",,,,,,
"Sunnegg Brauhaus","Matten 84",,,,,,
Suonen-Bräu,Raaftstrasse,,,,,,
"Surselva Bräu",,,,,,,
Tannzapfenbräu,"Haupstrasse 106",,,,,,
Tardiv,"Route De Bonnefille 10",,,,,,
"Terra Matta",Nucleo,,,,,,
Terrasse,"Woldeggstrasse 1",,,,,,
"Thors Hammer","Kastellstrasse 6",,,,,,
Thurtalbräu,"Ziegeleistrasse 6",,,,,,
"Tiersteiner Bräu Stäuble","Landstrasse 92",,,,,,
Tillien,,,,,,,
"Trois Dames","Rue De France 1",,,,,,
Trotten-Bräu,"Dorfstrasse 2",,,,,,
"Trumpf Bier","Eichhofstrasse 13",,,,,,
Truttikon,,,,,,,
"Turbinen Bräu","Badenerstrasse 571",,,,,,
Turmbräu,"Mülimattstrasse 2",,,,,,
"Turpä Bräu","Hauptstrasse 26",,,,,,
Tüüfelsbräu,"Neufeldstrasse 7b",,,,,,
Üelu's-Homebrew,"Pestalozzistrasse 70",,,,,,
"UG Bräu","Wingetackerstrasse 10",,,,,,
"Unser Bier","Gundeldingerstrasse 287",,,,,,
"Unterländer Bräu","Südstrasse 8",,,,,,
Valaisanne,"Route De Rawyl 30",,,,,,
Valeis,"Parkstrasse 6",,,,,,
"Verein Interessierter Bierbrauer","Chriesiweg 1",,,,,,
"Verein Unser Bier","Hochstrasse 64 Pstfach 2225",,,,,,
"Vieux Chemin",Monteiller,,,,,,
"Villa UrPur","Schildstrasse 10",,,,,,
"Vo Gränchä Bi Gott","Allmendstrasse 41",,,,,,
"Volta Bräu","Voltastrasse 30",,,,,,
Vouivre,"La Tertillière 2",,,,,,
Wabräu,Dorfstrasse,,,,,,
"Wädi Bräu","Florhofstrasse 13",,,,,,
Waedi-Brau-Huus,"Florhofstrasse 13",,,,"01 780 15 66",,
"Wagerswiler Bräu","Hinterdorf 5",,,,,,
"Walliseller Bier",,,,,,,
Waltherbier,,,,,,,
"Walther's Farneren",,,,,,,
Wasserämter,"Emmenhofstrasse 4",,,,,,
Weinfelden,"Lanter+Baerlocher Brauereistrasse 12",,,,"072 22 30 66",,
Wiggerli,"Luzernerstrasse 12",,,,,,
Wipfli-Bräu,"Buchenweg 22",,,,,,
Ziegelhof,"Gerberstrasse 4",,,,"(061) 921-3066",,
Zipfelbier,"Hardstrasse 40f",,,,,,
Zöbi-Bier,"Hauptstrasse 80",,,,,,
Zulg,"Alte Bernstrasse 150a",,,,,,
"Zur Grünen Amsel","Schmiedasse 30",,,,,,
Zwergenbräu,"Eichenweg 4",,,,,,
Zwitscherbier,"Straubenhaus 377",,,,,,
