name,address,city,state,zip,phone,type,url
"5 Seasons Brewing Co - North","3655 Old Milton Pkwy",Alpharetta,GA,30005-4487,"(770) 521-5551",brewpub,http://www.5seasonsbrewing.com
"5 Seasons Brewing Co - Prado","5600 Roswell Rd","Sandy Springs",GA,30342-1150,"(404) 255-5911",brewpub,http://www.5seasonsbrewing.com
"5 Seasons Brewing Co - Westside","1000 Marietta St NW Ste 204",Atlanta,GA,30318-0683,"(404) 875-3232",brewpub,http://www.5seasonsbrewing.com
"Abbey of the Holy Goats",,Roswell,GA,30075-3543,,planning,
"Anheuser-Busch Inc â€“ Cartersville","100 Busch Dr NE",Cartersville,GA,30121-7217,"(770) 386-2000",large,
"Beer Republic Brewing",,Roswell,GA,30076,"(678) 778-0212",planning,http://www.beerrepublicbrewing.com
"Big O Brewery",,Canton,GA,30114,"(404) 644-2718",planning,
"Black Rock Brews",,Athens,GA,30606,,planning,
"BlueTarp Brewing Co","731 E College Ave",Decatur,GA,30030-5365,"(404) 669-6740",micro,http://www.bluetarpbrew.com
"Brewery in Planning - Atlanta1",,Roswell,GA,30076-2264,,planning,
"Brewery In Planning - Augusta, GA.",,Augusta,GA,30901-1029,,planning,
"Brewery In Planning - Cochran",,Cochran,GA,31014,,planning,
"Brewery In Planning - Lilburn",,Lilburn,GA,30047-7029,,planning,
"Brewery In Planning - McDonough",,Mcdonough,GA,30253,,planning,
"Brewery in Planning - peachtree city",,"peachtree city",GA,30269,,planning,
"Brewery in Planning - Rome",,Rome,GA,30161,,planning,
"Brewery in Planning - Sandy Springs",,"Sandy Springs ",GA,30350,"(678) 602-2626",planning,
"Brewery In Planning- Athens, GA.",,Athens,GA,30606-3347,,planning,
"Brewery In Planning- Rock Spring, GA.",,"Rock Spring",GA,30739,,planning,
"Burnt Hickory Brewery","2260 Moon Station Ct NW Ste 210",Kennesaw,GA,30144-5653,"(770) 514-8812",micro,http://www.burnthickorybrewery.com
"Cannon Brewpub","1041 Broadway",Columbus,GA,31901-5256,"(706) 653-2337",brewpub,
"Coastal Empire Beer Co","79 Ross Rd",Savannah,GA,31405-1660,"(912) 428-7911",micro,http://www.coastalempirebeer.com
"Copper Creek Brewing Company","140 E Washington St PO Box 8111",Athens,GA,30601-2747,"(706) 546-1102",brewpub,http://www.classiccitybrew.com/burntstone.html
"Craft Beverage Concepts",,Atlanta,GA,30306,"(310) 993-6400",planning,http://www.bevconcepts.com
"Creature Comforts Brewing Co.","271 W Hancock Ave",Athens,GA,30601-2727,"(706) 410-1043",micro,http://www.creaturecomfortsbeer.com
"Dockside Brewery",,,,,,planning,http://www.docksidebrewery.com
"Dry County Brewing Company","1500 Lockhart Drive",kennesaw,GA,30144,"(678) 910-0113",micro,http://www.drycountybrewco.com
"Eagle Creek Brewing Company","106 Savannah Ave Ste B",Statesboro,GA,30458-7162,,micro,http://www.eaglecreekbrewingco.com
EuroBevs,"2255 Cumberland Pkwy SE",Atlanta,GA,30339-4515,"(770) 437-1285",contract,http://www.eurobevs.com
"Eventide Brewing Co","1015 Grant St SE",Atlanta,GA,30315-2014,"(404) 907-4543",micro,http://www.eventidebrewing.com
"Fannin Brewing","3758 East 1st St","Blue Ridge",GA,30513,"(706) 258-2762",micro,http://www.fanninbrewingcompany.com
"Gate City Brewing Company","43 Magnolia Street",Roswell,GA,30075-4289,,micro,http://www.gatecitybrewingco.com
"Georgia Beer Co",,Valdosta,GA,31601,"(912) 399-5883",planning,http://www.georgiabeerco.com
"Gordon Biersch Brewery Restaurant - Atlanta","3242 Peachtree Rd NE",Atlanta,GA,30305-2425,"(404) 264-0253",brewpub,http://www.craftworksrestaurants.com
"Gordon Biersch Brewery Restaurant - Midtown","848 Peachtree St NE",Atlanta,GA,30308-1202,"(404) 870-0805",brewpub,http://www.gordonbiersch.com/restaurants
"Hop Alley Brewing Co","25 S Main St",Alpharetta,GA,30009-1965,,brewpub,
"Ironmonger Brewing","2129 NW Parkway Ste 105",Marietta,GA,30067-9223,"(678) 742-8551",micro,http://www.ironmongerbrewing.com
"Ironwood Creek",,,,,,planning,
"Jailhouse Brewing Co","14 Cherry St",Hampton,GA,30228-5575,"(404) 729-7681",micro,http://www.jailhousebrewing.com
"Jekyll Brewing","2855 Marconi Dr Ste 350",Alpharetta,GA,30005-2037,"(770) 596-8788",micro,http://www.jekyllbrewing.com
"Left Nut Brewing Co",,Cumming,GA,30041-9606,,planning,http://www.leftnutbrewing.com
"Macon Beer Company","345 Oglethorpe St",Macon,GA,31201-3274,"(415) 295-2337",micro,http://www.maconbeercompany.com
"Max Lager's Wood Fired Grill & Brewery","320 Peachtree St NE",Atlanta,GA,30308-3210,"(404) 525-4400",brewpub,http://www.maxlagers.com
"Monday Night Brewing","670 Trabert Ave NW",Atlanta,GA,30318-4230,"(404) 352-7703",micro,http://www.mondaynightbrewing.com
"Monkey Wrench Brewing Company LLC",,Snellville,GA,30078-6503,"(678) 521-2142",planning,http://www.monkeywrenchbrewing.com
"Moon River Brewing Co","21 W Bay St",Savannah,GA,31401-1106,"(912) 447-0943",brewpub,http://www.moonriverbrewing.com
"Normaltown Artisinal Beers",,Decatur,GA,30033,"(212) 731-9900",planning,http://www.normal.town
"O'Dempsey's Brewing Co","PO Box 28347",Atlanta,GA,30358-0347,"(404) 845-0059",contract,http://www.odempseys.com
"Omaha Brewing Company","265 Brew Street",Omaha,GA,31821,"(229) 838-4779",micro,http://www.omahabrewingcompany.com
"Orpheus Brewing","2669 Hosea L Williams Dr SE",Atlanta,GA,30317-2823,"(404) 394-6246",micro,http://www.orpheusbrewing.com
"Park Tavern Brewery","500 10th St NE",Atlanta,GA,30309-4272,"(404) 249-0001",brewpub,http://www.parktavern.com
"Pawley Island Brewing Company",,Atlanta,GA,30338-6011,,planning,
"Piedmont Brewery and Kitchen",,Macon,GA,31211,"(478) 747-1202",planning,http://www.piedmontbrewery.com
"Pontoon Brewing",,,,,,contract,http://www.pontoonbrewing.com
"Printer\'s Ale Manufacturing Co.",,"Carrollton ",GA,30117,,planning,http://www.printers-ale.com
"Red Brick Brewing Co / Atlanta Brewing Co","2323 Defoor Hills Rd NW",Atlanta,GA,30318-2207,"(404) 355-5558",micro,http://www.atlantabrewing.com
"Red Hare Brewing Co","1998 Delk Industrial Blvd SE",Marietta,GA,30067-8904,"(770) 331-8763",micro,http://www.redharebrewing.com
"Reformation Brewery","500 Arnold Mill Way Ste A",Woodstock,GA,30188-6842,"(678) 341-0828",micro,http://www.reformationbrewery.com
"Rick Tanner's Grille & Bar/Cherry Street Brewing Cooperative","5810 Bond St # E-2",Cumming,GA,30040-0301,"(770) 205-5512",brewpub,http://www.rtanners.com
"Scofflaw Brewing Co",,Atlanta,GA,30327-1833,"(404) 915-3392",planning,
"Second Self Brewing","1311 Logan Cir NW",Atlanta,GA,30318,"(678) 916-8035",micro,http://www.secondselfbeer.com
"Service Brewing Company","574 Indian St",Savannah,GA,31401-1121,"(845) 242-5355",micro,http://www.servicebrewing.com
"Southbound Brewing Co","107 E Lathrop Ave",Savannah,GA,31415-2106,,micro,http://www.southboundbrewingco.com
"Southern Brewing Co","231 Collins Industrial Blvd",Athens,GA,30601-1517,"(770) 725-7917",micro,http://www.sobrewco.com
"Southern Sky Brewing Co","1590 North Roberts Rd",Kennesaw,GA,30144,,micro,
"Standing Pitch Brewing Company",,Atlanta,GA,30307,"(770) 880-9757",planning,
"Strawn Brewing Co","27 Word St",Fairburn,GA,30213-1545,"(404) 702-8502",micro,http://www.strawnbrewing.com
"SweetWater Brewing Co","195 Ottley Dr NE",Atlanta,GA,30324-3924,"(404) 691-2537",regional,http://www.sweetwaterbrew.com
"Terrapin Beer Co","265 Newton Bridge Rd",Athens,GA,30607-1145,"(706) 549-3377",regional,http://www.terrapinbeer.com
"The Lost Druid",,Atlanta,GA,30307-2758,"(404) 998-5676",planning,http://thelostdruid.com
"The Parish Brewpub",,Marietta,GA,30060,,planning,
"The Village Corner","6655 James B Rivers Dr","Stone Mountain",GA,30083-2232,"(770) 498-0329",brewpub,http://www.germanresturant.com
"The Wrecking Bar Brewpub","292 Moreland Ave NE",Atlanta,GA,30307-1953,"(404) 221-2600",brewpub,http://www.wreckingbarbrewpub.com
"Three Taverns Craft Brewery","121 New St",Decatur,GA,30030-4131,"(404) 600-3355",micro,http://www.threetavernsbrewery.com
"Torched Hop Brewing","249 Ponce De Leon Ave NE",Atlanta,GA,30308-1937,"(404) 835-2040",brewpub,http://www.torchedhopbrewing.com
"Twain's Billiards and Tap","211 E Trinity Pl",Decatur,GA,30030-3414,,brewpub,http://www.twains.net
"Two Robert",,Martinez,GA,30907,,planning,
"Variant Brewing Company",,Roswell,GA,30075,,planning,
"Wild Heaven Craft Beers","135B Maple St",Decatur,GA,30030-3953,"(404) 997-8589",micro,http://www.wildheavencraftbeers.com
"Yes Face Beer",,,,,"(404) 213-3867",contract,
