name,address,city,state,zip,phone,type,url
"350 Brewing Co","7144 W 183rd St","Tinley Park",IL,60477,"(708) 518-2239",micro,http://www.350brewing.com
"4204 Main St Brewing Co","4204 W Main St",Belleville,IL,62226-5501,"(618) 416-7261",brewpub,http://www.mainstreetbrewingco.com
"5 Rabbit Cerveceria Inc","6398 W 74th St",Chicago,IL,60638-6129,"(312) 895-9591",micro,http://www.5rabbitbrewery.com
"Abbey Ridge Brewery & Tap Room",,"Alto Pass",IL,62905-3213,"(618) 634-1767",planning,
"Against the Grain Brewery & Alehouse",,"Rock Island",IL,61201-2949,"(309) 283-7605",planning,http://www.atgqc.com
"Alarmist Brewing Co",,,,,,planning,http://www.panicbrewing.com
"Ale Syndicate Brewers","2601 W Diversey Ave",Chicago,IL,60647-1817,"(773) 340-2337",micro,http://www.alesyndicate.com
"All Rise Brewing Co","235 N Ashland Ave",Chicago,IL,60607-1401,"(312) 226-6300",brewpub,http://www.allrisebrewing.com
"Alter Brewing Company",,"Downers Grove",IL,60515-4021,,planning,
"Ancient Owl Brewing",,,,,,planning,
"Aquanaut Brewing Co","5435 N Wolcott Ave",Chicago,IL,60640-1017,,micro,http://www.aquanautbrew.com
"Arcade Brewery LLC","2601 W Diversey Ave",Chicago,IL,60647-1817,"(847) 796-0049",proprietor,http://www.arcadebrewery.com
"Argus Brewery","11314 S Front Ave",Chicago,IL,60628-5007,"(773) 941-4050",micro,http://www.argusbrewery.com
"Around the Bend Beer Co.","2601 West Diversy",Chicago,IL,60647-1817,,contract,
"Atlas Brewing Co","2747 N Lincoln Ave",Chicago,IL,60614-1320,"(773) 295-1270",brewpub,http://www.atlasbeer.com
"Baderbrau Brewing Co","4338 N Ashland Ave",Chicago,IL,60613-1204,"(603) 512-6228",contract,http://www.baderbrau.com
"Beer Fairy Brewing",,,,,,planning,
"Begyle Brewing LLC","1800 W Cuyler Ave",Chicago,IL,60613-1295,"(773) 661-6963",micro,http://www.begylebrewing.com
"Belleville Brewing",,Belleville,IL,62220-3282,"(618) 304-1584",planning,http://www.bellevillebrewing.com
"Bent River Brewing Co","1413 5th Ave",Moline,IL,61265-1335,"(309) 797-2722",brewpub,http://www.bentriverbrewery.com
"Bent River Brewing Co Production & Tasting Room","512 24th St","Rock Island",IL,61201-8928,"(309) 283-4811",micro,http://www.bentriverbrewery.com
"Big Muddy Brewing Co","1430 N 7th St",Murphysboro,IL,62966-3938,"(618) 684-8833",micro,http://www.bigmuddybrewing.com
"Birreria @ Eataly","43 E Ohio St",Chicago,IL,60611-2701,,brewpub,http://www.eataly.com
"Blind Pig Brewery","120 N Neil St",Champaign,IL,61820-4023,"(217) 398-5133",brewpub,http://www.blindpigbrewery.com
"Blue Cat Brew Pub","113 18th St","Rock Island",IL,61201-8708,"(309) 788-8247",brewpub,http://www.bluecatbrewpub.com
"Blue Island Beer Co","13357 Old Western Ave","Blue Island",IL,60406-2969,"(708) 954-8085",micro,http://www.blueislandbeerco.com
"Breakroom Brewery","2925 W Montrose Ave",Chicago,IL,60618-1403,"(773) 564-9534",brewpub,http://www.breakroombrewery.com
"Brewery In Planning - Bloomington",,,,,,planning,
"Brewery In Planning - Broadlands",,Broadlands,IL,61816,,planning,
"Brewery In Planning - Burr Ridge",,Hinsdale,IL,60527,,planning,
"Brewery In Planning - Chicago",,Chicago,IL,60607,,planning,
"Brewery In Planning - Chicago",,,,,,planning,
"Brewery In Planning - Chicago",,Chicago,IL,60601,,planning,
"Brewery In Planning - Chicago",,Chicago,IL,60618,,planning,
"Brewery In Planning - Chicago",,Chicago,IL,60611,"(312) 576-1016",planning,
"Brewery In Planning - Chicago",,,,,,planning,
"Brewery In Planning - Chicago",,Chicago,IL,60654,,planning,
"Brewery In Planning - Chicago",,,,,,planning,
"Brewery In Planning - Chicago",,Chicago,IL,60643,,planning,
"Brewery In Planning - Chicago",,Chicago,IL,60640,,planning,
"Brewery In Planning - Cobden",,Cobden,IL,62920,,planning,
"Brewery In Planning - Gurney",,Gurnee,IL,60031-5560,,planning,
"Brewery In Planning - Hampshire",,Hampshire,IL,60140,,planning,
"Brewery In Planning - Itasca1",,Itasca,IL,60143,"(630) 250-8830",planning,
"Brewery In Planning - Lombard",,Lombard,IL,60148,,planning,
"Brewery In Planning - O Fallon",,,,,,planning,
"Brewery In Planning - Pekin",,Pekin,IL,61554,,planning,
"Brewery In Planning - Port Byron",,"Port Byron",IL,61275,,planning,
"Brewery In Planning - Riverside",,Riverside,IL,60546-1957,,planning,
"Brewery In Planning - South Elgin",,"South Elgin",IL,60177-1033,,planning,
"Brewery In Planning - Westmont",,Westmont,IL,60559,,planning,
"Brewery In Planning- Chicago, IL",,,,,,planning,
"Brewery In Planning- Chicago, IL.",,,,,,planning,
"Brewery In Planning- Darien, IL.",,Darien,IL,60561,,planning,
"Brewery In Planning- Dundee, IL.",,Dundee,IL,60118-1434,,planning,
"Brewery In Planning- Lake Zurich, IL.",,"Lake Zurich",IL,60047,,planning,
"Brewery Zatkoff",,Chicago,IL,60625-3002,,planning,http://www.breweryzatkoff.com
"Brickstone Restaurant & Brewery","557 William Latham Dr",Bourbonnais,IL,60914-2319,"(815) 936-9277",brewpub,http://www.brickstonebrewery.com
"BuckleDown Brewing","8700 47th St",Lyons,IL,60534-1626,"(708) 777-1842",micro,http://www.buckledownbrewing.com
"Cademon Brewing Co","217 W Main St",Genoa,IL,60135-1145,"(815) 827-6145",micro,http://www.cademon.com
"Carbondale Craft Beer LLC","184 Magnolia Ln",Carbondale,IL,62903-7667,,micro,
"Carlyle Brewing Co","215 E State St",Rockford,IL,61104-1010,"(815) 963-2739",brewpub,http://www.carlylebrewing.com
"Cary Ale House & Brewing Co.","208 W Main St",Cary,IL,60013-2786,,brewpub,
"Chain O'Lakes Brewing Co","3425 Pearl St",McHenry,IL,60050-4446,"(815) 331-8345",micro,http://www.chainolakesbrewing.com
"Chicago Beer Company","1140 W Randolph St",Chicago,IL,60607-1619,"(773) 244-8696",contract,http://www.chicagobeerco.com
"Church Street Brewing Company","1480 Industrial Dr Ste C",Itasca,IL,60143-1857,"(630) 709-8851",micro,http://www.churchstreetbrew.com
"Copper Hills Brewing Co",,Rockford,IL,61107,"(815) 703-3378",planning,
"Crosstown Brewing Co.",,"Lake Zurich",IL,60047,,planning,
"Crystal Lake Brewing Co.","150 N. Main Street","Crystal Lake",IL,60014,,micro,
"DBA Motor Row Brewing",,Chicago,IL,60616-2104,,planning,
"DESTIHL - Champaign","301 N Neil St",Champaign,IL,61820-3163,"(217) 356-0301",brewpub,http://www.destihl.com
"DESTIHL - Normal","318 S Towanda Ave",Normal,IL,61761-2212,"(309) 862-2337",brewpub,http://www.destihl.com
"DESTIHL Brewery - Production Facility","1616 General Electric Rd Unit 1",Bloomington,IL,61704-2283,"(877) 572-7563",micro,http://www.destihlbrewery.com
"Dryhop Brewers","3155 N Broadway St",Chicago,IL,60657-4508,"(773) 857-3155",brewpub,http://www.dryhopchicago.com
"Emmetts Alehouse (#2)","5200 Main St","Downers Grove",IL,60515-4688,"(630) 434-8500",brewpub,http://www.emmettstavern.com
"Emmetts Tavern & Brewing Co","110 N Brockway St",Palatine,IL,60067-5063,"(847) 359-1533",brewpub,http://www.emmettstavern.com
"Emmetts Tavern and Brewing Co","128 W Main St","West Dundee",IL,60118-2017,"(847) 428-4500",brewpub,
"Empirical Brewery","1801 W Foster Ave",Chicago,IL,60640-1023,,micro,http://www.empiricalbrewery.com
"Engrained Brewing Co","1120 W Lincolnshire Blvd",Springfield,IL,62711-6445,"(217) 546-3054",brewpub,http://www.engrainedbrewing.com
"Excel Brewing Co","488 S Broadway",Breese,IL,62230-1805,"(618) 526-7159",micro,http://www.excelbottling.com
"Exit Strategy Brewing Company","7700 West Madison","Forest Park",IL,60130,,brewpub,http://www.exitstrategybrewing.com
"Finch's Beer Company","4565 N Elston Ave",Chicago,IL,60630-4214,"(773) 283-4839",micro,http://www.finchbeer.com
"Flapjack Brewery",,"Elmwood Park",IL,60707,,planning,
"Flesk Brewing","844 N Ridge Ave",Lombard,IL,60148-1215,,micro,http://www.fleskbrewing.com
"Flossmoor Station Brewing Co","1035 Sterling Ave",Flossmoor,IL,60422-1252,"(708) 957-2739",brewpub,http://www.flossmoorstation.com
"Forbidden Root","444 N Michigan Ave Ste 1910",Chicago,IL,60611-3914,,contract,
"Forge Brewhouse",,Sycamore,IL,60178,,planning,
"Galena Brewing Co","227 N Main St Ste 101",Galena,IL,61036-2217,"(815) 275-9469",brewpub,http://www.galenabrewery.com
"Geneseo Brewing Company",,Geneseo,IL,61254,,planning,
"Gino's East Brewery","500 N La Salle Dr",Chicago,IL,60654,,brewpub,
"Gnosis Brewing",,,,,,planning,
"Goose Island Beer Co / Fulton St","1800 W Fulton St",Chicago,IL,60612-2512,"(312) 226-1119",large,http://www.gooseisland.com
"Goose Island Brewpub","1800 N Clybourn Ave",Chicago,IL,60614-4939,"(312) 915-0071",brewpub,http://www.gooseisland.com
"Gordon Biersch Brewery Restaurant - Bolingbrook","639 E Boughton Rd Ste 100",Bolingbrook,IL,60440-3126,"(630) 739-6036",brewpub,http://www.gordonbierschrestaurants.com
"Grafton Winery & Brewhaus","300 W Main St",Grafton,IL,62037-1124,"(618) 786-3001",micro,http://www.thegraftonwinery.com
"Granite City Food & Brewery (#19)","7144 Harrison Ave Ste 108",Rockford,IL,61112-1013,"(815) 332-7070",brewpub,
"Granite City Food & Brewery (#21)","230 Conference Center Dr","East Peoria",IL,61611-9501,"(309) 669-8080",brewpub,http://www.gcfb.com
"Granite City Food & Brewery (#22)","14035 S La Grange Rd","Orland Park",IL,60462-1321,"(708) 364-1212",brewpub,http://www.gcfb.com
"Granite City Food & Brewery (#30)","1828 Abriter Ct",Naperville,IL,60563,"(630) 544-3700",brewpub,http://www.gcfb.net
"Granite City Food & Brewery (#31)","801 Plaza Dr",Schaumburg,IL,60173,"(630) 523-5700",brewpub,http://www.gcfb.net
"Great Central Brewing Company",,Naperville,IL,60563-2794,,planning,
"Greenstar Brewing At Uncommon Ground","3810 N Clark St",Chicago,IL,60613-2812,"(847) 219-8834",brewpub,http://www.uncommonground.com
"HailStorm Brewing Company","8060 186th St","Tinley Park",IL,60487-9215,"(312) 961-0568",micro,http://www.hailstormbrewing.com
"Half Acre Beer Co","4257 N Lincoln Ave",Chicago,IL,60618-2953,"(773) 248-4038",regional,http://www.halfacrebeer.com
"Hamburger Mary's","5400 N Clark St",Chicago,IL,60640-1210,"(773) 784-6969",brewpub,http://www.hamburgermaryschicago.com
"Haymarket Pub and Brewery","737 W Randolph St",Chicago,IL,60661-2103,"(312) 638-0707",brewpub,http://www.haymarketbrewing.com
"Hofbrauhaus Chicago","5500 Park Pl",Rosemont,IL,60018-3730,"(989) 652-4558",brewpub,http://www.hofbrauhaus.us
"Hopothesis Beer Company","730 W Randolph St",Chicago,IL,60661-2100,"(773) 799-0236",contract,http://www.hopothesis.com
"Hopvine Brewing Company","4030 Fox Valley Center Dr",Aurora,IL,60504-4109,"(815) 577-1900",brewpub,http://www.hopvinebrewingcompany.com
"Horse Thief Hollow Brewery","10426 S Western Ave",Chicago,IL,60643-2508,"(773) 779-2739",brewpub,http://www.horsethiefbrewing.com
"Illinois Brewing Co","102 N Center St Ste 111",Bloomington,IL,61701-5065,"(309) 829-2805",brewpub,http://www.illinoisbrewing.com
"Imperial Oak Brewing Co","501 Willow Blvd Ste 108","Willow Springs",IL,60480-1710,"(708) 559-7311",micro,http://www.imperialoakbrewing.com
"Iron Spike Brewing Company","150 E Simmons St",Galesburg,IL,61401-4640,,brewpub,http://www.ironspikebrewpub.com
"ISOB Brewing Company",,Manhattan,IL,60442,,planning,
"John S Rhodell Brewery","619A SW Water St",Peoria,IL,61602-1531,"(309) 674-7267",micro,http://www.rhodellbrewery.com
"JT Walker's/Champaign County Brewing Co","401 E Main St",Mahomet,IL,61853-7429,"(217) 586-1100",brewpub,http://www.jtwalkers.com
"Knight & Gunner Brewing Co, LLC",,,,,,planning,http://www.knightgunner.com
"Lagunitas Brewing Co","1843 S Washtenaw Ave",Chicago,IL,60608,"(773) 522-2503",regional,http://www.lagunitas.com
"Lake Bluff Brewing Company","16 E Scranton Ave","Lake Bluff",IL,60044-2543,"(224) 544-5179",micro,http://www.lakebluffbrewing.com
"Lake Effect Brewing Company","4727 W Montrose Ave",Chicago,IL,60641-1504,"(312) 919-4473",micro,http://www.lakeeffectbrewing.com
"Light the Lamp Brewery","10 N Lake St Ste 107",Grayslake,IL,60030-3636,"(847) 752-8489",micro,http://www.lightthelampbrewery.com
"Lionstone Brewing",,Geneseo,IL,61254-1636,,planning,
"Lo Rez Brewing",,,,,,planning,http://www.derailedbrewing.com
"Local Option","1102 W Webster Ave Ste 1",Chicago,IL,60614-7089,,contract,
"Lucky Monk Burger, Pizza & Beer Co","105 Hollywood Blvd","South Barrington",IL,60010-7121,"(847) 898-0500",brewpub,http://www.theluckymonk.com
"Lunar Brewing Co","54 E Saint Charles Rd","Villa Park",IL,60181-2434,"(630) 530-2077",brewpub,http://www.mypsace.com/lunarbrewingco
"Mad Mouse Brewery @ Moxee American Kitchen","724 W Maxwell St",Chicago,IL,60607-5017,"(312) 243-3660",brewpub,http://www.moxeerestaurant.com
"Marz Community Brewing","3315 S Halsted St",Chicago,IL,60608-6864,,micro,http://www.marzbrewing.com
"Metropolitan Brewing","5121 N Ravenswood Ave",Chicago,IL,60640-5386,,micro,http://www.metrobrewing.com
"Mickey Finns Brewery","345 N Milwaukee Ave",Libertyville,IL,60048-2237,"(847) 362-6688",brewpub,http://www.mickeyfinnsbrewery.com
"Middle Brow Beer Company",,Chicago,IL,60608,"(708) 846-5511",contract,http://www.middlebrowbeer.com
"Moody Tongue Brewing Company","2136 S Peoria St",Chicago,IL,60608-4526,"(312) 600-5111",micro,http://www.moodytongue.com
Moonshine,"1824 W Division St",Chicago,IL,60622-3113,"(773) 862-8686",brewpub,http://www.moonshinechicago.com
"Nevin's Brewing Company","12337 S Route 59 Unit 155",Plainfield,IL,60585-4614,"(815) 436-3900",brewpub,http://www.nevinsbrewing.com
"Noon Whistle Brewing Company","800 E Roosevelt Rd",Lombard,IL,60148-4735,"(708) 906-3625",micro,http://www.noonwhistlebrewing.com
"Obed & Isaac's American Ale House / Land of Lincoln","500 S 6th St",Springfield,IL,62701-1859,"(217) 670-0627",brewpub,http://www.obedandisaacs.com
"Off Color Brewing","3925 W Dickens Ave",Chicago,IL,60647-3453,,micro,http://www.offcolorbrewing.com
"O'Griffs Grill & Brewhouse","415 Hampshire St",Quincy,IL,62301-2931,"(217) 224-2002",brewpub,
"On Tour Brewing Co.",,,,,,planning,http://www.ontourbrewingco.com
"One Trick Pony Brewery","17933 Chappel Ave",Lansing,IL,60438-4526,"(708) 213-7995",micro,http://www.onetrickponybrewery.com
"Peel Brewing Co.","104 South Cherry Street","O Fallon",IL,62269-2046,"(618) 726-2244",brewpub,http://www.peelpizza.com
"Penrose Brewing Company","509 Stevens St",Geneva,IL,60134-1363,"(630) 232-2115",micro,http://www.penrosebrewing.com
"Piece Brewery","1927 W North Ave",Chicago,IL,60622-1316,"(773) 772-4422",brewpub,http://www.piecechicago.com
"Pig Minds Brewing Co","4080 Steele Dr","Machesney Park",IL,61115-8358,"(815) 968-7447",brewpub,http://www.pigmindsbrewing.com
"Pipeworks Brewing Co","1675 N Western Ave",Chicago,IL,60647-5321,"(847) 910-9493",micro,http://www.pipeworksbrewing.com
"Pizza Beer Company","5N404 Harvest Ln","Saint Charles",IL,60175-8242,"(630) 377-6888",contract,http://www.pizzabeer.net
"Pollyanna Brewing Company","431 Talcott Ave",Lemont,IL,60439-3744,"(630) 914-5834",micro,http://www.pollyannabrewing.com
"RAM Restaurant & Brewery - Schaumburg","1901 McConnor Pkwy",Schaumburg,IL,60173-4389,"(847) 517-8791",brewpub,http://www.theram.com
"RAM Restaurant & Brewery - Wheeling","700 N Milwaukee Ave",Wheeling,IL,60090-3026,"(847) 520-1222",brewpub,http://www.theram.com
"Recess Brewing","307 N Main St",Edwardsville,IL,62025-1615,"(618) 692-5101",micro,http://www.recessbrewing.com
"Revolution Brewing","3340 N Kedzie Ave",Chicago,IL,60618-5722,"(773) 588-2267",regional,http://www.revbrew.com
"Revolution Brewing Brewpub","2323 N Milwaukee Ave",Chicago,IL,60647-2924,"(773) 227-2739",brewpub,http://www.revbrew.com
"Ridgebrook Brewing","2000 Ridgebrook Ln",Godfrey,IL,62035-1342,"(618) 971-8580",micro,http://www.ridgebrookbrewery.com
"Rock Bottom Brewery - Chicago","1 W Grand Ave",Chicago,IL,60654-4806,"(312) 755-9339",brewpub,http://www.rockbottom.com
"Rock Bottom Brewery - Orland Park","16156 S La Grange Rd","Orland Park",IL,60467-5614,"(708) 226-0021",brewpub,http://www.rockbottom.com
"Rock Bottom Brewery - Warrenville","28256 Diehl Rd",Warrenville,IL,60555-3835,"(630) 836-1380",brewpub,http://www.rockbottom.com
"Rock Bottom Brewery - Yorktown","94 Yorktown Ctr",Lombard,IL,60148-5529,"(630) 424-1550",brewpub,http://www.rockbottom.com
"Rockford Brewing Company",,Rockford,IL,61103-7011,,micro,
"Rolling Meadows Microbrewery","3954 Central Point Rd",Cantrall,IL,62625-8803,"(217) 899-7239",micro,http://www.rollingmeadowsbrewery.com
"Rude Hippo Brewing",,Chicago,IL,60625,,contract,http://www.rudehippo.com
"Schalkhausser Brewing Company",,,,,,planning,http://www.schalkhausser.com
"Scorched Earth Brewing Co.",,"Crystal Lake",IL,60014,,planning,http://www.scorchedearthbrewing.com
"Scratch Brewing Company","264 Thompson Rd",Ava,IL,62907-2658,,brewpub,http://www.scratchbeer.com
"Six Mile Brewery and Smokehouse",,"Granite City",IL,62040-4640,,planning,http://www.sixmilebrewery.com
"Skeptic Brewing Co.",,Chicago,IL,60657,,planning,
"Sketchbook Brewing Company","825 Chicago Ave",Evanston,IL,60202-2375,"(847) 859-9051",micro,http://www.sketchbookbrewing.com
"Slapshot Brewing","3223 S Kolin Ave",Chicago,IL,60623-4835,"(708) 935-4178",micro,http://www.slapshotbrewing.com
"Small Town Brewery","1000 N Rand. Road #204",Wauconda,IL,60084-1182,"(314) 276-8277",micro,
"Smylie Brothers Brewing Co","1615 Oak Ave",Evanston,IL,60201-3611,"(224) 999-7320",brewpub,http://www.smyliebros.com
"Solemn Oath Brewery","1661 Quincy Ave Ste 179",Naperville,IL,60540-3969,"(630) 995-3062",micro,http://www.solemnoathbrewery.com
"South Loop Brewing",,,,,,planning,
"Spiteful Brewing","1815 W Berteau Ave Unit 15",Chicago,IL,60613-1816,"(773) 315-0828",micro,http://www.spitefulbrewing.com
"St Nicholas Brewing Co","12 S Oak St","Du Quoin",IL,62832-1515,,brewpub,http://www.stnicholasbrewingco.com
"Stockholms Vardshus","306 W State St",Geneva,IL,60134-2103,"(630) 208-1400",brewpub,http://www.stockholmsbrewpub.com
"Tangled Roots Beverage Company",,Oglesby,IL,61348,,planning,
"Temperance Beer Company, LLC","2000 Dempster St",Evanston,IL,60202-1017,"(773) 209-4920",micro,http://www.temperancebeer.com
"Templar Brewing","331 Belle Street",Alton,IL,62002-6116,,contract,http://www.templarbrewing.com
"Ten Ninety Brewing Co","2701 Deborah Ave",Zion,IL,60099-2700,"(773) 414-5906",micro,http://www.ten-ninety.com
"The Berghoff Brewery Inc.","1730 W Superior St Apt 3W",Chicago,IL,60622-5639,"(608) 358-4992",contract,http://www.berghoffbeer.com
"The Old Bakery Beer Company","400 Landmarks Blvd",Alton,IL,62002-2405,"(618) 463-1470",brewpub,
"Three Angels Brewing","109 Beaver St",Yorkville,IL,60560-1704,,micro,
"Tighthead Brewing Co","161 N Archer Ave",Mundelein,IL,60060-2301,"(847) 219-5470",micro,http://www.tightheadbrewing.com
"Transient Artisan Ales","5435 N. Wolcott Ave",Chicago,IL,60640-1017,"(815) 236-4116",contract,
"Triptych Brewing","1703 Woodfield Dr",Savoy,IL,61874-9504,,micro,http://www.triptychbrewing.com
"Two Brothers Brewing Co","30W315 Calumet Ave W",Warrenville,IL,60555-1565,"(630) 393-4800",regional,http://www.twobrosbrew.com
"Umgawa Brewing Company LLC",,,,,,planning,
"Une Annee Brewery","1640 W Hubbard St Unit F",Chicago,IL,60622-6378,"(773) 419-4611",micro,http://www.uneannee.com
"Urban Legend Brewing Company","1115 Zygmunt Cir",Westmont,IL,60559-2684,,micro,http://www.urbanlegendbrewing.com
"Veteran Beer Co","320 W Ohio St Ste 501",Chicago,IL,60654-7816,"(888) 806-0401",contract,http://www.veteranbeercompany.com
"Vice District Tap Room","1454 S Michigan Ave Ste 1",Chicago,IL,60605,"(312) 291-9022",micro,http://www.vicedistrictbrewing.com
"Village Vintner Winery & Brewery","2380 Esplanade Dr Ste 100",Algonquin,IL,60102-5450,"(847) 658-4900",brewpub,http://www.thevillagevintner.com
"Werk Force Brewing Co","14903 South Center Street #107",Plainfield,IL,60544-2177,"(815) 531-5557",micro,http://www.werkforcebrewing.com
"Wild Onion Brewing Co.","22221 N Pepper Rd","Lake Barrington",IL,60010-2473,"(847) 381-7308",brewpub,http://www.onionpub.com
"Zum Bier","3232 E Monroe St",Waukegan,IL,60085,"(847) 420-7313",micro,http://www.zumbier.com
