name,address1,address2,city,state,zip,phone,type,url
"Admirals Bierbrouwerij Aldtsjerk","Rhaladik 7","Aldtsjerk, Netherlands",,,,"+31 58 256 2374",micro,http://www.admiraalsbierbrouwerij.nl
"Alfa Bierbrouwerij B.V.","Thull 15-19","Schinnen, Netherlands",,,,"+31 (46) 4432888",,http://www.alfa-bier.nl
"Alfa Brouwerij","Thull 15","Schinnen, Netherlands",,,,"31 46 443 2888",micro,http://www.alfabier.nl
"Ambrass Brouwerij","Berkenbaan 8","Sittard, Netherlands",,,,"(046) 400-9300",micro,http://www.ambrass.nl
"Amelander Brouwerij","Smitteweg 6 Ameland","Ballum, Netherlands",,,,"31 519 554 365",micro,http://www.amelanderbier.nl
"Amsterdam Brewboy","Seranggracht 15","Amsterdam, Netherlands",,,,"+31 6 54780822",contract,http://www.amsterdambrewboys.nl
"Apeldoornse Stadbierbrouwerij","Fabianusstraat 46","Apeldoorn, Netherlands",,,,"31 55 533 7249",micro,http://www.stadsbierbrouwerij.nl
"Arnulfus Bieren","Enargietdijk 9","Roosendaal, Netherlands",,,,"+31 6 10920206",contract,http://www.arnulfusbieren.nl
"Attemer Brouwerij","Verlendge Parklaan","Hattem, Netherlands",,,,"(038) 444-6662",micro,http://www.attemerbier.nl
"B.V. Gulpener Bierbrouwerij","Rijksweg 16","Gulpen, Netherlands",,,,"+31 (43) 7575",,http://www.gulpener.nl
"Bad Hair Brewing","Kapellerie 7","Kapelle, Netherlands",,,,"(063) 613-9141",contract,http://www.badhairbrewing.nl
"Bavaria N.V.","De Stater 1","Lieshout, Netherlands",,,,"+31 499 428111",large,http://www.bavaria.nl
"Bax Bier","Friesestraatweg 201/2a","Groningen, Netherlands",,,,"31 50 211 2041",contract,http://www.baxbier.nl
"BE+ER VOF","Postbus 47","Vijfhuizen, Netherlands",,,,"(061) 511-0131",contract,http://www.be-er.nl
"Beijerse Brouwerij","Stravinskypad 45","Oud-Beijerland, Netherlands",,,,"31 6 30908881",micro,http://www.beijersebrouwerij.nl
"Berghoeve Brouwerij","Achteres 15","Den Ham, Netherlands",,,,"31 6 18278345",micro,http://www.berghoevebrouwerij.nl
"Berging Brouwerij","Jaagweg 6","Purmerend, Netherlands",,,,"(062) 920-9585",contract,http://www.bergingbrouwerij.nl
"Bergsch Bierbrouwersglide","c/o Marc Vander Steen Krokussenveld 19","Bergen Op Zoom, Netherlands",,,,"+31 (016) 403-7715",micro,
"Berne Abdij","Abdijstraat 53","Heeswijk Dinther, Netherlands",,,,"31 413 299 293",,http://www.berneabdijbier.nl
"Bier Atelier Vijfheerenlanden","Energieweg 17p","Leerdam, Netherlands",,,,"(034) 561-8857",micro,http://www.glassbier.nl
Bierbroeders,"Ossenweide 12","Zwaag, Netherlands",,,,"31 6 38544296",contract,http://www.debierbroeders.nl
"Bierbrouwerij Bavaria","De Stater 1","Lieshout, Netherlands",,,,"(049) 942-8111",regional,http://www.bavaria.nl
"Bierbrouwerij De 3 Horne","Markstraat 40A","Kaatsheuvel, Netherlands",,,,"+31 416 275 272",micro,http://www.de3horne.nl
"Bierbrouwerij De Eem","Curacaolaan 10C","Amersfoort, Netherlands",,,,"31 33 258 4327",contract,http://www.bierbrouwerijdeeem.nl
"Bierbrouwerij De Keyzer","Lage Kanaaldiijk 115","Maastricht, Netherlands",,,,31629733513,micro,http://www.bierbrouwerijdekeyzer.nl
"Bierbrouwerij De Leckere","Molensteyn 3D","Utrecht, Netherlands",,,,"31 30 231 2343",micro,http://www.deleckere.nl
"Bierbrouwerij De Leeuw B.V.","Theo Dorrenplein 22a","Valkenburg , Netherlands",,,,"+31 (43) 6098888",micro,
"Bierbrouwerij De Vlijt","Vlijtseweg 114","Apeldoorn, Netherlands",,,,"31 6 14439518",micro,http://www.veluwseschavuty.nl
"Bierbrouwerij Het Goeie Goet","Schelmseweg 89","Arnhem, Netherlands",,,,"(026) 357-6111",micro,http://www.openluchtmuseum.nl
"Bierbrouwerij Hoeksche Waard","Postbus 1559","Oud-Beijerland, Netherlands",,,,"(186) 624904",micro,http://www.hoeksch.nl
"Bierbrouwerij Kasparus","Eggestraat 114","Nagele, Netherlands",,,,"(061) 519-5454",micro,http://www.facebook.com/bierbrouwerijkasparus
"Bierbrouwerij Liefde","Ter Borghstraat 13","Geldorp, Netherlands",,,,"31 40 285 2980",contract,http://www.brouwerijliefde.nl
"Bierbrouwerij Sint-Servattumus","Ericastraat 11","Schijndel, Netherlands",,,,"31 6 19328967",micro,http://www.sintservattumus.nl
"Bierbrouwerij 't Kuipertje","Appledijk 18","Heukelum, Netherlands",,,,"31 345 611 839",micro,http://www.hetkuipertje.nl
"Bierbrouwerij 't Volen","Morseweg 12","Volendam, Netherlands",,,,"31 299 363 194",micro,http://www.bierbrouwerijvolendam.nl
"Bierbrouwerij Vermeersen","Absdaalseweg 2","Hulst, Netherlands",,,,"+31 (114) 310660",,http://www.halvemaan.com
"Bierderij Waterland","W.J. Tuijnstraat 14A","Volendam, Netherlands",,,,"31 6 54761244",contract,http://www.bierderijwaterland.com
"Bierproeflokaal De Klep","Keizerstraat 13","Venlo, Netherlands",,,,"31 77 463 3287",contract,http://www.facebook.com/cafedeklep
"Bliksem Breda","Franse Akker 49","Breda, Netherlands",,,,,micro,http://www.brouwerijbliksem.nl
"Boerenbrouwerij Koekoek","Ridderstraat 8","Nijmegan, Netherlands",,,,"(024) 323-3431",micro,http://www.boerkoekoek.nl
"Bommelaar Zaltbommel","Prins Van Oranjestraat 3","Zaltbommel, Netherlands",,,,"+31 6 20006001",contract,http://www.bommelaar.nl
Borrelnoot,"BeelLanen 13","Woerden, Netherlands",,,,,contract,http://www.brouwerijborrelnoot.nl
"Bourgondische Brouwers Beverwijk","Pa Munnikenweg 62","Beverwijk, Netherlands",,,,"(061) 421-8298",contract,http://www.bourgondischebrouwers.nl
"Bouwerij Bolschout Almere","Hopperzuigerstraat 55","Almere, Netherlands",,,,"(062) 299-2553",micro,http://www.facebook.com/brouwerijbolschout
"Bouwerij De Blauwe Ijsbeer","Vuurkruidstraat 3","Nieuwpoort, Netherlands",,,,"31 184 609 040",micro,http://www.brouwerijdeblauweijsbeer.nl
"Brand Bierbrouwerij","Brouwerijstraat 2","Wijlre, Netherlands",,,,"(043) 450-8282",micro,http://www.brand.nl
"Brand Bierbrouwerij B.V.","Brouwerijstraat 2-10","Wylre, Netherlands",,,,"+31 (43) 4508282",,http://www.brand.nl
"Brasserie Bours","Terwestenstraat 4","Eindhoven, Netherlands",,,,"(064) 105-5274",micro,http://www.brasseriebours.nl
"Brauwerij De Compagnie Enkhuizen","Spoorstraat 10-14","Enkhuizen , Netherlands",,,,"(022) 832-3334",contract,http://www.brouwerijdecompagnie.nl
"Brewery in Planning - Breda",Hogeschoollaan,"Breda, Netherlands",,,,,,http://www.yoursite.com
"Brewery Vandeoirsprong","Koestraat 20","Oirschot, Netherlands",,,,"31 499 572 002",micro,http://www.oirschotsbier.nl
"Brolsche Bierbrouwerij","Brouwerijstraat 1 Postbus 55","Enschede, Netherlands",,,,,,
"Brourwerij De Beyerd","Bochstraat 26","Breden, Netherlands",,,,"31 76 521 4265",brewpub,http://www.beyerd.nl
"Brouwerij Bijdehand","Poldermolen 29","Bergschenhoek, Netherlands",,,,"(061) 737-5153",micro,
"Brouwerij Bogt","Calandkade 157","Den Haag, Netherlands",,,,"(064) 501-0451",contract,http://www.brouwerijbogt.nl
"Brouwerij Bourgogne Kruis","Wilhelminakanaal Zuid 104","Oosterhout, Netherlands",,,,310639648631,micro,http://www.bourgognekruis.com
"Brouwerij Brandsma","Reahel 21","Augistinusga, Netherlands",,,,"31 6 27082596",micro,http://www.brouwerijbrandsma.nl
"Brouwerij Breugem"," Lagedijk 192","Zaandijk, Netherlands",,,,"31 6 14228459",contract,http://www.brouwerijbreugem.nl
"Brouwerij BrouwDOK","Het Brouwdok Nieuwe Willemskade 5","Harlingen, Netherlands",,,,31644169174,micro,http://www.brouwdok.nl
"Brouwerij Croy Bier","Croylan 9 Proeflokaal Croy-De Croyse Hoeve","Aarle Rixtel, Netherlands",,,,"(049) 238-1348",micro,http://www.croybier.nl
"Brouwerij Dampegheest","Achterweg 22","Limmen, Netherlands",,,,"+31 6 51940176",micro,http://www.brouwerijdampeghest.nl
"Brouwerij Davo","Sluisstraat 6","Deventer, Netherlands",,,,"31 570 866 431",contract,http://www.davobieren.nl
"Brouwerij De 7 Deugden","Osdorperweg 578","Amsterdam, Netherlands",,,,"(020) 667-3221",micro,http://www.de7deugen.nl
"Brouwerij De 7De Hemel","Klassenweg 13","Sevenum, Netherlands",,,,"31 77 467 3326",contract,http://info@brouwerijde7dehemel.nl
"Brouwerij De Boei","Rommelpot 11","Den Hoorn/Texel, Netherlands",,,,"(022) 231-4180",micro,http://www.landgoeddebonebelevenis.nl
"Brouwerij De Drie Ringen","Kleine Spui 18","Amersfoort, Netherlands",,,,"31 33 465 6575",micro,http://info@dedrieringen.nl
"Brouwerij De Emilisse","Nieuweweg 7","Kamperland, Netherlands",,,,"31 113 370 262",micro,http://www.emelisse.nl
"Brouwerij De Fontein","Ondergenhousweg 15","Stein, Netherlands",,,,"31 46 426 2858",micro,http://www.brouwerijdefontein.nl
"Brouwerij De Gouden Leeuw","Jan Smuldersstraat 26","Vessem, Netherlands",,,,"31 497 591 252",micro,http://www.brouwerijvessem.nl
"Brouwerij De Gulzige Gans","Van Heutsingel 90","Coevorden, Netherlands",,,,"31 524 518 772",micro,http://www.degulzigegans.nl
"Brouwerij De Heeren Van Beeck","Burgemeester Janssenstraat 26","Beek, Netherlands",,,,"31 (46) 4280414",,
"Brouwerij De Heerlijkheid","Kerkbuurt 56","Papendrecht, Netherlands",,,,,micro,http://www.brouwerijdeheerlijkheid.nl
"Brouwerij De Kat","Ribbiusstraat 6","Helmond, Netherlands",,,,,micro,http://www.brouwerijdekat.nl
"Brouwerij De Kip","Kipstraat 2","Ossenisse, Netherlands",,,,"(011) 468-2096",contract,https://www.facebook.com/brouwerijdekip/info
"Brouwerij De Lepelaer","Grote Sloot 481","Oudesluis, Netherlands",,,,"31 224 227 747",contract,http://www.lepelaer.nl
"Brouwerij De Markies","Onderwijsboulevard 344","Hertogenbosch, Netherlands",,,,,contract,http://www.brouwerijdemarkies.nl
"Brouwerij De Molen"," Doortocht 4","Bodegraven, Netherlands",,,,"31 172 610 826",micro,http://www.brouwerijdemolen.nl
"Brouwerij De Natte Gijt","Mauritsstraat 35","Weert, Netherlands",,,,"31 6 45002670",contract,http://www.brouwerijdenattegijt.nl
"Brouwerij De Oude Rijn","Rijndijk 267 269","Hazerswoude-Rijndijk, Netherlands",,,,"31 71 341 2783",micro,http://www.deouderijn.nl
"Brouwerij De Pauw","VOF Bierbrouwerij Gebroeders Blekkenhorst","Ommen, Netherlands",,,,"31 6 11600165",micro,http://www.pauwbier.nl
"Brouwerij De Pauw","Achterbroekweg 1","Ommen, Netherlands",,,,"(054) 667-1363",,
"Brouwerij De Pomp","Alber Luthulistraat 41 D","Amsterdam, Netherlands",,,,,contract,http://www.brouwerijdepomp.nl
"Brouwerij De Prael","Oudezijds Armsteeg 26","Amsterdam, Netherlands",,,,"+31 20 408 4470",brewpub,
"Brouwerij De Praght","Wisentweg 7","Dronten, Netherlands",,,,"(032) 132-9321",micro,http://www.brouwerijpraght.nl
"Brouwerij De Ridder B.V.","Oeverwal 3-9","Maastricht, Netherlands",,,,"+31 (43) 3216057",micro,
"Brouwerij De Veteraan","Jacob Le Mairestraat 253","Emmen, Netherlands",,,,"31 591 301 928",micro,http://www.deveteraan.com
"Brouwerij De Volle Maat","Asschatterweg 233","Leusden, Netherlands",,,,"(063) 176-2983",micro,http://www.devollemaat.nl
"Brouwerij De Vriendschap","Meteorweg 272","Amsterdam, Netherlands",,,,"(061) 139-1675",contract,http://www.brouwerijdevriendschap.nl
"Brouwerij De Wijkgaard","Dorpsstraat 30","Meteran, Netherlands",,,,"31 345 576 391",micro,http://www.dewijkgaard.nl
"Brouwerij De Witte Leeuw","Beelhof 29","Wezep, Netherlands",,,,"31 6 36292689",micro,http://www.brouwerijdewitteleeuw.nl
"Brouwerij D'n Drul","Dorpsstraat 7","Groesbeek, Netherlands",,,,"(062) 094-4358",micro,http://www.brouwerijdendrul.nl
"Brouwerij Eanske","Weverstraat 35","Enschede, Netherlands",,,,"(061) 267-9028",contract,http://www.brouwerijeanske.nl
"Brouwerij Erve Kots","Eimersweg 4","Lievelde, Netherlands",,,,"31 544 371 691",micro,http://www.ervekots.nl
"Brouwerij Fiddler","Rivierismarkt 1","Den Haag, Netherlands",,,,"31 70 365 1955",micro,http://www.fiddler.nl
"Brouwerij Fort Vijfhuizen","Fortwachter 3","Vijfhuizen, Netherlands",,,,"(023) 558-9010",micro,http://www.fortenbier.nl
"Brouwerij Grolsch","Brouwerslaan 1","Enschede, Netherlands",,,,"31 53 483 3333",micro,http://www.grolsch.nl
"Brouwerij Helderse Jongens","Westoever 1","Den Helder, Netherlands",,,,"31 6 21836172",micro,http://www.heldersjongens.nl
"Brouwerij Het Blauwe Hert","Pa Duikerstraat 38","Aalsmeer, Netherlands",,,,"(063) 190-7177",contract,http://www.blauwehert.nl
"Brouwerij Heyloo","EJ Potgeiterweg 6","Heiloo, Netherlands",,,,"(072) 533-4196",contract,http://www.heyloobier.nl
"Brouwerij Huttenkloas"," Celebesstraat 29","Hengelo, Netherlands",,,,"31 74 259 0805",contract,http://www.huttenkloas.nl
"Brouwerij Jonge Beer","Fabrieksweg 14","Hoogeveen, Netherlands",,,," 31 6 29088711",micro,http://www.jongebeer.nl
"Brouwerij Kees","Voltaweg 16","Middelburg, Netherlands",,,,0031652386651,proprietor,http://www.brouwerijkees.nl
"Brouwerij Kinhem","Kloosterstraat 125","Haarlem, Netherlands",,,,312555531121,contract,http://www.kinhem.nl
"Brouwerij Klein Duimpje","Hyacintenlaan 2a","Hillegom, Netherlands",,,,"31 252 531 186",micro,http://www.kleinduimpje.nl
"Brouwerij Kompaan","Saturnusstraat 55","Den Haag, Netherlands",,,,31616798143,micro,http://www.kompaanbier.nl
"Brouwerij Kwartje","Zamenhofstraat 90","Den Haag, Netherlands",,,,31652407290,contract,http://www.brouwerijkwartje.com
"Brouwerij La Fontaine","Vogelschordreef 8","Sas Van Gent, Netherlands",,,,"31 6 18284547",contract,http://www.brouwerijlafontaine.com
"Brouwerij Laarbeek","Klokkengietersstraat 1","Aarle-Rixtel, Netherlands",,,,,contract,http://www.brouwerijlaarbeek.nl
"Brouwerij Largum","Pa Zaanenstraat 125","Haarlem, Netherlands",,,,"+31 (0) 6 - 427 663 40",contract,http://www.largumbieren.nl
"Brouwerij Levenswater","Den Uylborch 27","Rosmalen, Netherlands",,,,"31 6 48345712",micro,http://www.brouwerijhetlevenswater.nl
"Brouwerij Maallust","Hoofdweg 140","Veenhuizen, Netherlands",,,,"31 592 388 971",micro,http://www.maallust.nl
"Brouwerij Maraakels","Klavermaten 65","Goor, Netherlands",,,,"(062) 303-4618",micro,http://www.maraakelsbier.nl
"Brouwerij Martinus","Kostersgang 32-34","Groningen, Netherlands",,,,"31 50 311 6310",micro,http://www.brouwerijmartinus.nl
"Brouwerij Maximus","Pratumplaats 2a","Utrecht, Netherlands",,,,"31 30 737 0800",micro,http://www.brouwerijmaximus.nl
"Brouwerij Molenduyn","Essenlaan 12a","Bloemendaal, Netherlands",,,,"31 23 539 0716",contract,http://www.brouwerijmolenduyn.nl
"Brouwerij Mommeriete","De Oosternaat 66","Gramsbergen, Netherlands",,,,"31 524 562 511",micro,http://www.mommeriete.nl
"Brouwerij Oostenburg","Compagniestraat 22","Amsterdam, Netherlands",,,,"(020) 423-0112",contract,http://www.brouwerij-oostenburg.nl
"Brouwerij Opoer","CAB-Rondom 90A","Utrecht, Netherlands",,,,"(068) 303-3194",micro,
"Brouwerij Othmar Ootmarsum","Commanderiestraat 6","Ootmarsum, Netherlands",,,,"+31 541 760 808",micro,http://www.othmarbier.nl
"Brouwerij Pampus","Boy Edgarstraat 9","Amsterdam, Netherlands",,,,"31 20 614 2055",contract,http://www.facebook.com/brouwerijpampus
"Brouwerij Pronck","Ter Haarkade 1","Leiden, Netherlands",,,,"31 6 53919511",micro,http://www.brouwerijpronck.nl
"Brouwerij Raven Bone Hill","Vincent Van Goghlaan 163","Maassluis, Netherlands",,,,"(062) 422-4624",micro,http://www.ravenbonehill.nl
"Brouwerij Rodenburg","Rhaberseweg 9","Rha, Netherlands",,,,"31 6 16478477",micro,http://www.brouwerijrodenburg.nl
"Brouwerij Sancti Adalberti","Bergerweg 125","Bergen, Netherlands",,,,"(065) 537-0787",micro,http://www.sanctiadalberti.nl
"Brouwerij Scheveningen","Treilerweg 74 B","Den Haag, Netherlands",,,,"31 70 778 5860",micro,http://www.brouwerijscheveningen.nl
"Brouwerij Sint Crispijn","Sintcrispijnstraat 72","Walwijk, Netherlands",,,,"31 6 46088771",contract,http://www.brouwerijsintcrispijn.nl
"Brouwerij T' IJ","Funenkade 7","Amesterdam, Netherlands",,,,"31 20 261 9800",micro,http://www.brouwerijhetij.nl
"Brouwerij Tongval","Sluiskade 7","Broek Op Langedijk, Netherlands",,,,"31 6 43976777",contract,http://www.tongval.com
"Brouwerij Torens","Pia Piushaven 22","Tilburg, Netherlands",,,,,contract,http://www.torenstilburg.nl
"Brouwerij Troost","Cornelis Troostplein 21","Amsterdam, Netherlands",,,,"31 20 760 5820",micro,http://www.brouwerijtroost.nl
"Brouwerij Vrijstad","Nijverheidsweg 6","Culemborg, Netherlands",,,,31611306385,micro,http://www.brouwerijvrijstad.nl
"Brouwerij Wageningen","Nudepark 99D","Wageningen, Netherlands",,,,"31 6 36300440",micro,http://www.brouwerijwageningen.nl
"Brouwerij Zeeburg","Eerste Van Swindenstraat 433","Amsterdam, Netherlands",,,,"31 20 420 4150",contract,http://www.brouwerijzeeburg.nl
"Brouwhuis De Kroon","Beekstraat 20","Neerijse, Netherlands",,,,"(321) 643-9472",,
"Bru'd Beer","Boy Edgarstraat 27","Amsterdam, Netherlands",,,,"31 6 10701828",micro,http://www.brudbeer.com
"Budelse Brouwerij B.V.","Nieuwstraat 9","Budel, Netherlands",,,,"31 (495) 491369",,http://www.budels.nl
"Burg Bier Brouwerij","Putterweg 45","Ermelo, Netherlands",,,," 31 341 564 934",micro,http://www.burgbieren.nl
"Butcher's Tears","Karperweg 45","Amsterdam, Netherlands",,,,"(065) 390-9777",contract,http://www.butcherstears.com
"Carlsberg Nederland","Postbus 310","Raamsdonksveer, Netherlands",,,,"(311) 625-1460",large,http://www.carlsberg.com
"Ceaux Brew","Marnixlaan 244B","Utrecht, Netherlands",,,,"+31 643 025 021",micro,http://www.ceaux.nl
"Central Brouwerij Kantoor","Herengracht 282","Amsterdam, Netherlands",,,,,,http://www.cbk.nl
"Cinema Brewers","Korte Papaverweg 2H","Amsterdam, Netherlands",,,,31645070995,contract,http://www.cinemabrewers.com
"City Brewery Cambrinus","Houtmarkt 56B","Zutphen, Netherlands",,,,"31 575 546 688",micro,http://www.hanze-stadsbrouwerij.nl
"Corviri Brauwerij","Hoge Hereweg 33","Glimmen, Netherlands",,,,,micro,http://www.corviri.nl
"Craft Brewery Groninger","Noordhaven 25","Groningen, Netherlands",,,,,micro,http://www.groningerbier.nl
"Crooked Spider","Jagarslaan 10","Wassenaar, Netherlands",,,,"31 6 14635872",micro,http://www.crookedspider.nl
"Da Naeckte Brouwers","Weverij 5","Amstelveen, Netherlands",,,,"31 20 789 5689",contract,http://www.naecktebrouwers.nl
"De Brouwschuur","Tungeler Dorpsstraat 33","Weert, Netherlands",,,,"(061) 946-9404",,http://www.debrouwschuur.nl
"De Bekeerde Suster","Kloveniersburgwal 6","Amsterdam, Netherlands",,,,"+31 20 423 0112",brewpub,http://www.beiaardgroep.eu
"De Bierderie","Witte Vlinderweg 72 A15","Wormerveer, Netherlands",,,,"31 6 22921174",micro,http://www.beirderie.nl
"De Bierkraai","Patanenweg 46","Amsterdam, Netherlands",,,,"(061) 192-2403",contract,http://www.brouwerijdebierkraai.nl
"De Blauwe Knoop","Brugse Berg 84","Mill, Netherlands",,,,"(065) 108-8304",contract,http://www.deblauweknoop.com
"De Brouwtoren","Binderskampweg 29","Nijmegan, Netherlands",,,,,micro,http://www.brouwtoren.nl
"De Drentse Schans Holsloot","Den Hool 4","Holsloot, Netherlands",,,,"31 591 564 160",contract,http://www.drentscheschans.nl
"De Friese Bierbrouwerij","Snakerstraat 43","Bolsward, Netherlands",,,,"31 (0)515-577 449",micro,http://www.bierbrouwerij-usheit.nl
"De Heeren Van Veen","Zeisum 4","Hooglanderveen, Netherlands",,,,"31 6 11384220",micro,http://www.deheerenvanveen.com
"De Heidebrouwerij","Nieuwe Kazenlaan 2 GEB. 3","Ede, Netherlands",,,,"31 318 785 428",micro,http://www.deheidebrouwerij.nl
"De Kleine Beer","Lennastraat 6","Lemmer, Netherlands",,,,"31 6 11010659",micro,http://www.kleinbeerbrouwerij.nl
"De Kopperen Kat","Shieweg 15M","Delft, Netherlands",,,,"31 6 42123398",micro,http://www.dekoperenkat.nl
"De Kromme Haring","Europalaan 2C","Utrecht, Netherlands",,,,31616970399,micro,http://www.dekrommeharing.nl
"De Kroons Bierbrouwerij","Koestraat 20 Oirschot","Noord-Brabant, Netherlands",,,,"(049) 977-2002",,
"De Mouterij","Boutenslaan 18","Eindhoven, Netherlands",,,,,contract,http://www.demouterij.nl
"De Schans","Schans 17","Uithoorn, Netherlands",,,,"(029) 752-2106",micro,http://www.schansbier.nl
"De Smiecht Craft Brewery","Osdorper Ban 127","Amsterdam, Netherlands",,,,"(061) 369-5695",micro,http://www.huisbrouwerijdesmiecht.nl
"De Snaterende Arend","Amstel 51-L","Amsterdam, Netherlands",,,,"31 20 620 2094",contract,http://www.desnaterendearend.nl
"De Vrije Heerlijkheid","Kuttingerweg 5","Epen, Netherlands",,,," 31 43 455 1916",contract,http://www.vrijheerlijkheid.nl
"Delta Brouwers","c/o Jan Passieux Wilhelminastraat 58","Krabbendijke, Netherlands",,,,+34-2364,,
"Diems Bier Didam","Avesaetweg 3","Didam, Netherlands",,,,"+31 6 22294848",contract,http://www.diemsbier.nl
"D'n Draok","Musselstraat 55","Hertogenbosch, Netherlands",,,,642865,brewpub,http://www.facebook.com/dn-draok-bossche-brouwerij-810320672342064
"Do Noord-Hollandse Bierbrouwerij","Molenwerf 22E","Uitgeest, Netherlands",,,,"31 251 319 956",micro,http://www.dnhbb.nl
"Dommelsche BierBrouwerij","Brouwerijplein 84","Dommelen, Netherlands",,,,"(040) 208-7911",micro,http://www.dommelsche.nl
"Dommelsche Bierbrouwerij B.V.","Brouwerijplein 84 Dommelen","Valkenswaard, Netherlands",,,,"+31 (40) 2087911",micro,http://www.dommelsch.nl
Donderwolk,"St Anthoniusplaats 14","Nijmegen, Netherlands",,,,,micro,http://www.facebook.com/donderwolkbrouwerij
"Doornsche Bierbrouwerij Thorhem","Oude Wooudenberseweg 1","Doorn, Netherlands",,,,"+31 6 46113222",contract,http://www.thorbier.nl
"Dorpsbrouwerij De Maar","Maar 2","Jabeek, Netherlands",,,,"31 46 442 5882",micro,http://www.dorpsbrouwerijdemaar.nl
"Dorpsbrouwerij De Pimpelmeesch","Ginderdoorstraat 4A","Chaam, Netherlands",,,,"31 161 491 615",micro,http://www.pimpelmeesch.nl
"Dorpsbrouwerij Nuenen","De Vlos 8","Nuenen, Netherlands",,,,"(065) 206-5347",micro,http://www.dorpsbrouwerijnuenen.nl
"Duits & Lauret","Noodweg 2","Everdingen, Netherlands",,,,"31 6 14251923",contract,http://www.duitslauret.com
"Eastern Docklands Brewing","Buiten Oranjestraat 19","Amsterdam, Netherlands",,,,310612666232,contract,http://www.easterndocklandsbrewing.nl
"Efes Breweries International B.V.","Strawinskylaan 1227","Amsterdam, Netherlands",,,,"31 20 575 2290",,http://www.anadolugroup.com
"Eiland Brouwers Texel","Bosrandweg 202","De Koog, Netherlands",,,,022231727,micro,http://www.eilandbrouwerstexel.nl
"Elegant Bierbrouwerij","Van Klaverweijdeweg 23","Hoogmade, Netherlands",,,,"31 71 541 3715",micro,http://www.elegantbier.nl
"Elsenbierbrouwerij Poach Poater","Diependaalseweg 14","Markelo, Netherlands",,,,"31 548 521 479",micro,http://www.elsenerbierbrouwerij.nl
"Epe Bier Collectief","Anton Mauvestraat 11",", Netherlands",,,,"(062) 335-3387",contract,http://www.epebier.nl
"Erik's Bier Diemen","Stammerkamp 14","Diemen, Netherlands",,,,31206999738,micro,http://www.eriksbier.com
"Eurotrash Brewery","Vijverhofstraat 10","Rotterdam, Netherlands",,,,"31 6 55788517",contract,http://www.eurotrashbrewery.eu
Excentriek,"Pa Lindengracht 150-2","Amsterdam, Netherlands",,,,,contract,http://www.excentriekbier.nl
"Firkin Brewery","Tollenstraat 96","Den Haag, Netherlands",,,,"31 0 70 346 5306",,
Frontaal,"Veilingkade 8","Breda, Netherlands",,,,"31 6 15605900",contract,http://www.brouwerijfrontaal.nl
"Gebr. Ducaat Zeewolde","Jupiterweg 17","Zeewolde, Netherlands",,,,"(064) 611-3222",micro,http://www.zeewoldebier.nl
"Gebrouwen Door Vrouwen","Rustenburgerstraat 420-2","Amsterdam, Netherlands",,,,,contract,http://www.gebrouwendoorvrouwen.nl
"Goomier Brouwerij","Rembrandtlaan 27","Huizen, Netherlands",,,,,contract,http://www.hetgooischebiergilde.nl
"Graaf Van Heumen","Rijksweg 232","Heumen, Netherlands",,,,"31 24 358 5960",micro,http://www.graafvanheumen.nl
"Graafsch Genot","Reigershorst 1","Grave, Netherlands",,,,"31 486 475 969",contract,http://www.graafschgenot.nl
"Grolsch Bierbrouwerij","Brouwerijstraat 1 Postbus 15","Enschede, Netherlands",,,,"+31 (0)53 483 3391",micro,
"Grolsche Bierbrouwerij Nederland B.V.","Brouwerijstraat 1","Enschede, Netherlands",,,,"+31 (53) 4833333",,http://www.grolsch.nl
"Groningse Bierbrouwerij","Bornholmstraat 46","Groningen, Netherlands",,,,"31 50 318 3563",micro,http://www.grunn-specialbier.nl
"Grutte Pier Brouwerij","Celsiusweg 4","Leeuwarden, Netherlands",,,,"31 6 21834881",contract,http://www.gruttpierbrouwerij.nl
"Gulpener Bierbrouwerij","Rijksweg 16","Gulpen, Netherlands",,,,"31 43 450 7575",micro,http://www.gulpener.nl
"Gulpener Bierbrouwerij","Postbus 51","Gulpen, Netherlands",,,,"04450 1956",,
"H. Schutter Rotterdam BV","Postbus 23029","KA Rotterdam, Netherlands",,,,,regional,
"Haagsche Broeder","Oude Molstraat 35","Den Haag, Netherlands",,,,"31 70 345 0020",micro,http://www.haagschebroeder.nl
"Halsche Stoombierbrouwerij","Pa Groenstraat 15","Bemmel, Netherlands",,,,,micro,http://www.halschestoombierbrouwerij.nl
"Heineken Amsterdam","Burgmeester Smeetsweg 1","Zoeterwoude, Netherlands",,,,"(071) 545-7150",large,http://www.amstel.com.nl
"Heineken B.V.","Burgemeester Smeetsweg 1","Zoeterwoude, Netherlands",,,,"31 (71) 5456111",large,http://www.heineken.nl
"Heineken N.V.","Tweede Weteringplantsoen 21","Amsterdam, Netherlands",,,,"+31 (20) 5239239",,http://www.heineken.nl
"Het Roze Varken","Dr. JC Hartogslaan 11-3","Arnhem, Netherlands",,,,"31 6 11802782",contract,http://www.hetrozevarken.nl
"Het Uiltje","Bingerweg 25","Haarlem, Netherlands",,,,"(023) 844-6395",contract,http://www.brouwerijhetuiltje.nl
"Hoisbrouwery De Graaf","Rijksweg 232","Heumen Gelderland, Netherlands",,,,"(024) 358-5960",,
"Huisbrouwerij De Natte Cel","Prins Willem Alexanderlaan 8","Bovenkarspell, Netherlands",,,,"+31 228 512 451",micro,http://www.danattecel.nl
"Huisbrouwerij Mieghelm","Venkant 17-19","Sint-Michielsgestel, Netherlands",,,,"(073) 551-2137",,http://www.pinkgron.nl/nlbrouw/mieghelm.php
"Huisbrouwerji De Graaf","Bosboom Toussaintsingel 52 0182-630307","Bosboom Toussaintsingel, Netherlands",,,,,,
"Iki Bier","Onderwijsboulevard 219","Hertogenbosch, Netherlands",,,,"31 73 627 4520",contract,http://www.ikibeer.com
"InBev Nederland N.V.","Kruisweg 44","Arcen, Netherlands",,,,"+31 77 473 6060",,http://www.interbrew.com
"Interbrew International B.V., Oranjeboom Bierbrouw","Ceresstraat 1","Breda, Netherlands",,,,"31 765 25 23 98",,http://www.interbrew.com
"Jantjes Bierbrouwerij","Saxofoonstraat 20","Uden, Netherlands",,,,"(041) 326-9361",micro,http://www.jantjesbieren-uden.nl/site/
"Jopen Bier","Emrikweg 19","Haarlem, Netherlands",,,,"(023) 533-4114",micro,http://www.jopenbier.nl
"Jopenkerk Bierbrouwerij","Emrikweg 19","Haarlem , Netherlands",,,,"31 (23) 5334114",regional,http://www.jopen.nl
"Kaapse Brouwers","Veerlaan 19-D","Rotterdam, Netherlands",,,,31102180853,micro,http://www.kaapsebrouwers.nl
"Kaf & Koren","Joorst Banckersplaats 88","Rotterdam, Netherlands",,,,"31 (0)6 244 61 082",micro,http://www.kafenkoren.nl
"Katjelam Brewing Co","Pa Schoolstraat 149","Nijmegan, Netherlands",,,,,contract,http://www.katjelam.org
"Kek Bier","Rondehoep Oost 16","Ouderkerk Aan De Amstel, Netherlands",,,,31621402329,micro,http://www.kek-bier.nl
Klinker,"Muntsrtaat 45","Maastricht, Netherlands",,,,"31 6 27849301",micro,http://www.brouwerijklinker.nl
Kraan,"Overtocht 6","Bodegraven, Netherlands",,,,"31 172 615 558",micro,http://www.brouwerijkraan.nl
"Kraft Bier Tilburg","Buxusplaats 50","Tilburg, Netherlands",,,,"(063) 488-7200",micro,http://www.kraftbier.nl
"Kroon Op Leeuwarden","Da Oerset 16","Leeuwarden, Netherlands",,,,"31 6 15217525",contract,http://www.dekroonopleeuwarden.nl
"La Trappe Koningshoeven","Eindhovenseweg 3","Berkel-Enschot, Netherlands",,,,"31 13 572 2650",micro,http://www.latrappe.nl
"Leidsch Bier","Flevoweg 35A","Leiden, Netherlands",,,,"(061) 510-1755",micro,http://www.leidschbier.nl
"Leidsch Bier","Flevoweg 35 A","LEIDEN, Netherlands",,,,,micro,http://www.leidschbier.nl
"Liempdse Dorpsbrouwerij","De Geekkers 4","Liempde, Netherlands",,,,04116335356,contract,http://www.liempdsedorpsbrouwerij.nl
"Lindeboom Bierbrouwerij B.V.","Engelmanstraat 54","Neer, Netherlands",,,,"31 475 592 900",micro,http://www.lindeboom.nl
"Lowlander Beer","Overtoom 141 -1","Amsterdam, Netherlands",,,,31207529726,contract,http://www.lowlander-beer.com
"Maestrichter Bierbrouwerij","Minderbroedersberg 5","Maastricht, Netherlands",,,,"31 43 302 0205",contract,http://www.demaestrichterbierbrouwerij.nl
Marcksteijn,"Markt 30","Groede, Netherlands",,,,"(011) 737-1511",micro,http://www.marcksteijn.nl
Meerpael,"Kleine Palen 8","Sneek, Netherlands",,,,"31 515 412 866",micro,http://www.meerpael.nl
"Micro Brouwerij Puik Bieren","Oude Apeldoornseweg 76A","Apeldoorn, Netherlands",,,,,micro,http://www.puikbieren.nl
Mongozo,"Geraardsbergsesteenweg 14b","Melle, Netherlands",,,,"31 (0)6 517 504 68",contract,http://www.mongozo.org
Muifelbrouwerij,"Kerkstraat 30","Bergham, Netherlands",,,,31-6-23714650,contract,http://www.muifelbrouwerij.nl
"Museumbrouwerij De Groese Zwaluw","The Flemish Heritage Slijkstraat 12","Groede, Netherlands",,,,"31 (0) 117-372414 ",micro,http://www.het-vlaemsche-erfgoed.nl
"Museumbrouwerij De Roos","Sint Sebastaanstraat 4","Hilvarenbeek, Netherlands",,,,"(013) 505-5045",micro,http://www.museumbrouwerij.nl
"Nijenrode Bier","Zandpad 44 A","Breukelen, Netherlands",,,,310647815282,micro,http://www.nijenrodebier.com
"Noordman Beers","Oryplein 76","Amsterdam, Netherlands",,,,"(085) 060-0006",contract,http://www.noordmanbeers.com
"Oedipus Brouwerij","Gedempt Hamerkanaal 85","Amsterdam, Netherlands",,,,,micro,http://www.oedipusbrewing.com
"Oersoep Brouwerij","Waalbandijk 14D","Nijmegen, Netherlands",,,,31625064611,micro,http://www.oersoepbrouwerij.nl
"Oldskool Brewery",Huurbrouwerij,"Eindhoven, Netherlands",,,,"31 6 27528036",contract,http://www.oldskoolbrewery.nl
"Oudaen Stoombierbrouwerij","Oudegracht 99","Utrecht, Netherlands",,,,"31 30 231 1864",micro,http://www.oudaen.nl
"Proefbrouwerij Vaghevuur","Brouwerij De Hemel Franseplaats 1","Nijmegan, Netherlands",,,,"31 6 23774197",micro,http://www.vaghevuur.nl
"Proef-Locaal Het Achterom","Mariastraat 2C","Apeldoorn, Netherlands",,,,"31 6 19030905",micro,http://www.proef-locaalhetachterom.nl
"Ramses Bier","Thijssenweg 20","Hooge Zwaluwe, Netherlands",,,,"31 6 29517085",contract,http://www.ramsebier.nl
Reuzenbieren,"Burgemeester Maeijerstraat 22","Moergestel, Netherlands",,,,"31 6 51937346",contract,http://www.reuzenbieren.nl
"Rock City Beers","Boldershof 24","Amersfoort, Netherlands",,,,,micro,http://www.rockcitybeers.com
"Rockin' Ludina Brewery","Turfsingel 12","Groningen, Netherlands",,,,"31 50 721 0901",micro,http://www.rockinludina.nl
"Ruig Brouwerij","Veemarktplein 43-44","Utrecht, Netherlands",,,,"31 30 888 1111",micro,http://www.ruigbier.nl
"Sallandse Landbier Brouwerij","Almelosestraat 2","Raalte, Netherlands",,,," 31 74 259 1311",micro,http://www.sallandslandbier.nl
"Santpoorts Bier","Santpoortse Dreef 1","Santpoort-Noord, Netherlands",,,,,contract,http://www.santpoortsbier.nl
"Schultz Brouwerij B.V.","Eekhorstweg 10D Industriepark Noord","Meppel, Netherlands",,,,"+31 (522) 262436",,
"Sint Juttemis Tillburg","Fokkerhof 45","Tillburg, Netherlands",,,,"31 643 068755",contract,http://www.sintjuttemisbier.nl
SNAB,"Monteverdestraat 177","Purmerend, Netherlands",,,,02229248751,contract,http://www.snab.nl
"Speciaalbierbrouwerij Oijen","Oijense Bovendijk 61","Oijen, Netherlands",,,,"31 412 492 217",micro,http://www.speciaalbierbrouwerij.nl
"Spier Bier","Baljuwsstraat 3","Mijdrecht, Netherlands",,,,"31 297 242 289",micro,http://www.spierbier.com
"St Christoffel",,"Breda, Netherlands",,,,"(316) 150-85984",contract,http://www.christoffelbieren.com
"Stadsbrouwerij De Goudsche Leeuw","Volmolenhof 7","Leeuw, Netherlands",,,,31638076029,micro,http://www.stadsbrouwerijdegoudscheleeuw.nl
"Stadsbrouwerij De Kemphaan","Kemphaanpad 4","Almere, Netherlands",,,,"31 6 33901730",micro,http://www.brouwerijdekemphaan.nl
"Stadsbrouwerij De Kromme Jat","Sontweg 18","Groningen, Netherlands",,,,310507503580,micro,http://www.krommejat.nl
"Stadsbrouwerij De Pelgrim","Aelbrechtskolk 12","Rotterdam, Netherlands",,,,"31 (10) 4771189",micro,http://www.pelgrimbier.nl
"Stadsbrouwerij Dordrecht","Buddingh'Plein 20","Dordrecht, Netherlands",,,,"31 78 750 7227",micro,http://www.stadsbrouwerijdordrecht.nl
"Stadsbrouwerij Eindhoven","Bleekweg 1","Eindhoven, Netherlands",,,,"31 40 842 8000",micro,http://www.stadsbrouwerijeindhoven.com
"Stadsbrouwerij Van Kollenburg","Kruistraat 28a","Hertogenbosch, Netherlands",,,,"(073) 613-6915",brewpub,http://www.stadsbrouwerijvankollenburg.nl
"Stadsbrouwerij Wittenburg","Markt 7","Zevenaar, Netherlands",,,,"31 316 253 520",micro,http://www.stadsbrouwerijwittenburg.nl
"Staphorster Stoom Distilleerderij bv","Burg. Nawijnstraat 8","Staphorst, Netherlands",,,,"31 522 262684",large,
"Stapzwan Brouwerij","Springweg 476","Utrecht, Netherlands",,,,,micro,http://www.stapzwan.nl
"Steffelaar Bier","Inustrieweg 93","Rotterdam, Netherlands",,,,"31 6 86264993",,http://www.steffelaar.nl
Swambacchus,"Korte Brouwerstraat 3","Beneden-Leeuwen, Netherlands",,,,"(048) 759-4384",micro,http://www.swambacchus.nl
"Tender Brewery","Jacob Van Lennepkade 274 A","Amsterdam, Netherlands",,,,,contract,http://www.tenderbrewery.nl
"Terwestenstraat 4","Terwestenstraat 4","Eindhoven, Netherlands",,,,"(064) 105-5274",micro,http://www.brasseriebours.nl
"Texelse Bierbrouwerij","Schilderweg 214","Oudeschild, Netherlands",,,,"31 222 320 325",micro,http://www.speciaalbier.com
"The Sisters Brewery","Proostwetering 22D","Utrecht, Netherlands",,,,"31 6 81234221",micro,http://www.thesistersbrewery.com
"Thirty-One Beer","Pa Gildenweld 19","Zeewolde, Netherlands",,,,,micro,http://www.thirtyonebeer.com
"Toren Bier","Peperstraat 4","Zaandam, Netherlands",,,,,contract,http://www.torenbier.nl
"Trappisten Bierbrouwerij De Schaapskooi BV","Eindhovenseweg 3","Berkel Enschot, Netherlands",,,,"+31 (13) 5358147",,http://www.latrappe.nl
"Trappistenbrouwerij De Kievit","Ruchpensweg 38","Zundert, Netherlands",,,,"31 76 597 4251",micro,http://www.zunderttrappist.nl
"Trots Bier","Weena 737","Rotterdam, Netherlands",,,,,contract,http://www.trotsbier.nl
"Twentse Bierbrouwerij","Twindorpstraat 61","Hengelo, Netherlands",,,,"31 74 250 0681",micro,http://www.twentsebierbrouwerij.nl
"Two Chefs Brewing","Moezelhavenweg 6","Amsterdam, Netherlands",,,,"31 6 14435674",contract,http://www.twochefsbrewing.nl
"Van Moll","Keizersgracht 16A","Eindhoven, Netherlands",,,,"(040) 848-7255",micro,http://www.vanmolleindhoven.nl
"Van Waesberghe B.V.","Ginnekenweg 78 A","Breda, Netherlands",,,,,regional,
"VandeStreek Bier","Ontariodreef 43","Utrecht, Netherlands",,,,"31 30 737 1255",contract,http://www.vandestreek-bier.nl
"Vechtdal Brouwerij","Molendijk 11","Dalfsen, Netherlands",,,,"(061) 917-4403",contract,http://www.vechtdalbrouwerij.nl
"Vlaardingse Bierbrouwerij","Oosthavenkade 90","Vlaardingen, Netherlands",,,,,micro,http://www.vlaardingsebierbrouwerij.nl
"VOF Terschellinger Bieren","Baaiduinen 32","Baaiduinen, Netherlands",,,,"+31 562 448 797",micro,http://www.terschellinger-bieren.com
"Voor En Door Goor","Van Heeckerenweg 16","Goor, Netherlands",,,,"(547) 261292",,http://www.facebook.com/goorschgruytbier
"Voortsche Bieren","Sikkel 9","Voorhuizen, Netherlands",,,,"(065) 586-4834",contract,http://www.voortschebieren.nl
Vriendenbier,"De Overtoom 3","Heiloo, Netherlands",,,,"(065) 362-1894",micro,http://www.vriendenbier.nl
"Wijchense Schone","Kastanjepad 18","Wijchen, Netherlands",,,,"+31 6 18114093",micro,http://www.wijchenseschone.nl
"Wildervanker Brouwerij","J. Kammingastraat 89","Wildervank, Netherlands",,,,"31 598 626 489",,http://www.wildervankerbrouwerij.nl
"Wispe Brouwerij","Anna Horstinkstraat 20","Weesp, Netherlands",,,,31(0)6-24514518,contract,http://www.wispe.nl
"Witte Klavervier","Koestraat 33","Zwolle, Netherlands",,,,"31 6 22001711",contract,http://www.witteklavervier.nl
