name,address1,address2,city,state,zip,phone,type,url
"3 Ravens Brewing Co, The","1 Theobald St","Thornbury, Australia",,,,"+61 3 9495 1026",brewpub,http://www.3ravens.com.au
"36 South Brewing Co","PO Box 6345","Point Cook, Australia",,,,"+61 401 327 565",contract,http://www.36southbrewing.com.au
"4 Hearts Pumpyard Bar & Brewery",,"Ipswich, Australia",,,,,planning,http://www.4heartsbrewing.com
"4 Pines Beer","4G/9-13 Winbourne Rd","Brookvale, Australia",,,,,regional,http://www.4pinesbeer.com.au
"40 Acres Brewing","182 House Ln","Sandon, Australia",,,," +61 414 065 417",micro,http://trevandjo.wix.com/fortyacres
"Akasha Brewing Company","10A Spencer Street","Five Dock, Australia",,,,"+61 2 9715 7156",micro,http://www.akashabrewing.com.au
"Anchor Brewing Co (Australia), Ltd.","PO Box 697","Fremantle, Australia",,,,336-2736,regional,
"Artisan Brewing","302 Board Road","Denmark, Australia",,,,"+61 8 9840 8445",contract,http://artisanbrewing.com.au
"Bacchus Brewing Co","1/2 Christine Pl.","Capalaba, Australia",,,,"+61 7 3823 2828",micro,http://www.bacchusbrewing.com.au
"Baffle Beer Brewery","670 Taunton Rd","Taunton, Australia",,,,"(040) 935-5968",brewpub,http://www.bafflebeer.com
"Balmain Brewing Company"," 1/323 Darling St","Balmain, Australia",,,,"(041) 824-4658",contract,http://www.balmainbrewingcompany.com.au
"Bargara Brewing Company","10 Tantitha St","Bundaberg, Australia",,,," +61 7 4152 1675",micro,http://www.bargarabrewingco.com
"Barossa Valley Brewing","5 Robert Erwin Cr","Tanunda, Australia",,,,,brewpub,
"Barrabool Hills Brewery Company","112 Balliang St","South Geelong, Australia",,,,"(041) 737-5861",contract,http://www.cockiesbeer.com.au
"Barrow Boys Brewing","PO Box 541","North Melbourne, Australia",,,,"(180) 006-4411",contract,http://www.barrelboysbrewing.com.au
"Batch Brewing Company","44 Sydenham Rd","Marrickville, Australia",,,,"+61 2 9550 5432",micro,http://www.batchbrewingco.com.au
"BentSpoke Brewing Co","48/38 Mort St","Braddon, Australia",,,,"+61 2 6257 5220",brewpub,http://www.bentspokebrewing.com.au
"Big Shed Brewing","2 Brandwood St Unit 13","Royal Park, Australia",,,,"+61 8 8240 5037",micro,http://www.bigshedbrewing.com.au
"Birbeck's Brewing Company","6 Trinity Way","Oakden, Australia",,,,70700921,contract,http://www.birbecks.com.au
"Black Dog Brewery","339 Booth Rd","Taminick, Australia",,,,"+61 3 5766 2282",micro,http://www.blackdogbrewery.com.au
"Black Heart Brewery (Aus)","24 Oak Grove","Brighton, Australia",,,,"+61 3 9596 7830",micro,http://www.blackheartbrewery.com
"Blackrock Brasserie","117-119 Princes Hwy","Sylvania, Australia",,,,"(029) 522-5558",brewpub,http://www.blackrockbrasserie.com.au
"Brew Cult","PO Box 212","Brunswick East, Australia",,,,610438255253,contract,http://www.brewcult.com
"Brewery In Planning - Australia",,"Noosaville, Australia",,,,61409627394,planning,
"Brewery in Planning - City","1 3 stret","City, Australia",,,,,contract,
"Brewery in Planning - DARWIN",,"DARWIN, Australia",,,,61402942414,planning,
"Brisbane Brewing Co","124 Boundary St","West End, Australia",,,," +61 7 3891 1011",brewpub,http://www.brisbanebrewing.com.au
"Brookes Beer","4A Mayfair Park 4 McDowalls Road","Bendigo East, Australia",,,,"(040) 859-4733",micro,http://www.brookesbeer.com.au
"BullAnt Brewery","46 Main Street","Brutham, Australia",,,,"+61 3 5157 5307",brewpub,http://www.bullantbrewery.com
"Burleigh Brewing Co","2 Ern Harley Dr","Burleigh Heads, Australia",,,,"+61 7 5593 6000",micro,
"Byron Bay Brewery","Unit 5 / 5 Talavera Road","North Ryde NSW, Australia",,,,612-88748101,micro,
"Carlton & United Breweries Ltd","4-6 Southampton Cres","Abbotsford, Australia",,,,61-394-206612,large,
"Cascade Brewing Company","140 Cascade Rd","South Hobart, Australia",,,,"+61 3 6212 7800",regional,
"Castlemaine Perkins Ptl Ltd","PO Box 44","Brisbane, Australia",,,,"(617) 361-7616",regional,
"Cheeky Monkey Brewery and Cidery","4259 Caves Rd","Wilyabrup, Australia",,,,"+61 8 9755 5555",brewpub,http://www.cheekymonkeybrewery.com.au
"Cheeky Peak Brewery","1/67 Wigg St","Wodonga, Australia",,,,"+61 2 6024 5744",micro,http://www.cheekypeakbrewery.com.au
"Coopers Brewery Ltd","461 South Rd","Regency Park, Australia",,,,"+61 (08) 8440 1800",large,http://www.coopers.com.au
"Cowaramup Brewing Company","229 North Treeton Road","Cowaramup, Australia",,,,"+61 8 9755 5822",micro,http://www.cowaramupbrewing.com.au
"Dennis Beer Co",,"Sydney, Australia",,,,"+61 401 715 772",contract,http://www.dennisbeer.com.au
"Doctor's Orders Brewing",,"Sydney, Australia",,,,,contract,http://www.doctorsordersbrewing.com
"Duckstein Brewery","9720 West Swan Road","Henlybook, Australia",,,,"+61 8 92960620",micro,http://www.duckstein.com.au
"Dusty Miner","7 Hampton Court","Aberglasslyn, Australia",,,,"+61 432 064 388",micro,http://www.facebook.com/undergroundcraftbrewery
"Eagle Bay Brewing Co","236 Eagle Bay Rd","Naturaliste, Australia",,,,"+61 8 9755 3554",brewpub,http://www.eaglebaybrewing.com.au
"Edge Brewing Project",,"North Melbourne, Australia",,,,"+61 432 829 921",contract,http://www.edgebrewing.com.au
"Endeavour Vintage Beer Co","39-43 Argyle Street","The Rocks, Australia",,,,"(+61) 1300 289 233",contract,
"Eumundi Brewing Co.","310 Memorial Dr Eerwah Vale","Eumundi, Australia",,,,"+61 7 5442 7444",regional,
"Exit Brewing",,"Frankston, Australia",,,,467730220,contract,http://www.exitbrewing.com
"Feral Brewing Company","152 Haddrill Rd","Perth, Australia",,,,"+61 8 9296 4657",micro,
"Fish River Valley Brewing","1446 Tarana Rd","Locksley, Australia",,,,"+61 400 269 758",brewpub,http://www.facebook.com/fish-river-valley-brewing
"Flat Rock Brew Cafe","290 Willoughby Rd","Naremburn, Australia",,,,"+61 2 9460 6696",brewpub,http://www.flatrockbrewcafe.com.au
"FOGHORN Brewhouse","218 King St","Newcastle, Australia",,,,"+61 2 4929 4721",brewpub,http://www.foghornbrewhouse.com.au
"Fortitude Brewing Company","165 Long Rd","North Tamborine, Australia",,,,"+61 7 5545 4273",micro,http://www.fortitudebrewing.com.au
"Fosters Brewing Group","GPO Box 753F","Melbourne, Australia",,,,03-342-5511,large,
"Fosters Brewing International","4-6 Southampton Crescent","Abbotsford, Australia",,,,+613-9420-6402,large,
"Gage Roads Brewing Co","PO Box 2024","Palmyra, Australia",,,,"(089) 314-0000",micro,
"Grand Ridge Brewing Co","P.O. Box 339","Mirboo North, Australia",,,,"(615) 967-3315",micro,
"Granite Belt Brewery","146 Glenlyon Dr","Stanthorpe, Australia",,,,"(074) 681-1370",micro,http://www.granitebeltbrewery.com.au
"Great White Brewing","30 Ridley Rd Wattle Grove","Perth, Australia",,,,"61 (089) 453-6327",micro,
"Green Beacon Brewing Co","26 Helen Street","Teneriffe Q, Australia",,,,"+61 7 3252 8393",micro,
"Hargreaves Hill","25 Bell Street","Yarra Glen, Australia",,,,61412272625,micro,http://www.hargreaveshill.com.au
"Hawkers Beer","167 Henty St","Reservoir, Australia",,,,0061451452337,regional,
"Hawthorn Brewing Co","Level 3 111 Victoria Ave","Albert Park, Australia",,,,"+61 3 8563 0012",contract,http://www.hawthornbrewing.com.au
"Hickinbotham of Dromona","194 Nepean Hwy","Dromona, Australia",,,,"+61 3 5981 0355",micro,http://www.hickinbotham.biz
"Hobart Brewing Company","16 Evans Street","Hobart, Australia",,,,"+61 3 6231 9779",micro,http://www.hobartbrewingco.com.au
"Holgate Brewhouse Pty Ltd","79 High St","Woodend, Australia",,,,"61 354272510",micro,http://www.holgatebrewhouse.com
"Hope Brewhouse","2213 Broke Rd","Pokolbin, Australia",,,,"+61 2 4993 3555",micro,http://www.hopeestate.com.au
"IronHouse Brewery","White Sands Resort 21554 Tasman Hwy","Four Mile Creek, Australia",,,,"+61 409 308 824",micro,http://www.ironhouse.com.au
"J Boag & Son Brewing","21 Shield Street","Launceton, Australia",,,,"+61 3 6331 9311",regional,http://www.boags.com.au
"Jamieson Brewery","Eildon Road","Jamieson, VIC, Australia",,,,"613 57770515",brewpub,
"Jarrah Jacks","64 Kemp Rd","Pemberton, Australia",,,,"+61 8 9776 1333",micro,
"Kaiju! Beer","10 Superior Dr","Dandenong, Australia",,,,"+61 3 9706 5924",contract,http://www.kaijubeer.com.au
"Killer Sprocket","7/375 Bayswater Road","Bayswater North, Australia",,,,,contract,http://www.killersprocket.com.au
"Kooinda Boutique Brewery","28 Culverlands St","Heidelberg West, Australia",,,,61394581777,micro,http://www.kooinda.com.au
"La Sirene","2 Wingrove St","Alphington, Australia",,,,"+61 452 339 210",proprietor,http://www.lasirene.com.au
"Lion Nathan, Ltd. Australia","Tooheys Brewery 29 Nyrang St","Limcombe, Australia",,,,"+61 2-9648-8611",large,http://www.lion-nathan.com.au
"Little Creatures Brewing Co","40 Mews Road","Freemantle, Australia",,,,"+61 (3) 5202 4009",brewpub,http://www.littlecreatures.com.au
"Little Rivers Brewing Co","22 Victoria St","Scottsdale, Australia",,,,"+61 3 6352 4886",micro,http://www.lrbrewing.com.au
"Malt Shovel Brewery","99 Pyrmont Bridge Rd","Camperdown - Sydney, Australia",,,,"+612 9519 3579",regional,
"Malty Grain","180 Beaudesert Beenleigh Road","Windaroo, Australia",,,,"(042) 096-2952",micro,http://www.beardandbrau.com.au
"Mildura Theatre Brewery","20 Langtree Avenue","Mildura, Australia",,,," +61 3 5022 2988",micro,
"Mismatch Brewing Company","P.O Box 3153","North Adelaide, Australia",,,,"(180) 079-4797",contract,http://www.mismatchbrewing.com.au
"Modus Operandi Brewing Company","14 Harkeith St","Mona Vale, Australia",,,,"+61 2 8407 9864",micro,http://www.mobrewing.com.au
"Moo Brew Pty Ltd","76a Cove Hill Road Bridgewater","Hobart, Australia",,,,"+61 (0)3 6263 7773",micro,http://www.moobrew.com.au
"Moon Dog Craft Brewery","17 Duke St","Abbotsford, Australia",,,,"(039) 428-2307",micro,http://www.moondogbrewing.com.au
"Mornington Peninsula Brewery","20 Latham Street Morning","Victoria, Australia",,,,,micro,http://www.mpbrew.com.au
"Mountain Goat Beer P/L","80 North Street","Richmond, Australia",,,,"+61 3 9428 1180",micro,http://www.goatbeer.com.au
"Mudgee Brewing Co","4 Church St","Mudgee, Australia",,,,"+61 2 6372 6726",brewpub,http://www.mudgeebrewing.com.au
"NAIL BREWING AUSTRALIA Pty Ltd","PO BOX 610","APPLECROSS, Australia",,,,"+61 413 87 2337",micro,http://www.nailbrewing.com.au
"Napoleone Brewers","12 St Huberts Rd","Coldstream, Australia",,,," +61 3 9738 9100",micro,http://www.napoleone.com.au
"New England Brewing Co","19 Bridge St","Uralla, Australia",,,,"(026) 778-4781",brewpub,http://www.newenglandbrewing.com.au
"Newstead Brewing Co.","85 Doggett Street","Newstead, Australia",,,,"+61 7 3367 0490",micro,http://www.newsteadbrewing.com.au
"Nomad Brewing Co","5 Sydenham Rd","Brookvale, Australia",,,,"+61 2 9907 4113",brewpub,http://www.nomadbrewingco.com.au
"Northbridge Brewing Co","44 Lake St","Northbridge, Australia",,,,"+61 8 6151 6481",micro,http://www.northbridgebrewingco.com.au
"Oxford Brewing C","152 Oxford St","Bulimba, Australia",,,," +61 7 3899 2026",large,
"Pact Beer Co","Paragon Mall Ln","Fyshwick, Australia",,,,"+61 401 188 438",contract,http://www.pactbeer.com.au
"Pikes Oakbank Beer","Polish Hill Rd","Polish Hill River, Australia",,,,"+61 8 8843 4370",micro,http://www.pikesbeercompany.com.au
"Pirate Life Brewing","89 South Rd","Hindmarsh, Australia",,,,"+61 8 8340 1447",micro,http://www.piratelife.com.au
"Power Brewing Co","P O Box 621","Beenleigh, Australia",,,,,regional,
"Prancing Pony Brewery","42 Mt Barker Rd","Totness, Australia",,,,"+61 8 8398 3881",micro,http://www.prancingponybrewery.com.au
"Quiet Deeds","Unit 1 40-44 Cook St","Port Melbourne, Australia",,,,"(130) 067-3362",contract,http://www.quietdeeds.com.au
"Rebellion Brewery-Ballarat","36 Gregory St West","Wendouree, Australia",,,,61343080136,micro,http://www.rebellion.com.au
"Red Duck Beer","11A Michaels Dr","Alfredton, Australia",,,,"+61 3 5332 0723",brewpub,http://www.redduckbeer.com.au
"Red Hill Brewery","88 Shoreham Rd","Red Hill South, Australia",,,,"+61 3 5989 2959",micro,http://www.redhillbrewery.com.au
"Riverside Brewing Company","2 N Rocks Rd","North Parramatta, Australia",,,,"+61 2 9890 7007",micro,
"Rocks Brewing Company","Zeppelin Building 2 160 Bourke Rd","Alexandria, Australia",,,,"+61 2 9669 3600",micro,http://www.hartspub.com/rocksbrewing/home.htm
"Seven Sheds","22 Crockers Street","Railton, Australia",,,,"+61 3 6496 1139",micro,http://www.sevensheds.com
"Shenanigans Brewing","66 Marian St","Enmore, Australia",,,,"+61 402 336 765",contract,http://www.shenanigansbrewing.com
"Six String Brewing Company"," 4/330 The Entrance Rd","Erina, Australia",,,,"+61 2 4365 4536",brewpub,http://www.sixstringbrewing.com.au
"Smiling Samoyed Brewery","Hansen St","Myponga, Australia",,,,"+61 8 8558 6166",brewpub,http://www.smilingsamoyed.com.au
"South Australian Brewing Co Ld","107 Port Rd","Thebarton, Adelaide, Australia",,,,"08 354 88 88",regional,
"Stockade Brewery","132 Bangholme Rd","Dandenong South, Australia",,,,"+61-0-3-9706 6589",micro,http://www.bacchusdistillery.com.au
"Stomping Ground Brewing Co","100 Gipps Street","Collingwood, Australia",,,," +61 3 9415 1944",brewpub,http://www.stompingground.beer
"Stone and Wood Brewing Company","4 Boronia Place","Byron Bay, Australia",,,,,regional,http://www.stoneandwood.com.au
"Sydney Brewery","Rydges World Square 389 Pitt St","Sydney, Australia",,,,"+61 412 288 144",micro,http://www.sydneybrewery.com
"Temple Brewing Company","122 Weston St","Brunswick East, Australia",,,,"+61 3 9380 8999",micro,http://www.templebrewing.com.au
"The Australian Brewery","350 Annangrove Rd","Rouse Hill, Australia",,,,"+61 2 9679 4555",micro,http://www.australianbrewery.com.au
"The Public Brewery","13 Lacey St","Croydon, Australia",,,,"+61 3 9725 5864",micro,http://www.thepublicbrewery.com.au
"Thunder Road Brewing Co","130 Barkley St","Brunswick, Australia",,,,"+61 3 9381 4582",micro,http://www.thunderroadbrewing.com
"Tooheys Ltd","21 Nelson Road","Cardiff, Australia",,,,"(612) 648-8611",regional,
"Two Birds Brewing","136 Hall St","Spotswood, Australia",,,,"+61 3 9762 0000",regional,http://www.twobirdsbrewing.com.au
"Vale Brewing","PO Box 270","Mclaren Vale, Australia",,,,"(087) 071-3520",regional,http://www.valebrewing.com.au
"Van Dieman Brewing","537 White Hills Road","Evandale, Australia",,,,"+61 3 6391 9035",micro,http://www.vandiemanbrewing.com.au
"Warragamba Brewing Company",,"Silverdale, Australia",,,,"(040) 888-2007",planning,http://www.qbd-consultancy.com
"Wayward Brewing Company","1 Gehrig Lane","Camperdown, Australia",,,,"+61 2 7903 2445",micro,http://www.wayward.com.au
"Wheatsheaf Hotel","39 George St","Thebarton, Australia",,,,"(088) 443-4546",micro,http://www.wheatsheafhotel.com.au
"Wheaty Brewing Corps","39 George St","Thebarton, Australia",,,,"(088) 443-4546",micro,http://www.wheatsheafhotel.com
"Wheaty Brewing Corps.","Wheatsheaf Hotel","Thebarton, Australia",,,,"(088) 443-4546",micro,http://www.wheatybrewingcorps.com
"White Lies Brewing Co","2/32 Spine St","Sumner, Australia",,,,"+61 449 903 974",brewpub,http://www.whiteliesbrewing.com.au
"White Rabbit Brewery","Swanston St & Fyans St","Geelong, Australia",,,,"+61 3 5202 4050",brewpub,http://www.whiterabbitbeer.com.au
"Wild Hop Brewing Company",,"Dunsborough, Australia",,,,"(042) 708-9941",planning,http://wildhopbrewing.com.au
"Willie The Boatman","Suite 202/75 Mary St","St Peters, Australia",,,,"+61 413 514 026",micro,http://www.willietheboatman.com.au
"Wolf of The Williows","386 Reserve Rd","Cheltenham, Australia",,,,"(026) 685-9255",contract,http://www.wolfofthewillows.com.au
"Woolshed Brewery"," 65 Wilkinson Rd","Murtho, Australia",,,,"+61 8 8595 8188",micro,http://www.aboverenmark.com.au
"Wrong Side Brewing","5953 Eildon - Jamieson Rd","Jamieson, Australia",,,,"+61 405 487 261",brewpub,
Yenda/ARVO,"Farm 1471 Wakley Rd","Yenda, Australia",,,,"(029) 330-4727",regional,http://www.arvobeer.com
"Young Henrys Brewing Company","76 Wilford St","Sydney, Australia",,,,"+61 2 9519 0048",micro,http://www.younghenrys.com
"Zeven Lemon Beerworks","69 Reservoir St","Surry Hills, Australia",,,,"+61 (02) 8218-2105",contract,http://www.zevenlemon.com
