name,address1,address2,city,state,zip,phone,type,url
"1977 Cerveja Artesanal","Rua Joao Calvino 76","Belo Horizonte, Brazil",,,,"55 31 8315 8878",micro,http://www.cerveja1977.com.br
"2cabeças Cervejas","Rua Hilário Ribeiro, 154 - Praça Da Band","Rio De Janeiro, Brazil",,,,,contract,http://www.2cabecas.com.br
"5 Elementos Cervejaria Artesanal","Av. Coronel Jose Philomeno Gomes 1152 Eng. Luciano Cavalcante","Fortaleza, Brazil",,,,"55 85 3085-5070",micro,http://www.5elementoscervejaria.com.br
"A Toca Da Coruja","R Gal. Lima E Silva 1255 Cidade Baixa","Porto Alegre, Brazil",,,,"55 51 3279 2072",micro,http://www.cervejacoruja.com.br/toca
Abadessa,"Avenida José Gertum 470","Porto Alegre, Brazil",,,,"55 51 3026-6789",micro,http://www.abade.com.br
"Aconchego Carioca","R. Barao De Iguatemi 379 Praca Da Bandeira","Rio De Janeiro, Brazil",,,,"55 21 2273 1035",,
"Amazon Beer","Rua Boulevard Castilhos Franca Estacao Das Docas","Belem, Brazil",,,,"55 91 3212 5400",micro,http://www.amazonbeer.com.br
"Ambev - Antarctica","Avenida Presidente Wilson 274","San Paulo, Brazil",,,,"+55 11 24 31 000",large,
"Anner Bier","R Artur De Azevedo 162","Sao Paulo, Brazil",,,,"55 51 98160 4859",,
"Antarctica (Companhia Brasileira De Bebidas)","R Maria Coelho Aguir 215","São Paulo, Brazil",,,,,,
Artesamalt,"Rua Lavras 158 Jardim Universitario","Belo Horizonte, Brazil",,,,"55 31 98719 0000",,
"Baden Baden","Rua Djalma Forjaz 93 Ioja 10 Vila Capivari","Campos Do Jordao, Brazil",,,,"55 12 3663 3610",,
"Baita Bier Cervejaria Ltda","R. Alberto Dresbach 306 Vila Nova","Novo Hamburgo, Brazil",,,,"55 51 3594 1021",micro,
"Baldhead Cervejas Especiais","Travessa Nova Torent 79 Tristeza","Porto Alegre, Brazil",,,,"55 (51) 3085 9400",,
"Baldhead Craft Beers","Rua Vítor Valpírio, 350 - Anchieta","Porto Alegre, Brazil",,,,,micro,http://www.baldhead.com.br
"Bamberg Indústria Comércio Bebidas","Av. Antonio Castanharo 625 Parque Jatai","Votorantim, Brazil",,,,"55 15 3242 7685",,
Barbante,"Avenida Senhor Dos Passos 1585 Portal Da Torre","Juiz De Fora, Brazil",,,,"(323) 231-2879",brewpub,http://www.cervejariabarbante.com.br
"Barco Brewers","Rua Moura Azevedo 237 Bairro Sao Geraldo","Porto Alegre, Brazil",,,,"55 (51) 3094 2734",micro,http://www.barcobrewers.com
"Barley Cervejaria","Rodovia RS Km23","Capela De Santana, Brazil",,,,"(519) 982-3385",micro,http://www.barley.com.br
"Basement Cervejas Especialis Ltds.","Rua Victor Meirelles 761 Matriz","Videira, Brazil",,,,,,
"Bastards Brewery","Rua Paranavai 1142","Pinhais, Brazil",,,,"(413) 557-2207",,http://www.bastardsbrewery.com.br
"Becker Dopke Brauerie","Rua Rui Barbosa 245 Goias","Santa Cruz Do Sul, Brazil",,,,"55 51 3711 8024",,http://www.hbier.com.br
"Belco Beer House S/A","R. Amélia Barbieri Schincariol 10","São Manuel, Brazil",,,,,,
"Berghain Cervejaria","Rua Pomeranos 1752 Pomeranos","Timbó, Brazil",,,,"55 47 9619 5755",micro,http://www.berghaincervejaria.com.br
"Bier Hoff","Rua Willian Booth 2950 Boqueirao","Curitiba, Brazil",,,,"55 41 3093-0303",micro,http://www.bierhoff.com.br
"Bier Hoff Microcervejaria","Av. Sete De Setembro 2775 Reboucas","Curitiba, Brazil",,,,"55 41 3019 9010",,
"Bierland Cervejaria","Rua Gustavo Zimmermann 5361 Itoupava Central","Blumenau, Brazil",,,,"55 47 3337 3100",micro,http://www.bierland.br
"Birra Legenda","R. Amelia Barbieri Schincariol 10 Distrito Industrial","São Manuel, Brazil",,,,"55 14 3812 1000",,
"Brasil Kirin","Av. Primo Schincariol 2222 Itaim","Itu, Brazil",,,,"55 11 4022 9500",large,http://www.brasilkirin.com.br
"Brassaria Ampolis","Av. Nossa Senhora De Copacabana 728/402","Rio De Janeiro, Brazil",,,,,,
"Brewery In Planning - Brazil","Via Das Papoulas 328","Embu Das Artes, Brazil",,,,,contract,
"Brewery In Planning - Santa Maria",,"Santa Maria, Brazil",,,,"1 347 387 2909",planning,http://www.zagaia.beer
"Brewery In Planning - Sao Paulo",,"São Paulo, Brazil",,,,,planning,
"Brewery in Planning - São Paulo","Al Tiete 597, ap52","São Paulo, Brazil",,,,,contract,
"Bruderberg Handwerk Bier","Rua Pastor Ernesto Schlieper","Ivoti, Brazil",,,,,micro,http://www.facebook.com/bruderberg
"Capistrana Cerveja Artesanal De Diamantina","R. Maria Leopoldina 160","Diamantina, Brazil",,,,"55 38 98846 2801",contract,http://www.cervejacapistrana.com
"Casa Di Conti","Avenida Maria Pagote Conte 888 Distrito Ind.","Candido Mota, Brazil",,,,"(55) 18 3341 9000",,
"Casa Do Fritz","Avenida Das Mangueiras 518 Penedo","Itatiaia, Brazil",,,,"55 24 3351 1751",,
"Cerpa - Cervejaria Paraense SA","Rua Da Consolacao 331 - 8 Andar","Sao Paulo, Brazil",,,,"+259 5355",,
"Cerpa Cervejaria Paraense S/A","Rodovia Artur Bernardes 7699","Belem, Brazil",,,,,,
"CERPASA Cervejaria Paraense Sa","Av. Presidente Wilson 274- Mooca","Sao Paulo, Brazil",,,,"(011) 3375-7835",regional,
"Cerveceria Brahma De Sao Paulo","Estrada Da Barragem (Jaguari)","Jacarei, Brazil",,,,"123 51 4221",large,
"Cerveja Artesana J&S","Sitio Santa Rita","Pirangi, Brazil",,,,,,
"Cerveja Benedith Ltda","Av Afranio Rodriguez Da Cunha 625 Tabajaras","Uberlandia, Brazil",,,,"(343) 236-6045",,http://www.benedith.com.br
"Cerveja Capitu","Rua Manoel Da Nobrega 1610 Paraiso","Sao Paulo, Brazil",,,,"55 (11) 98371 5588",contract,http://www.cervejacapitu.com.br
"Cerveja Diamantina","Rua Peixe Vivo 311 Bela Vista","Diamantina, Brazil",,,,"55 38 99956 6667",micro,http://www.cervejadiamantina.com.br
"Cerveja DosCaras","Rua dos Inconfidentes, 1050 - ap 1003","Belo Horizonte, Brazil",,,,"55 31 97166 0839",contract,http://www.cervejadoscaras.com.br
"Cerveja Kafer","Castelo Skarabaus","Brasilia, Brazil",,,,"55 61 98401 1305",,http://www.cervejakafer.com.br
"Cerveja Madalosso","Av Manoel Ribas 5875 Santa Felicidad","Curitiba, Brazil",,,,"55 41 3372 2121",brewpub,http://www.cervejamadalosso.com.br
"Cerveja Mutuca","Cao Parque Hotel","Prudente De Marois, Brazil",,,,"55 31 9973 6751",micro,http://www.facebook.com/cervejamutuca
"Cerveja Schmitt","R. Cel. Aristides 280 Camaqua","Porto Alegre, Brazil",,,,"55 51 3391 7115",,
"Cerveja Templária","Rodovia BR050 KM 292 A Direita 1.5 Km","Catalao, Brazil",,,,"55 64 9994 4321",,http://www.cervejatemplaria.com
"Cerveja Tormenta","R. Alexandre Gugelmim Vila Juliana","Piraquara, Brazil",,,,"(419) 922-0135",,http://www.cervejatormenta.com.br
"Cervejarario Canoinhense","Rua 3 De Maio 154 Centro","Canoinhense, Brazil",,,,"55 (48) 3622 0358",micro,
"Cervejaria Alpenbier","Rua Benjamin Constant 43 Centro","São Bento Do Sul, Brazil",,,,"55 47 3633 6290",,
"Cervejaria Altezza","Estrado Do Vai E Vem Districto De Sao Jose De Alto Vicosa","Castelo, Brazil",,,,"55 28 99989 3311",,http://www.cervejeriaaltezza.com.br
"Cervejaria Amazonia Ltda.","Boul Castilhos Franca 707","Belem, Brazil",,,,"55 (91) 3215-5401",,
"Cervejaria Americana Ltda.","Rua Bernardo Mascarenhas 1471 Fabrica","Juiz De Forca, Brazil",,,,"(323) 213-8471",regional,
"Cervejaria Antarctica Niger SA","Rua Mariana Junqueira 33","Ribeirao Preto, Brazil",,,,"(016) 610-5665",large,
"Cervejaria Araucaria","Av. Americo Belay 2329 03 Zone 1","Maringa, Brazil",,,,"55 44 3305 3013",,http://www.facebook.com/cervejariaauracaria
"Cervejaria Artesanal Egipcia","Rua Cel Antonio Jacinto 1681","Patrocinio Paulista, Brazil",,,,"55 16 98116 7897",micro,http://www.facebook.com/cervejaria.artesanal.egipcia
"Cervejaria Artesanal Revolucionária","R. Comendador Araujo 152","Curitiba, Brazil",,,,"55 41 9924 4440",,
"Cervejaria Ashby","Caixa Postal 290 Estr Mun Amp 347,386","Amparo, Brazil",,,,"55 (19) 3938 1000",,
"Cervejaria Astra","Rua Desembarg L. Noguiera 1355","Fortaleza C, Brazil",,,,"(085) 234-1133",,
"Cervejaria Astra","R Des Lauro Nogueira 1353 Papico","Fortaleza, Brazil",,,,"(085) 234-1133",large,
"Cervejaria Astra SA","Rua Desembargador Lauro Nogueira, 1.355","Fortaleza, Brazil",,,,"(085) 266-2121",,
"Cervejaria Backer","Rua Santa Rita 220 Olhos D'Agua","Belo Horizonte, Brazil",,,,"55 31 3228-8888",micro,http://www.cervejariabacker.com.br
"Cervejaria Badenia","Rua Intendente Broering 3479 Vila Becker","Santo Amaro Da Imperatriz, Brazil",,,,"55 48 3245 8853",brewpub,http://www.griefbier.com.br
"Cervejaria Bamberg","R. Sebastião Benedito Reis, 582","Votorantim 18117370, Brazil",,,,,,http://www.cervejariabamberg.com.br
"Cervejaria Belco Ltda","Rua Amelia Barbieri Schincarol 10 Distrito Industrial","Sao Manuel, Brazil",,,,"(014) 841-3733",,
"Cervejaria Besser Bier","Rua Virginia Wolf 43A","Manaus, Brazil",,,,,,
"Cervejaria Bierbaum","Rua Dr. Gaspar Coutinho 349 Centro","Treze Tilias, Brazil",,,,"55 (49) 3537 0531",micro,http://www.bierbaum.com.br
"Cervejaria Blondine","Rodovia Akzo Nobel 2143 Rio Abaixo","Itupeva, Brazil",,,,"55 11 4496 5293",micro,http://www.blondine.com.br
"Cervejaria Bodebrown","Rua De Laet 1015 Hauer","Curitiba, Brazil",,,,"55 41 3082 6354",,http://www.bodebrown.com.br
"Cervejaria Borck Ltda","Rua Pomeranos 1963 Pomeranos","Timbo, Brazil",,,,"55 47 3382 0587",,
"Cervejaria Brahma","Rua Marques De Sapucai 200","Rio De Janeiro, Brazil",,,,"(021) 292-6699",large,
"Cervejaria Britannica","Av. Um 315 Loteamento Noca Espirito Santo","Valinhos, Brazil",,,,"55 (19) 4062 9203",,
"Cervejaria Bruge","Rua São José Dos Campos 327","Águas De Lindóia, Brazil",,,,,,
"Cervejaria Burgman","Av. Eng. Carlos Reinaldo Mendes 5025 Alem Ponte","Sorocaba, Brazil",,,,"55 15 3218 1818",,
"Cervejaria Burgman","Rua Ottilia Wey Pereira, 360 C2","Sao Paulo, Brazil",,,,,micro,
"Cervejaria Búzios","Chácara São Lucas","Ipeúna, Brazil",,,,,,
"Cervejaria Buzzi","Rodovia RJ 146","Santa Maria Madalena, Brazil",,,,"55 22 99836 4577",micro,http://www.facebook.com/cervajariabuzzi
"Cervejaria Cabore","Av. Otavio Gama 420 Cabore","Paraty, Brazil",,,,"55 24 3371 3071",micro,
"Cervejaria Campo Bom","R. Cairu 161-H","Campo Bom, Brazil",,,,"55 51 3598 6360",micro,http://www.cervejaimigracao.com.br
"Cervejaria Campos Do Jordao","Av Macedo Soares 126 J Elizabete","Campos Do Jordao, Brazil",,,,"(123) 663-1952",micro,http://www.cervejadocamposjorado.com
"Cervejaria Capapreta","Rue Protejada 185","Nova Lima, Brazil",,,,"55 31 3665 9104",,http://www.cervejariacapapreta.com.br
"Cervejaria Cathedral","Av. Dr. Alexandre Rasgulaeff 5733 Jardim Real","Maringa, Brazil",,,,"55 44 3246 2796",,http://www.facebook.com/cervejariacathedral
"CERVEJARIA CAVERNA","Rua Dr. Phidias de Barros Monteiro, 35","São Paulo, Brazil",,,,"55 11 975445377",contract,http://www.cervejacaverna.com.br
"Cervejaria Clipeer","Av. Do Arvoveiro 392 Bloco Geranio 13","Sao Paulo, Brazil",,,,,micro,http://www.facebook.com/cervejariaclipeer
"Cervejaria Colorado","Rodovia Anhanguera Km 308 Candido Portinari","Ribeirao Preto, Brazil",,,,"55 16 3632 0007",,
"Cervejaria Colorado/Beertech","Rua Clementina Stocco 426","Ribeirao Preto, Brazil",,,,"(163) 911-1567",micro,http://www.cervejariacolorado.com.br
"Cervejaria Corumbaense Sa","Rua Mandel Cavassa 1237",", Brazil",,,,"(163) 911-1567",large,
"Cervejaria Cuiabana","Estrada Do Moinho Km 2, 5","Cuiaba MT, Brazil",,,,"(065) 361-4433",large,
"Cervejaria Da Vila","Rua Mateus Leme 2631 Com Retiro","Curitiba, Brazil",,,,"55 41 3015 4620",,
"Cervejaria DaDo Bier","Av. Tulio De Rose 80 Jardim Botanico","Porto Alegre, Brazil",,,,"55 51 3378 3000",,
"Cervejaria De Brasilia SA","Rodovia BR 060 Ent Km110 E 114","Anapolis, Brazil",,,,"(062) 314-1200",,
"Cervejaria Devassa","Av. General San Martin 1241","Rio De Janeiro, Brazil",,,,,,
"Cervejaria Dortmund","Rod. SP-360 Km 144.7","Serra Negra, Brazil",,,,"55 19 3892 1840",,
"Cervejaria Edeldbrau","Av 15 De Novembro 4024","Novo Petropolis, Brazil",,,,"55 54 3281 4555",,http://www.edelbrau.com.br
"Cervejaria Eigen Bier","Rua Dos Lotus 125","Sao Paulo, Brazil",,,,,,http://www.facebook.com/andreinacio85
"Cervejaria Eisenbahn","Rua Bahia, 5181-Salto Weissbach","Blumenau, Brazil",,,,"(473) 488-7307",,http://www.eisenbahn.com.br
"Cervejaria Else Beer","Estrada Viana Bahia Nova Km 6.5","Viana, Brazil",,,,27998606159,,http://www.facebook.com/elsebeer
"Cervejaria Escola Taberna Do Vale","Av Canada 968 Jardim Canada","Nova Lima, Brazil",,,,"55 31 3581 3047",,http://www.tabernodovale.com.br
"Cervejaria Farol","Rua Severino Inocente Zini 150 Vila Mina","Canela, Brazil",,,,"55 54 3282 7007",,http://www.cervejariafarol.com.br
"Cervejaria Fraga","Estr. Dos Bandeirantes 22080 Vargem Pequena","Rio De Janeiro, Brazil",,,,"55 21 2434 1681",,http://www.cervejariafraga.com.br
"Cervejaria Furst Bier","Avenido Vereador Jose Higino 740 Barrio Jose Honorato De Castro","Formiga, Brazil",,,,373324095,,http://www.furstbier.com.br
"Cervejaria Germania","Rod Variante Vinhedo Viracopos Km 78","Vinhedo, Brazil",,,,"(080) 011-0420",,http://www.cervejariagermania.com.br
"Cervejaria Guitt's","Rodovia Coronel Rodovalho 170 Vera Tereza","Caieras, Brazil",,,,44416300,,http://www.facebook.com/cervejaria-guitts
"Cervejaria Hoffen","Av Rever Da Conceicao 1045","Votoratim, Brazil",,,,"55 15 3243 6904",,http://www.cervejariahoffen.com.br
"Cervejaria HRX Ltda","R. Paranavai 1146 Emiliano Perneta","Pinhais, Brazil",,,,"55 (41) 3557 2207",,
"Cervejaria Hunsruck Ltda","R. Alberto Rubenich 1617 Vila Rosa","Dois Irmaos, Brazil",,,,"55(51) 3564 1700",,http://www.hunsruck.com.br
"Cervejaria Ijui Industria E Comercio Ltda","Rua Hans Staden 36 Centro",", Brazil",,,,"55 55 3333 4545",,
"Cervejaria Imaculada","Rua Guido Schio 116 Pio X","Caxias Do Sul, Brazil",,,,"55 54 3027 7315",,http://www.cervejaimaculada.com.br
"Cervejaria Imperial","R. Mosela 1341 Mosela","Petropolis, Brazil",,,,"55 24 22204800",,
"Cervejaria Inconfidentes","Rua Kenon 168 Jardim Canada","Nova Lima, Brazil",,,,"55 31 3541 8795",contract,http://www.cervejariainconfidentes.com.br
"Cervejaria Insana","Unnamed Rd","Palmas, Brazil",,,,"55 46 3262 4915",,http://www.cervejainsana.com.br
"Cervejaria Invicta","Av. Do Cafe 1365 Subestor Oeste 5","Ribeirão Preto, Brazil",,,,"55 16 3236 1365",,http://www.cervejariainvicta.com.br
"Cervejaria Itajahy","Rua Uruguai 1314 Centro","Itajai, Brazil",,,,"55 47 33488484",micro,http://www.cervejariaitajahy.com.br
"Cervejaria Jokers","R Prof Maria Do Carmo Martins 79 Sb02","Pinhais, Brazil",,,,,,http://www.cervejariajokers.com.br
"Cervejaria Júpiter","R. Fernão Dias Pinheiros","Sao Paulo, Brazil",,,,,,
"Cervejaria Kaiser","Av Pres.Humberto De Alencar C.Branco 2911","Jacarei, Brazil",,,,"0800 888 1010",micro,
"Cervejaria Kaiser Minas","Av R Noronha Guarany 2000 Icarai","Divinopolis, Brazil",,,,"(037) 214-1355",large,
"Cervejaria Kaiser Rio","R. A. De Moraes Sarmento 100 Queimados","Noca Iguacu, Brazil",,,,"(021) 767-3745",large,
"Cervejaria Kaiser Sao Paulo","Av. Pres Humberto De Alencar Castelo Branco 2911 Rio Abaixo","Jacarei, Brazil",,,,"(800) 888-1010",large,
"Cervejaria Karavelle","R Augusto Tonin 386 Distrito Industrial","Victoria Martine, Brazil",,,,"55 19 3936 2601",,http://www.karavelle.com.br
"Cervejaria Kilsen","Rua Verona 76D Bairro Palmital","Bairro Palmital, Brazil",,,,"55(49) 323-4566",micro,
"Cervejaria Krill","Estrada Mun Da Pompéia 759","Socorro, Brazil",,,,"55 19 3855 9000",,
"Cervejaria Küd","R. Kenton 36 Jardim Canada","Nova Lima, Brazil",,,,"55 31 3589 6030",,
"Cervejaria Leuven","Rua Sao Francisco De Assis 1321 Centro","Piracicaba, Brazil",,,,"55 19 3422 1802",micro,http://www.cervejaleuven.com.br
"Cervejaria Malta","Rua Benedito Spinardi 1187 Jardim Europa","Assis, Brazil",,,,"55 18 3302 2888",,
"Cervejaria Malta Ltda","Rua Dos Comerciarios 764 - Jardim Paulista","Assis, Brazil",,,,"(018) 322-2888",,
"Cervejaria Marangense Sa","Santos Dumont 501 Anil","Sao Luis, Brazil",,,,,,
"Cervejaria Miranda Correa","R Com A Amorim 26 Aparecida","Manaus, Brazil",,,,"(092) 622-3274",large,
"Cervejaria Mone Alegre Ltda.","Rua Amelia Barbieri Schincariol 10","Sao Manuel, Brazil",,,,"(014) 941-3733",large,
"Cervejaria Monte Alegre","R A Barbieri Schincariol 10 Dist Ind","Sao Manuel, Brazil",,,,"(014) 941-3733",large,
"Cervejaria Munique","Travessa Casalbuono 120 Vila Guilherme","Sao Paulo, Brazil",,,,"55 11 2252 2126",,
"Cervejaria Nacional","Av Pedroso De Morais 604 Pinheiros","Sao Paulo, Brazil",,,,"55 11 3034 4318",brewpub,http://www.cervejarianacional.com.br
"Cervejaria Noi","5899 Estrada Franc. Da Cruz Nunes Niteroi","Rio De Janeiro, Brazil",,,,"55 21 2709 3939",,http://www.facebook.com/noicervejaria
"Cervejaria Paranse SA","Rodovia Arthur Bernardes Pratinha (Icoraraci)","Belem, Brazil",,,,550800999998,regional,
"Cervejaria Peripécia","R. Andrômeda 1277","Contagem, Brazil",,,,,,
"Cervejaria Peter Von Brutschen Ltda.","R. Venancio Aires 1449 Centro","Santa Cruz Do Sul, Brazil",,,,"55 51 3717 2008",,http://www.heilige.com.br
"Cervejaria Petrópolis","BR 040 Moura Brasil","Petropolis, Brazil",,,,,,
"Cervejaria Petropolis, SA","Lotes 05/06 ADE","Aguas Claras, Brazil",,,,"(061) 3399-3564",,
"Cervejaria Prada","Av. Doze 674 Centro","Rio Claro, Brazil",,,,"55 19 2111 5140",,
"Cervejaria Premium","Rodovia BR 364 KM 26","Frutal, Brazil",,,,"55(34) 3423-3700",,
"Cervejaria Premium Paulista","R. Aracatuba 137 Santa Maria","Santo Andre, Brazil",,,,"55 11 4800 0500",,http://www.cervejariapremiumpaulista.com.br
"Cervejaria Princeza","RJ Rodrigues 54 60A Sao F Xavier","Rio De Janeiro, Brazil",,,,"(021) 261-1202",large,
"Cervejaria Providencia","BR-277 Zona Rural","Cascavel, Brazil",,,,"+55 45 3333-4400",,
"Cervejaria Red Door","Fazenda São Geraldo","Casa Branca, Brazil",,,,,micro,http://www.cervejariareddoor.com
"Cervejaria Reunidas Skol","Caracu,R Alm Cochrane 146 An 7","Rio De Janeiro, Brazil",,,,"(021) 234-2074",large,
"Cervejaria Reunidas Skol-Cara","Rua Sete #1.193","Rio Claro, Brazil",,,,"(019) 534-9022",large,
"Cervejaria Reunidas Skol-Cara","Rua Don Fernando 252","Londrina, Brazil",,,,"(043) 222-5123",large,
"Cervejaria Reunidas Skol-Cara","Estr. Ary Jorge Zeitune 3100 Agua Azul","Guaralhos, Brazil",,,,+912-6022,large,
"Cervejaria Reunidas Skol-Cara","Rodovia Br 040 Km 432 Vale Do","Nova Lima, Brazil",,,,"(031) 547-2622",large,
"Cervejaria Reunidas Skol-Cara","Nr.01-Setor Leste Gama","Brasilia, Brazil",,,,"(061) 556-4022",large,
"Cervejaria Reunidas Skol-Cara","Av Itaoca 2277","Rio De Janeiro, Brazil",,,,"(021) 270-7362",large,
"Cervejaria Reunidas Skol-Cara","Rua Maria Coelho Aguiar 215 Bloco - 6 Andar","Sao Paulo, SP, Brazil",,,,,,
"Cervejaria RSW Abadessa","Rodovia Rs 124 Km 03 N 3760","Pareci Novo, Brazil",,,,"+55 051 3633 1070",,
"Cervejaria Santa Catarina Ltda","Av 25 de Julho, 1.303","Forquilhinha , Brazil",,,,"(483) 463-3400",,http://www.cervejariasc.com.br
"Cervejaria Sant'Ana","Rua Jose Hilario 351","Lavras, Brazil",,,,"55 (35) 3821 9279",,http://www.facebook.com/cervejaria-santana
"Cervejaria Sao Paulo S.A.","Rodovia Vicente De Palma - Km11","Boituva, Brazil",,,,"(015) 263-1133",,
"Cervejaria Sarapo","Av. Getúlio Vargas, 163-A","Novo Airão, Brazil",,,,"55 (92) 99607-0444",micro,http://cervejariasarapo.com
"Cervejaria Schornstein","Rua Hermann Weege 160 Centro","Promerode, Brazil",,,,"55 47 3306 1015",,http://www.schornstein.com.br
"Cervejaria Seasons","Rua Angelo Dourado 185","Porto Alegre, Brazil",,,,"(514) 102-0583",micro,http://www.cervejariaseasons.com.br
"Cervejaria Serramalte","R Alexndre Bramatte 673","Getulio Vargas, Brazil",,,,"(054) 341-1100",large,
"Cervejaria Spoller","Rodovia PR 445 Km 367","Gleba Tres Bocas, Brazil",,,,"55 43 3373 3733",,
"Cervejaria St. Peters",,"Cambe, Brazil",,,,55-43-9-9864-9009,planning,http://www.stpeters.com.br
"Cervejaria Sumeria",,"Santo Andre, Brazil",,,,"55 11 2534 5366",,http://www.cervejariasumeria.com.br
"Cervejaria Tarantino",,"Sao Paulo, Brazil",,,,5511999426499,planning,http://www.tarantino.net.br
"Cervejaria Tavola","Rua Vitor Valpirio 430","Porto Alegre, Brazil",,,,"(513) 342-0267",,http://www.cervejatavola.com.br
"Cervejaria Teresopolis","Rodovia BR 116 Km 50 Serra Do Capim","Teresopolis, Brazil",,,,"55 21 2741 4500",,
"Cervejaria Tres Lobos Ltda.","Rua Santa Rita 220 Olhos D'Agua","Belo Horizonte, Brazil",,,,"+55 (31) 3288-3068",,
"Cervejaria Tria","Av Mirunda 51 Indianopolis","Sao Paulo, Brazil",,,,"55 11 5041 1180",,http://www.cervejariatria.com.br
"Cervejaria Tupiniquim","Rua Angelo Dourado 205 Anchieta","Porto Alegre, Brazil",,,,"55 51 3342 5019",,
"Cervejaria Universitaria","Av. Albino J.B. De Oliveira 1250 Barao Geraldo","Campinas, Brazil",,,,"55 19 3395 0702",,
"Cervejaria Urbana","Rua Jurupari 642","São Paulo, Brazil",,,,,,
"Cervejaria Urbana","R. Jurupari 680 Jardim Oriertal","Sao Paulo, Brazil",,,,551135671733,contract,http://www.cervejariaurbana.com.br
"Cervejaria Urwald","Rua Da Cooperativa 240 Sao Vendelino","Rio Grande Do Sul, Brazil",,,,"55(51) 9587 2843",micro,http://www.urwald.com.br
"Cervejaria Valentini","Rua Augosto Mobidelli 30-A","Extrema, Brazil",,,,"55 35 3435 6984",contract,http://www.velenbier.com.br
"Cervejaria Viela","Rua Juramento 202B Pompeia","Belo Horizonte, Brazil",,,,"55 31 8572 7268",micro,http://www.vielabar.com.br
"Cervejaria Votus","Av Eldorado 515","Sao Paulo, Brazil",,,,,,
"Cervejaria Walfanger","Rua Carlos Ribeiro De Souza 115 Bonfim Paulista","Ribeirao Preto, Brazil",,,,"55 16 3325 3661",micro,http://www.walfanger.com.br
"Cervejaria Wals","Rua Padre Leopoldo Mertens 1460 Sao Francisco","Belo Horizonte, Brazil",,,,"55 31 3443 2811",,
"Cervejaria Wolkenburg","Sitio Poco Grande Rod. Cunha-Paraty","Cunha, Brazil",,,,"55 12 3111 6048",micro,http://www.cervejariawb.com.br
"Cervejaria Zanni Ltda","Km. 128 Br. 369","Jataizinho, Brazil",,,,"(55) 43 259 1175",,
"Cervejarias Cintra Industria E","Rau Joao Finazzi 55 - Centro 1380","Mogi Mirim, Brazil",,,,"(019) 860-3710",,
"Cervejarias Encruzilhadas","Avenida Norte Miguel Arraes De Alencar 2822- Encruzihada","Earlville, Brazil",,,,+558130929294,,http://www.cibrew.com.br
"Cervejarias Reunidas Skol-Caracu","Rua Maria Coelho Aguiar 215","Sao Paulo, Brazil",,,,"55(11) 3741 2511",,
"Cervvejaria DuBier","Rua Joaquim Vieira Sobrinho 63","Uberlandia, Brazil",,,,"55 34 3239 4123",,
"Cevada Pura Loja De Fabrica","Av Dr. Joao Teodoro 35 Vila Rezende","Piracicaba, Brazil",,,,"55 19 3421 1070",contract,http://www.cevadapura.com.br
"Cevada Pura Maceio","Tabuleiro Do Martins","Maceio, Brazil",,,,"55 82 3435 2827",,
"Cevejaria Way","Rua Perola 331 Emiliano Perneta","Pinhais, Brazil",,,," +55 41 3653-8853",,
"Choperia & Distribuidora Opa Bier","R. Max Colin 441 Centro","Joinville, Brazil",,,,"55 47 3434 6150",,
"Chopp Alemao Klaus Bier","Rod. SC 401 Km 9","Florianopolis, Brazil",,,,"55 48 3235 1724",micro,http://www.choppalemao.com.br
"Chopp Colina","PR 445 17.000 Gleba Tres Bocas","Londrina, Brazil",,,," +55 43 3373-3733",micro,http://www.choppcolina.com.br
"Chopp Do Fritz","Rua Maria Monteiro 330 Cambui","Campinas, Brazil",,,,"55 19 3254 2753",,
"Cia De Bebidas De Bahia","Rodovia Ba6 Km 16","Camacari, Brazil",,,,"(071) 832-1887",large,
"Cia. Itacolomy De Cervejas","Ave Leste No 205 Distrito Intustrial","Pirapora, Brazil",,,,"(038) 741-1722",large,
"Cia. Sul Brasil De Cervejas","Lote 26 Distrito Industrial","Gravatai, Brazil",,,,"(051) 589-1555",regional,
"Cia. Sulina De Bebidas","Rua De Novembro 1383/1445 Caixa Postal 68","Joinville, Brazil",,,,"(047) 422-3166",regional,
"Companhia Cervejaria Brahma","Rua Maria Coelho Aguiar 215","Sao Paulo, Brazil",,,,"55(11)3741 2511",,
"Companhia Cervejaria Jambreiro","Rua Colombia 140","Nova Lima, Brazil",,,,"55 31 98417 8735",micro,http://www.cervejariajambreiro.com.br
"Companhia De Bebidas Da Bahia","Km16 Da BA-06 Estrada Camacari","Camacari, Brazil",,,,"(071) 834-2137",,
"Companhia Itacolomy De Cerveja","Ave Leste No 205 Distrito Intustrial","Pirapora, Brazil",,,,,large,
"Container British Beer","Rua Gustavo Zimmerman 4764 Itoupava Central","Blumenau, Brazil",,,,"55 47 3285 7185",micro,http://www.cervejariacontainer.com.br
"Convencao Refrigerantes E Cerveja","R. Cel. Rodovalho 170","Caieiras, Brazil",,,,,,
"Crazy Rocker Cervejaria","Rua Sinesio De Melo E Oliveira","Campinas, Brazil",,,,"55 (019) 3258 3071",,http://www.facebook.com/crazyrocker
"Cruz De Malta Cervejas Especiais Ltda.","R. Francisco Eugenio Gomes Pereira 133","Pinhais, Brazil",,,,"+55 41 3056-0123",,
"Cultura Pagan Brewery CO","Rua Salamao Batiste Souzen","Sao Jao Del Rei, Brazil",,,,,micro,http://www.culturapaganbrewery.wix.com
"DaDo Bier","Av. Túlio De Rose 80","Porto Alegre, Brazil",,,,,,
"Dama Bier","Av Rio Dos Pedras 104 Piracicamirim","Piracicaba, Brazil",,,,"55 19 34117006",micro,http://www.damabier.com.br
"Das Bier Cervejaria","Rua Bonifácio Haendchen 5311","Gaspar, Brazil",,,,,,
"Das Bier Cervejaria","Rua Bonificio Haendchen 5311 Belchior Alto","Gaspar, Brazil",,,,"55 47 3397 8600",micro,http://www.dasbier.com.br
"DUM Cervejaria","R Ulisses Vieira","Curitiba, Brazil",,,,,micro,http://www.dumcervejaria.com.br
"DUM Cervejaria","Av. Manoel Ribas 6995","Curitiba, Brazil",,,,,,
"Edbier Cervejas Artesanais","Avenida Sebastiao Moreira Neto, 250","Resende, Brazil",,,,55-24-98847-9417,contract,
"Eden Beer","laguna av 1520 Zona 08","Maringa, Brazil",,,,5544999009105,micro,http://www.edenbeer.com.br
Eisenbahn,"Rua Bahia 5181","Blumenau, Brazil",,,,080007710123,contract,http://www.eisenbahn.com.br
"Ekäut Cervejaria","Travessa da Estrada da Mumbeca, 305 B","Recife, Brazil",,,,"55 81 99191-4830",micro,http://ekaut.com.br
"Estação Do Malte","Poeta Jorge Fernandes 146 Ponta Negra","Natal, Brazil",,,,"55 84 3346 3919",,
"Fabrica Do Chopp","Av. Do Contorno 2736 Santa Efigenia","Belo Horizonte, Brazil",,,,"55 31 3241 1766",,
"Fabrica1 Cervejaria Gastronomica","Rua Juiz De Forza 22 Campo Belo","Londrina, Brazil",,,,"55 43 3348 2000",brewpub,http://www.fabrica1.com
"FiveCats Brewery","R. Riachuelo 232 4 Centro","Assis Chateaubriand, Brazil",,,,"55 44 99156 0095",,
"Fratelli Vita Industria E Com","Rua Barao De Cotegipe 142 533- Calcada","Salvador, Brazil",,,,"(554) 003-6767",large,
"Freising Bier","R. Angela Fatori Delforno 270 Jardim Delforno","Itatiba, Brazil",,,,"55 11 4594 1253",,
"Freising Bier Cervejaria","Rua Angela Fatori Delforno 270 JD. Delforno","Itatiba, Brazil",,,,114541253,micro,http://www.freisingbier.com.br
"Gaudenbier Cervejaria Curitiba Ltda.","Av. Manoel Ribas Santa Felicidade","Curitiba, Brazil",,,,"55 41 3273 6666",,
"Gorillaz Cervejaria Artesanal","Av Monsenhor Alderidge 264 Jardim Country Club","Pocos De Caldas, Brazil",,,,"55 35 3712 0162",micro,http://www.cervejariagorillaz.com.br
"Gram Bier Cervejas Especiais","Rua Sao Marcos 555 Carniel","Gramado, Brazil",,,,"55 54 3295 1500",,http://www.grambier.com.br
"Habeas Copos Cervejaria","Rua Marques De Leao 172 Barra","Salvador, Brazil",,,,"55 (71) 3264 9771",,
"Hocus Pocus",,"Rio De Janeiro, Brazil",,,,,micro,http://www.facebook.com/cervejariahocuspocus
"Hop'N Roll","Rua Mateus Leme 950 Centro Civico","Curitiba, Brazil",,,,"55 41 3408 4486",,http://www.hopnroll.com.br
"Hordeum Vulgare",,"Ivoti, Brazil",,,,"55 51 9402 8182",micro,http://www.hordeumvulgare.com.br
"Horst & Biermann Cervejaria Artesanal","Rua Orleans 255 Guaraja","Rosemead, Brazil",,,,"55(51) 9341 7885",,http://www.cervejariahorstbiermann.com.br
"Inab-Industria Nacional De Bebidas Ltda","Rua Barão De Rio Branco 4188 Vila Industrial","Toledo, Brazil",,,,"55 (45) 33797900",,http://www.inab.com.br
"Industria E Comercio De","Rua Dos Comerciarios 764 Jardim Paulista","Assis, Brazil",,,,"(018) 322-2888",regional,
"Irmaos Ferraro Microcervejaria","Praca Jorge Godofredo Felizardo 70 Anchieta","Porto Alegre, Brazil",,,,"55 51 3242 1214",micro,http://www.irmaosferraro.com.br
"Jeffrey Beer","Rua Tubira 8 Levlon","Rio De Janeiro, Brazil",,,,"55 21 2274 0000",micro,http://www.jeffrey.com.br
"Joia Mesquita Cerveja Gourmet","Travessa Romeu Alvarenga 91 Padre Dehon","Lavras, Brazil",,,,"55 35 99181 0012",micro,http://www.joiamesquita.com.br
"Kalango Cervejaria","Rua Da Prata 128 Vila Biasi","Americana, Brazil",,,,"55 19 3461 4283",,http://www.kalangocervejaria.com.br
"Klein Bier","R. Augusto Dering Sobrinho 450 Vila Ferrari","Campo Largo, Brazil",,,,"55 41 3292 6909",micro,http://www.cervejariaklein.com.br
"Krug Bier","Av. Paulo Camilo Pena 736 Belvedere","Belo Horizonte, Brazil",,,,,,
"Krug Bier","Rua Major Lopes, 172 Sao Pedro","Melo Horizonte, Brazil",,,,"(312) 535-1122",,
"LAGOS CERVEJARIA","Estrada Do Palmital 3224 Rio Da Areia","Saquarema, Brazil",,,,"55 21 99431 5434",,http://www.facebook.com/lagoscervejaria
"Localizacao INAB (Industria Nacional De Bebidas) Ltda.","Rua Barao Do Rio Branco 4188 Vila Industrial","Toledo, Brazil",,,,"+55 45 3379-7900",,
"Loeb's Bier",,"Ivoti, Brazil",,,,"(519) 958-7976",micro,http://www.loebsbier.com.br
"Lohn Bier","Rod SC 390 Km 432 Km Cento E Sete","Lauro Muller, Brazil",,,,"55 48 3466 0489",micro,http://www.lohnbier.com.br
"Lupus Bier","Rua Dos Tabajaras 340 Praia De Iracema","Fortaleza, Brazil",,,,"55 85 3219 2829",micro,
"Micro Cervejaria Barley","Rodovia RS 240 Km 23 9980 Zona Rural","Capela De Santana, Brazil",,,,"55 51 3698 1215",micro,
"Microcervejaria 3R",,"Dois Irmaos, Brazil",,,,555192957497,micro,http://www.facebook.com/microcervejaria3r
"Microcervejaria DaDo Bier","Av. Tulio De Rose 80 Lj 314","Porto Alegre, Brazil",,,,"55 51 3378 3000",regional,http://www.dadobier.com.br
"Microcervejaria Falke Bier","Alameda Dos Falcoes 680 Vale Do Ouro","Ribeirao Das Neves, Brazil",,,,"55 31 255 14300",micro,http://www.falkebier.com.br
"Mistura Classica","Av. Alm. Adalberto De Barros Nunes 1904 Vila Mury","Volta Redonda, Brazil",,,,"55 24 3346 2071",micro,http://www.misturaclassica.com.br
"MoNdi Beer","Rua Almirante Tamandare 52","Pelotas, Brazil",,,,"(533) 222-0060",,
"Morena Bier","Av Jamil Nahas 236 Polo Empresarial Oeste","Campo Grande, Brazil",,,,"55 67 3363 7958",micro,http://www.morenabier.com.br
"O Solar Da Coruja","Rua Riachuelo 525 Centro Historico","Porto Alegre, Brazil",,,,555130950525,,http://www.cervajacoruja.com.br/solar-coruja
"Ogre Beer Comércio De Cervejas Ltda.","BR 376 29155 Campina","Sao Jose Dos Pinhais, Brazil",,,,,,
"Old Captain Beer","R. Argentina 52 Sao Luis","Canoas, Brazil",,,,"51 98202-5248",micro,http://www.oldcaptainbeer.com
"Ommar's Beer","Avenida Florionopolis 476 Jardim Karla","Foz Do Iguacu, Brazil",,,,30298510,micro,http://www.facebook.com/ommars-beer
"Opa Bier","Rua Max Colin 1589 America","Joinville, Brazil",,,,"55 47 3033 3173",micro,http://www.opabier.com.br
"Perro Libre","Praca Mauricio Cardoso 71 Loja 16","Porto Alegre, Brazil",,,,"55 51 3557 6241",micro,http://www.perrolibre.com.br
"Porto De Cima Brewing","Estrada Da Graciosa Km 8","Morretes, Brazil",,,,,micro,http://www.portodecima.com
"PRATINHA BREWERY","Av. Caramuru, 500 Jardim Sumare","Ribeirao Preto, Brazil",,,,+5516997310113,micro,http://www.cervejariapratinha.com.br
"Primo Schincariol - Ind. De","Av Primo Schincariol 2222/2300","Itu, Brazil",,,,"(114) 022-9500",,
"Prost Bier","Rodovia BR 386 KM 351","Estrela, Brazil",,,,"55 51 3720 1005",micro,http://www.prostbier.com.br
"Rasen Bier","Rua Candido Godoy 82 Jardim Dos Pinheiros I","Gramado, Brazil",,,,"55 51 3022 6049",micro,http://www.rasenbier.com.br
Roca,,"Porto Alegre, Brazil",,,,"55 51 3517 9266",micro,http://www.cervejaroca.com.br
"Rofer Cerveja Artesanal","Via Estevao Poli 1250 Do Bonfim","Itupeva, Brazil",,,,"55 11 4591 1263",,http://www.rofercervejaria.com.br
"Roter Brauhof Cervejas Especiais Ltda.","Caminho Para Barra Do Pirai Km 04","Barra Do Pirai, Brazil",,,,"55 (24) 2465-7212",,
"Sain Bier","Av.25 De Julho 1303","Forquilhinha, Brazil",,,,,,
"Saint Bier","Av 25 De Julho 1303 Vila Lourdes","Forquilhinha, Brazil",,,,"55 48 3462 8723",micro,http://www.saintbier.com.br
"SaintCharles Cervejaria Artesanal",,"Sao Carlos, Brazil",,,,"55 16 99148 1143",,http://www.saintcharles.com.br
Santamate,"BR 392 Km 5 Passo Das Tropas","Santa Maria, Brazil",,,,,,
Santamate,"BR392 Km 5 Passo Das Tropas","Santa Maria, Brazil",,,,"(553) 301-9000",,
"Sauber Beer","R. Gustavo Sobotka 93 Chacara Sao Marcelo","Mogi Mirim, Brazil",,,,"55 19 3805 4141",,
Sdg,zxc,"zxc, Brazil",,,,,,
"Serra De Três Pontas Cervejaria Artesanal","Rua Carmina PAsqui 153","São Paulo, Brazil",,,,"+55 11 98343 7383",,
"Serrana Bier",,"Nova Serrana, Brazil",,,,"55 31 8853 5733",,http://www.serranabier.com.br
"Stadt Bier","Asa Norte Comercio Local Norte 409 2190 Asa Norte","Brasilia, Brazil",,,,"+55 61 98424-3038",,
"Sud Brau","Rua Angelina Fracalossi 1140 Distrito Industrial Sao Valentim II","Bento Goncalves, Brazil",,,,"55 54 3455 1177",,
"Three Lions Cervejas Artesanais","Rua Moxoto 46 Chacaras Reunidas","Sao Jose Dos Campos, Brazil",,,,"55 12 3207 6829",,http://www.cervejariathreelions.com.br
"Three Monkeys Beer",,"Rio De Janeiro, Brazil",,,,"55 21 3269 5765",,http://www.threemonkeysbeer.com
"Unika Cervejaria","Rua Jose Hoffmann 3600 Mato Frances","Rancho Queimado, Brazil",,,,,micro,
"Vila St Gallen Cultura Cervejaria","Rua Augosto Do Amaral Peixoto 166 Alto","Teresopolis, Brazil",,,,"55 21 2642 1575",,http://www.vilastgallen.com.br
"VINTAGE CRAFT BEER","Av Jaime Vignoli 97 Anchieta","Porto Alegre, Brazil",,,,"55 51 3341 0236",,http://www.cervejariavintage.com.br
"Walfanger Cervejaria","Carlos Ribeiro De Souza N 115","Ribeirao Preto, Brazil",,,,,,
"Way Beer","Rua Perola 331","Pinhais, Brazil",,,,"55 4136538853",micro,http://www.waybeer.com.br
"Weird Barrel Brewing Co","Rua Altino Arantes 1854 Jardim Sumare","Ribeirão Preto, Brazil",,,,"55 (16) 3101-5285",brewpub,http://www.weirdbarrel.com
"Wensky Beer Microcervejaria","Rod. Do Xisto 3395","Araucária, Brazil",,,,,,
"Wensky Beer Microcervejaria","Rod. Do Xisto BR 476 5781 Sabia","Araucaria, Brazil",,,,"55 41 3625 2915",,
"Whitaker & Vega Cervejaria","R. Augusto Tonin 386","Indaiatuba, Brazil",,,,"55(19) 3936-2601",,
Whitehead,"Rua Lateral 250 Pav. 04","Eldorado Do Sul, Brazil",,,,"55(51) 8425-4496",,
"Worldbev Ind.","Avenida Pio XII 1556","Capivari, Brazil",,,,"(55) 19 3491-6111",,
"Xingu Beer","AV Jornalista Tim Lopes 255- Bloco 4","Rio De Janeiro, Brazil",,,,55-21-3148-9124,micro,http://www.xingubeer..com
"Zehn Bier","Rua Benjamin Constant 26 Sao Luiz","Brusque, Brazil",,,,"55 47 3351 6685",,
