name,address,city,state,zip,phone,type,url
"(512) Brewing Co","407 Radam Ln Ste F200",Austin,TX,78745-1197,,micro,http://www.512brewing.com
"11 Below Brewing Company","6820 Bourgeois Rd",Houston,TX,77066-3107,"(281) 444-2337",micro,http://www.11belowbrewing.com
"28th State Brewing",,Houston,TX,77095,"(832) 213-8091",planning,
"3 Nations Brewing","2405 Squire Pl Ste. 200","Farmers Branch",TX,75234-4743,"(469) 660-7184",micro,http://www.threenationsbrewing.com
"33 Restaurant Group - Brewery In Planning",,Frisco,TX,75034-8563,,planning,
"4th Tap Brewing Cooperative","10615 Metric Blvd",Austin,TX,78758-4520,"(512) 904-9817",micro,http://www.4thtap.coop
"5 Stones Artisan Brewery","128 Springtree Cv",Cibolo,TX,78108-3316,"(210) 380-8215",proprietor,http://www.5stonesbrew.com
"8th Wonder Brewing Co","2202 Dallas St",Houston,TX,77003-3519,"(713) 397-0072",micro,http://www.8thwonderbrew.com
"903 Brewers","1720 S Elm St",Sherman,TX,75090-8725,"(214) 243-8090",micro,http://www.903brewers.com
"Adelbert's Brewery LLC","2314 Rutland Dr Ste 100",Austin,TX,78758-5273,,micro,http://www.adelbertsbeer.com
"Alamo Beer Co","415 Burnet Street","San Antonio",TX,78202,"(210) 872-5589",micro,http://www.alamobeer.com
"Allens Landing Brewing Company",,Houston,TX,77018,,planning,http://www.allenslandingbrewingcompany.com
"Altmeyer & Lewis Brewing",,"San Marcos",TX,78666-2418,,planning,
"Amarillo Beer Company",,Canyon,TX,79015,"(806) 584-8910",planning,
"Anheuser-Busch Inc â€“ Houston","775 Gellhorn Dr",Houston,TX,77029-1496,"(713) 675-2311",large,
"Apogee Brewing",,"League City",TX,77573,,planning,http://www.apogeebrewing.com
Aquabrew,"150 S LBJ Dr.","San Marcos",TX,78666-5506,"(512) 353-2739",brewpub,http://www.aqua-brew.com
"Armadillo Ale Works",,Denton,TX,76201-4152,"(940) 580-4446",planning,http://www.armadilloaleworks.com
Art,,Austin,TX,78723,"(978) 590-9960",planning,http://www.artandcraftbrewing.com
"Audacity Brew House","1012 Shady Oaks Dr",Denton,TX,76205-7937,"(970) 388-8178",micro,http://www.audacitybrewhouse.com
"Austin Beerworks","3009 Industrial Ter Ste 150",Austin,TX,78758-7602,"(512) 821-2494",micro,http://www.austinbeerworks.com
"B & J's Pizza Restaurant","6662 S Staples St","Corpus Christi",TX,78413-5403,"(361) 992-6671",brewpub,http://www.bandjspizza.com
"B-52 Brewing","12470 Milroy Ln",Conroe,TX,77304-5160,"(936) 447-4677",micro,http://www.b52brewing.com
"Baa Baa Brewhouse",,Brookshire,TX,77423,,planning,
"Backcountry Brewery - Rowlett","3313 Enterprise Drive",Rowlett,TX,75088,"(303) 927-9384",brewpub,http://www.backcountrybrewery.com
"BAKFISH Brewing Company",,Pearland,TX,77581,"(281) 993-8658",planning,http://www.bakfishbrewing.com
"Barley & Board","100 W Oak St",Denton,TX,76201-4152,,brewpub,http://www.barleyandboard.com
"Barrow Brewing Company","108 Royal Street",Salado,TX,76571-6248,,micro,http://barrowbrewing.com/
"Bearded Fox Brewing Co.",,Houston,TX,77095-6607,,planning,http://www.beardedfoxbrewing.com
"Beerfoot Beach Bar","2816 Avenue R 1/2",Galveston,TX,77550-7742,"(409) 762-2337",micro,http://www.yagaspresents.com/beerfoot/index.html
"Big Bend Brewing Co","3401 W Highway 90",Alpine,TX,79830-4127,"(432) 837-3700",micro,http://www.bigbendbrewing.com
"Big Texan Brewery","7701 E Interstate 40",Amarillo,TX,79118-6915,"(806) 372-6000",brewpub,http://www.bigtexan.com
"Big Thicket Brewery","113 W Shepherd Ave",Lufkin,TX,75904,"(936) 633-7586",micro,http://www.bigthicketbrewery.com
"Bindlestick Brewing Co","1309 Leander Dr Unit 504",Leander,TX,78641-2692,"(512) 259-9339",micro,http://www.bindlestickbeer.com
"Bitter Sisters Brewing Company","15103 Surveyor Blvd.",Addison,TX,75001-4316,"(972) 479-0949",micro,http://www.bittersistersbrewery.com
"BJs Brewery & Restaurant - Temple","3550 S General Bruce Dr",Temple,TX,76504-5138,"(805) 403-7082",brewpub,http://www.bjsrestaurants.com
"Black and Red Brewing",,,,,,planning,http://www.blackandredbrewing.com
"Black Star Co-op","7020 Easy Wind Dr Ste 100",Austin,TX,78752-2373,"(512) 452-2337",brewpub,http://www.blackstar.coop
"Blackwater Draw Brewing Company","303 Boyett St","College Station",TX,77840-1207,"(979) 575-9828",brewpub,http://www.blackwaterbrew.com
"Blue Owl Brewing","2400 East Cesar Chavez #300",Austin,TX,78702,"(512) 593-1262",micro,http://www.blueowlbrewing.com
"Blue Star Brewing Co","1414 S Alamo St # 105","San Antonio",TX,78210-1117,"(210) 212-5506",brewpub,http://www.bluestarbrewing.com
"Bluebonnet Beer Co","1700 Bryant Dri #107","Round Rock",TX,78664,"(512) 774-4258",micro,http://www.bluebonnetbeerco.com
"Boerne Brewery","9 Hill View Ln",Boerne,TX,78006-7003,"(830) 331-8798",micro,http://www.boernebrewery.com
"Braindead Brewing","2625 Main St",Dallas,TX,75226-1411,"(214) 749-0600",brewpub,http://www.braindeadbrewing.com
"Branchline Brewing Company","3633 Metro Pkwy","San Antonio",TX,78247-3502,"(361) 290-8817",micro,http://www.branchlinebrewing.com
Brash,"510 W Crosstimbers Rd",Houston,TX,77018,,micro,http://www.brashbeers.com
"Brazos Valley Brewing Company","201 W 1st St",Brenham,TX,77833,"(979) 987-1133",micro,http://www.brazosvalleybrewery.com
"Brew Brothers","2404 Strand St",Galveston,TX,77550-1412,,brewpub,
"Brewery DADA",,Austin,TX,78701-2915,,planning,http://www.brewerydada.com
"Brewery in Planning - Abilene",,Abilene,TX,79606,,planning,
"Brewery in Planning - Addison",,Addison,TX,75001,,planning,
"Brewery in Planning - Austin",,Austin,TX,78731,,planning,
"Brewery in Planning - Austin",,Austin,TX,78728,"(512) 496-5711",planning,
"Brewery In Planning - Austin",,Austin,TX,78705,,planning,
"Brewery In Planning - Austin",,,,,,planning,
"Brewery In Planning - Austin",,Austin,TX,78704,,planning,
"Brewery In Planning - Austin",,Austin,TX,78727,,planning,
"Brewery In Planning - Austin",,Austin,TX,78749,,planning,
"Brewery In Planning - Austin",,Austin,TX,78703,,planning,
"Brewery In Planning - Austin",,Austin,TX,78701,,planning,
"Brewery In Planning - Austin",,Austin,TX,78737,,planning,
"Brewery In Planning - Austin",,Austin,TX,78727,,planning,
"Brewery In Planning - Austin",,Austin,TX,78746,,planning,
"Brewery In Planning - Austin",,Austin,TX,78751,,planning,
"Brewery In Planning - Austin",,Austin,TX,78738,,planning,
"Brewery in Planning - austin",,austin,TX,78739,"(512) 738-7003",planning,
"Brewery in Planning - austin","3511 eldorado trail",austin,TX,78739,"(512) 738-7003",,
"Brewery in Planning - austin","3511 eldorado trail",austin,TX,78739,"(512) 738-7003",,
"Brewery in Planning - austin","3511 eldorado trail",austin,TX,78739,"(512) 738-7003",,http://www.roundtopbrewing.com
"Brewery in Planning - austin","3511 eldorado trail",austin,TX,78739,"(512) 738-7003",,http://www.roundtopbrewing.com
"Brewery in Planning - austin","3511 eldorado trail",austin,TX,78739,"(512) 738-7003",,http://www.roundtopbrewing.com
"Brewery in Planning - austin","3511 eldorado trail",austin,TX,78739,"(512) 738-7003",,http://www.roundtopbrewing.com
"Brewery in Planning - austin",,austin,TX,78739,"(512) 738-7003",planning,
"Brewery in Planning - Austin",,Austin,TX,78758,"(512) 879-8593",planning,
"Brewery in Planning - austin",,austin,TX,78705,"(210) 497-2323",planning,
"Brewery in Planning - Austin",,Austin,TX,78745,,planning,
"Brewery In Planning - Austin1",,Leander,TX,78641-8632,,planning,
"Brewery In Planning - Baytown",,Baytown,TX,77521-7830,,planning,
"Brewery In Planning - Benbrook",,,,,,planning,
"Brewery in Planning - Boerne",,"Boerne ",TX,78006,,planning,
"Brewery In Planning - Boerne",,Boerne,TX,78015,,planning,
"Brewery in Planning - Brenham",,Brenham,TX,77833,"(979) 836-8867",planning,http://indaydream@blogspot.com
"Brewery In Planning - Burleson",,Burleson,TX,76028,,planning,
"Brewery In Planning - Canyon Lake",,"Canyon Lake",TX,78133,"(210) 383-9097",planning,
"Brewery In Planning - Cedar Hills TX",,"Cedar Hill",TX,75104-6413,,planning,
"Brewery in Planning - Cedar Park",,"Cedar Park",TX,78613,,planning,
"Brewery In Planning - Cedar Park",,"Cedar Park",TX,78613-4487,,planning,
"Brewery In Planning - College Station",,"College Station",TX,77845,,planning,
"Brewery In Planning - Cypress",,,,,,planning,
"Brewery In Planning - Cypress",,Cypress,TX,77433,,planning,
"Brewery in Planning - Cypress",,Cypress,TX,77429,"(703) 943-0820",planning,http://www.redrosebrewing.com
"Brewery in Planning - Dallas",,Dallas,TX,75000,"(972) 989-1297",planning,http://hemmingsenbrewery.com
"Brewery in Planning - Dallas",,Dallas,TX,75209,"(214) 534-0900",planning,
"Brewery in Planning - Dickinson",,Dickinson,TX,77539,,planning,
"Brewery In Planning - Fort Worth",,"Fort Worth",TX,76116,,planning,
"Brewery In Planning - Fort Worth TX",,"Fort Worth",TX,76126-5209,,planning,
"Brewery In Planning - Friendswood",,Friendswood,TX,77546-3544,,planning,
"Brewery in Planning - Houston",,"Houston ",TX,77005,,planning,
"Brewery In Planning - Houston",,Houston,TX,77018-4110,,planning,
"Brewery In Planning - Houston",,Houston,TX,77005,,planning,
"Brewery In Planning - Houston",,Houston,TX,77070-4638,,planning,
"Brewery In Planning - Houston",,Houston,TX,77004,,planning,
"Brewery In Planning - Houston TX",,Houston,TX,77081-2267,,planning,
"Brewery In Planning - Humble",,Humble,TX,77345,,planning,
"Brewery In Planning - Irving",,Southlake,TX,76092,,planning,
"Brewery in Planning - Leander",,Leander,TX,78641,,planning,
"Brewery In Planning - Lucas",,Allen,TX,75002,,planning,
"Brewery in Planning - meriden",,"Rio Grande City",TX,78582,,planning,
"Brewery in Planning - Midland",,Midland,TX,79705,,planning,
"Brewery in Planning - New Braunfels",,"New Braunfels ",TX,78130,"(830) 312-9078",planning,http://placeholder
"Brewery in Planning - Plano",,Plano,TX,75023,"(940) 395-0802",planning,
"Brewery In Planning - Port Aransas",,"Port Aransas",TX,78373,,planning,
"Brewery in Planning - rio grande",,"rio grande ",TX,78582,"(956) 487-2660",planning,
"Brewery In Planning - Round Rock TX",,"Round Rock",TX,78681-2197,,planning,
"Brewery In Planning - Royse City TX",,"Royse City",TX,75189-2725,,planning,
"Brewery In Planning - San Angelo",,"San Angelo",TX,76901,,planning,
"Brewery In Planning - San Marcos TX",,,,,,planning,
"Brewery in Planning - Southlake",,Southlake,TX,76092,"(214) 763-3070",planning,http://jdplawyer@ymail.com
"Brewery in Planning - Tomball",,Tomball,TX,77375,,planning,
"Brewery in Planning - Waco",,Waco,TX,76710,,planning,
"Brewery In Planning - Weslaco",,Weslaco,TX,78596,,planning,
"Brewery in Planning - Wichita Falls",,"Wichita Falls",TX,76309,"(940) 733-3037",planning,
"Brewery In Planning- Austin",,,,,,planning,http://www.ruminantbeer.com
"Brewery In Planning- Austin, TX",,,,,,planning,
"Brewery In Planning- Austin, TX.",,,,,,planning,
"Brewery In Planning- Austin, TX.",,Austin,TX,78702-3402,,planning,
"Brewery In Planning- Austin, TX.",,Austin,TX,78736-2856,,planning,
"Brewery In Planning- Mc Kinney, TX.",,"Mc Kinney",TX,75069-9000,,planning,
"Brewery In Planning- McAllen, TX.",,,,,,planning,
"Brewery In Planning- Plano, TX.",,Plano,TX,75075-3012,,planning,
"Brewery In Planning- San Antonio, TX.",,,,,,planning,
"Brewery In Planning- Tyler, TX.",,Tyler,TX,75703-4558,,planning,
"Brigadoon Brewery & Brew School","4808 Fairmont Pkwy Ste 112",Pasadena,TX,77505-3722,"(218) 710-7560",micro,http://www.brigadoonbrewery.com
"Brotherwell Brewing",,Waco,TX,76710-5342,,planning,
"BS Brewing","1408 Old Lehmann Rd",Seguin,TX,78155-5048,"(830) 660-8124",micro,http://www.bsbrewingtx.com
"Buffalo Bayou Brewing Co","5301 Nolda St",Houston,TX,77007-2234,"(832) 244-1873",micro,http://www.buffalobayoubrewing.com
"Burning Pine Brewing Co",,Bastrop,TX,78602,,planning,
"Busted Sandal Brewing Company","7114 Oaklawn Dr","San Antonio",TX,78229-3021,"(210) 872-1486",micro,http://www.bustedsandalbrewing.com
"Cash\'s Craft Brewery",,vidor,TX,77662,"(409) 554-1775",planning,
"Cedar Creek Brewery","244 E Cedar Creek Pkwy","Seven Points",TX,75143-8393,"(214) 502-9795",micro,http://www.cedarcreekbrewery.com
"Celestial Beerworks",,Dallas,TX,75214,,planning,
"Cellarmans American Pub",,Sherman,TX,75090-2622,"(903) 813-0994",planning,http://www.cellarmanspub.com
"Changoleon Brewing Company",,Florence,TX,76527,,planning,
"Chimera Brewing Company","1001 W Magnolia Ave","Fort Worth",TX,76104-4504,"(817) 923-8000",brewpub,
"Circle Brewing Company","2340 W Braker Ln Ste B",Austin,TX,78758-4542,"(512) 814-7599",micro,http://www.circlebrewing.com
"City Acre Brewing Co","3421 Folger St",Houston,TX,77093-5603,"(832) 377-0237",brewpub,http://www.cityacrebrewing.com
"Comfort Brewing",,Comfort,TX,78013,,planning,
"Community Beer Co","1530 Inspiration Dr # 200",Dallas,TX,75207-3703,,micro,
"Copperhead Brewery","822 N Frazier St",Conroe,TX,77301-2305,"(281) 919-6134",micro,http://www.copperheadbrewery.com
"Cornel's Brewing Company","13410 Highway 105",Beaumont,TX,77713-9470,,micro,
"Cowtown Brewing Company",,"North Richland Hills",TX,76182-7699,,planning,
"Cycler's Brewing","17105 Osborn Rd",Montgomery,TX,77356,,micro,http://www.cyclersbrewing.com
"Cypress Street Station / Abilene Brewing Co","158 Cypress St",Abilene,TX,79601-5817,"(325) 676-3463",brewpub,
"Dead Beach Brewery","406 Durango St","El Paso",TX,79901-1063,"(915) 584-4706",micro,
"Deadbeach Brewery","408 Durango St","El Paso",TX,79901-1063,"(855) 915-2337",micro,http://deadbeach.com/
"Deep Ellum Brewing Co","2821 Saint Louis St",Dallas,TX,75226-1904,"(214) 888-3322",micro,http://www.deepellumbrewing.com
"Denton County Brewing Company",,,,,,planning,
"Division Brewing","506 E. Main",Arlington,TX,76010-1228,"(214) 697-8350",micro,http://www.divisionbrewing.com
"Dodging Duck Brewhaus","402 River Rd",Boerne,TX,78006-2312,"(830) 248-3825",brewpub,http://www.dodgingduck.com
"Double Horn Brewing Co","208 Avenue H","Marble Falls",TX,78654-5750,"(512) 762-3228",brewpub,http://www.doublehornbrewing.com
"Draught House Pub and Brewery","4112 Medical Pkwy Ste 100",Austin,TX,78756-3715,"(512) 452-6258",brewpub,http://www.draughthouse.com
"Effervescere Brewing Company",,Houston,TX,77009,"(713) 392-4167",planning,http://effervescere.com
"El Paso Brewing Company",,"El Paso",TX,79901-1504,,planning,http://www.elpasobrewing.com
"Eola School Restaurant, Brewery and Lodge","PO Box 717 12119 Farm Road 381",Eola,TX,76937-0717,"(325) 469-3314",brewpub,http://www.eolaschool.com
"Eureka Heights",,,,,,planning,http://www.frackingbeercomapany.com
"Family Business Beer Company",,"Dripping Springs",TX,78620-2823,,planning,
"Fat C Brewing",,,,,,planning,
"Faust Hotel Restaurant and Brew Pub","240 S Seguin Ave","New Braunfels",TX,78130-5119,"(830) 625-7791",brewpub,http://www.fausthotel.com
"Fetching Lab Brewing Co.","1578 County Road 423",Alvin,TX,77511-6112,,micro,
"Flight School Brewing",,Arcola,TX,77583-2673,"(281) 431-4040",planning,http://www.flightschoolbrewing.com
"Flix Brewhouse","2000 S Interstate 35 Ste B1","Round Rock",TX,78681-6900,"(512) 244-2739",brewpub,http://www.flixbrewhouse.com
"Flying Man Brewing Company",,Austin,TX,78717,"(909) 631-6168",planning,http://www.flyingmanbeer.com
"Four Bullets Brewery","640 N. Interurban St.",Richardson,TX,75081-3317,,micro,http://www.fourbulletsbrewery.com
"Four Corners Brewing Co","423 Singleton Blvd",Dallas,TX,75212-4104,,micro,
"Four Phantoms Brewing Company",,Houston,TX,77008,"(281) 660-4818",planning,http://fourphantomsbrewing.com
"Franconia Brewing Co","495 McKinney Pkwy",McKinney,TX,75071-1825,"(972) 542-0705",micro,http://www.franconiabrewing.com
"Fredericksburg Brewing Co","245 E Main St",Fredericksburg,TX,78624-4114,"(830) 997-1646",brewpub,http://www.yourbrewery.com
"Free State of Galveston Craft Brewery",,Galveston,TX,77550,,planning,http://www.fsgalveston.com
"Freetail Brewing Co","2000 S Presa St","San Antonio",TX,78210-2835,"(210) 395-4974",micro,http://www.freetailbrewing.com
"Freetail Brewing Co - Brewpub","4035 N Loop 1604 W Ste 105","San Antonio",TX,78257-9547,"(210) 395-4974",brewpub,http://www.freetailbrewing.com
"Friends And Allies Brewing Company","1115 Kinney Ave #22",Austin,TX,78704,"(713) 828-1658",proprietor,http://www.friendsandallies.beer
"Frisky Brewing Company",,Odessa,TX,79768-2961,,planning,
"Galactic Coast Brewing","1675 FM 1266 Ste C",Dickinson,TX,77539-4213,,micro,http://www.galacticcoastbrewing.com
"Galveston Bay Beer Company, Inc.","12900 FM 3436 Rd",Dickinson,TX,77539-2565,"(281) 339-3210",micro,
"Galveston Island Brewing","8423 Stewart Rd",Galveston,TX,77554-9242,,micro,
"Gnome Hole",,"League City",TX,77573,"(281) 797-2266",planning,http://www.gnomehole.com
"Goliad Brewing Company","252 Metting Rd",Goliad,TX,77963,"(281) 782-7860",micro,http://www.goliadbrewing.com
"Good Libations Brewing Co",,Austin,TX,78766-9391,"(512) 484-8962",planning,http://www.goodlibationsbrewing.com
"Gordon Biersch Brewery Restaurant - Dallas","8060 Park Ln Ste 125",Dallas,TX,75231-6038,"(214) 369-2739",brewpub,http://www.craftworksrestaurants.com
"Gordon Biersch Brewery Restaurant - Plano","7401 Lone Star Dr Ste B120",Plano,TX,75024-5646,"(469) 467-0464",brewpub,http://www.craftworksrestaurants.com
"Granary 'Cue and Brew","602 Avenue A","San Antonio",TX,78215-1222,"(210) 228-0124",brewpub,http://www.thegranarysa.com
"Granger City Brewing Company",,Granger,TX,76530-5305,"(512) 717-1859",planning,http://www.grangercitybrewingcompany.com
"Grapevine Craft Brewery","906 Jean St",Grapevine,TX,76051,"(817) 823-7225",micro,http://www.grapevineontap.com
"Great Heights Brewing Company",,,,,,planning,http://www.greatheightsbrewing.com
"Guadalupe Brewery","168 Rachel Dr","Canyon Lake",TX,78133-3527,"(512) 878-9214",micro,http://www.guadalupebrew.com
"Guns & Oil Brewing",,Austin,TX,78731,,contract,http://www.gunsandoil.com
"Hi Sign Brewing, LLC",,Dallas,TX,75206,,planning,http://www.hisignbrewing.com
"Highwheel Beerworks","1902 S. Forest","San Antonio",TX,78204,,micro,
"HillCo Brewery",,Austin,TX,78739,,planning,
"Hopfusion Ale Works",,"Fort Worth",TX,76104,,planning,http://www.hopfusionaleworks.com
"Hops & Grain Brewing","PO Box 12593",Austin,TX,78711-2593,"(512) 914-2467",micro,http://www.hopsandgrain.com
"Horny Toad Brewing Co, LLC","313 Edward St",Rowena,TX,76875-3609,,micro,http://www.hornytoadbrewery.com
"Huff Brewing Company, LLC","9805 Koehn Rd",Bellville,TX,77418-7327,,micro,http://www.huffbrewing.com
"Humperdinks - Arlington","700 Six Flags Dr",Arlington,TX,76011-6327,"(817) 640-8553",brewpub,http://www.humperdinks.com
"Humperdinks - Dallas (Greenville)","6050 Greenville Ave",Dallas,TX,75206-1909,"(214) 368-1203",brewpub,http://www.humperdinks.com
"Humperdinks Restaurant & Brewery - Dallas (NW Hwy)","2208 W Northwest Hwy",Dallas,TX,75220-4305,"(214) 358-4103",brewpub,http://www.humperdinks.com
"Independence Brewing","3913 Todd Ln Ste 607",Austin,TX,78744-1061,"(512) 707-0099",micro,http://www.independencebrewing.com
"Industry Brewery",,Houston,TX,77024-7146,,planning,
"Infamous Brewing","4602 Weletka Dr",Austin,TX,78734-1829,"(512) 487-8786",micro,http://www.infamousbrewing.com
"Inland Brewing Company",,Florence,TX,76527,"(845) 743-4276",planning,
"Intrinsic Smokehouse & Brewery","509 West State St.",Garland,TX,75040-6326,"(972) 272-2400",brewpub,http://www.intrinsicbrewing.com
"Ivanhoe Aleworks","220 W. Main St.",Denison,TX,75020-3025,"(903) 464-0030",micro,
"J Harris Brewing Company",,Bryan,TX,77808,,planning,
"Jester King Brewery","13187 Fitzhugh Rd Bldg B",Austin,TX,78736-6508,"(512) 364-7278",micro,http://www.jesterkingbrewery.com
"Kamala Brewing At the Whip In","1950 S Interstate 35",Austin,TX,78704-3628,"(512) 442-5337",brewpub,http://www.whipin.com
"Karbach Brewing Co","2032 Karbach St",Houston,TX,77092-8406,"(713) 680-2739",regional,http://www.karbachbrewing.com
"Karst Brewing Co.",,Austin,TX,78731,,planning,
"Kinematic Brewing Company","635 Hwy 46 E Suite 207",Boerne,TX,78006,"(830) 336-2043",micro,http://www.kinematicbrewingco.com
"Lakewood Brewing Co","2302 Executive Dr",Garland,TX,75041-6121,"(972) 864-2337",micro,http://www.lakewoodbrewingcompany.com
"Last Stand Brewing Company","12345 Pauls Valley Rd",Austin,TX,78737-9615,"(512) 535-3676",micro,http://www.laststandbrewing.com
"Lazy Beach Brewing","7522 Bichon Dr 3100","Corpus Christi",TX,78414,"(361) 215-9107",micro,http://www.lazybeachbrewing.com
"Legal Draft Beer Company",,"Fort Worth",TX,76102,,planning,
"Live Oak Brewing Co","1615 Crozier Ln","del Valle",TX,78617-2129,"(512) 385-2299",micro,http://www.liveoakbrewing.com
"Lone Pint Brewery","507 Commerce St",Magnolia,TX,77355-8520,"(713) 304-5069",micro,http://www.lonepint.com
"Long Wooden Spoon Brewing","4098 Business Park Dr",Amarillo,TX,79110-4233,"(806) 553-0397",micro,http://www.lwsbrewing.com
"Longroad Brewery",,Arlington,TX,76012,"(682) 238-4770",planning,http://www.longroadbrewery.com
"Longroad Brewery",,Arlington,TX,76012,"(682) 238-4770",planning,http://www.longroadbrewery.com
"Longtab Brewing Company LLC",,"San Antonio",TX,78209-2932,,planning,
"Lorelei Brewing Co","520 NAS Dr.","Corpus Christi",TX,78418,"(361) 445-8684",micro,http://www.loreleibrewing.beer
"Mad Pecker Brewing","6025 Tezel Rd. #122","San Antonio",TX,78250-4180,"(210) 562-3059",micro,http://www.madpeckerbrewing.com
"Martin House Brewing Company","220 S Sylvania Ave Ste 209","Fort Worth",TX,76111-2232,"(817) 222-0177",micro,http://www.martinhousebrewing.com
"Meridian Hive Meadery",,Pflugerville,TX,78660-5802,,planning,
"Middleton Brewing Co","101 Oakwood Loop","San Marcos",TX,78666,"(760) 598-5420",brewpub,http://www.middletonbrewingtx.com
"MillerCoors Brewing Co - Fort Worth","7001 South Fwy","Fort Worth",TX,76134-4001,"(817) 551-3255",large,http://www.millerbrewing.com
"Moon Tower Sudworks","3004 Canal St",Houston,TX,77003-1627,"(832) 266-0105",brewpub,http://www.damngoodfoodcoldassbeer.com
"Motley Brew Works",,"Cedar Park",TX,78613,"(512) 876-4428",planning,
"Motley Brew Works",,"Cedar Park",TX,78613-4096,,planning,
"Muenster Brewing Company",,Muenster,TX,76252-0382,,planning,
"New Braunfels Brewing","180 W Mill St Ste 100","New Braunfels",TX,78130-5050,"(830) 626-2739",micro,http://www.nbbrewing.com
"New Main Brewing",,Arlington,TX,76013,"(817) 371-7730",planning,http://www.newmainbrewing.com
"New Republic Brewing","11405 N Dowling Rd Ste C","College Station",TX,77845-8500,"(281) 813-5036",micro,http://www.newrepublicbrewing.com
"Nine Band Brewing Co.","9 Prestige Circle",Allen,TX,75002,"(972) 663-5707",micro,http://www.ninebandbrewing.com
"No Label Brewing Co","5351-A 1st St",Katy,TX,77493-2506,"(281) 693-7545",micro,http://www.nolabelbrew.com
"Noble Rey Brewing Company","2636 Farrington St",Dallas,TX,75207-5908,,micro,http://www.noblereybrewing.com
"North By Northwest Restaurant and Brewery","10010 N Capital of Texas Hwy",Austin,TX,78759-5837,"(512) 467-6969",brewpub,http://www.nxnwbrew.com
"North By Northwest Restaurant and Brewery","5710 W Slaughter Ln Bld D",Austin,TX,78759-5837,"(512) 467-6969",brewpub,
"Oak Highlands Brewery","10484 Brockwood Road",Dallas,TX,75238-1640,"(214) 450-1659",micro,http://www.oakhighlandsbrewery.com
"Oasis Texas Brewing Company","6548 Comanche Trl Ste 301",Austin,TX,78732-1210,"(512) 284-9407",micro,http://www.otxbc.com
"Ode Brewing Co","3233 N Mesa","El Paso",TX,79902-2337,,micro,http://www.odebrewingco.com
"Oil Horse Brewing Company",,Longview,TX,75601-5101,,planning,
"Orf Brewing - planned",,,,,,planning,http://www.orfbrewing.com
"Padre Island Brewing Co","PO Box 3837","South Padre Island",TX,78597-3837,"(956) 761-9585",brewpub,http://www.pibrewingcompany.com
"Panther Island Brewing Company","501 N. Main Street","Fort Worth",TX,76164-9508,"(817) 882-8121",micro,http://www.pantherislandbrewing.com
"Pappy Slokum Brewing Co.","409 S Treadaway Blvd",Abilene,TX,79602,"(325) 201-4112",micro,http://www.pappyslokum.com
"Pecan Street Brewing Co","106 East Pecan Drive","Johnson City",TX,78636-1504,"(830) 868-2500",brewpub,http://www.pecanstreetbrewing.com
"Pedernales Brewing Co","97 Hitchin Post Trail",Fredericksburg,TX,78624-3641,"(830) 998-7486",micro,http://www.pedernalesbrewing.com
"Peticolas Brewing Co","2026 Farrington St",Dallas,TX,75207-6616,"(214) 234-7600",micro,http://www.peticolasbrewing.com
"Pinthouse Pizza","4729 Burnet Rd",Austin,TX,78756-2826,,brewpub,http://www.pinthousepizza.com
"Pinthouse Pizza","4236 South Lamar Blvd",Austin,TX,78704-7905,"(512) 568-5300",brewpub,http://www.pinthousepizza.com
"Platypus Brewing",,Houston,TX,77007-7351,"(832) 985-8007",planning,http://www.platypusbrewing.com
"Rabbit Hole Brewing","106 East 6th St",Justin,TX,76247,"(972) 983-4438",micro,http://www.rabbitholebrewing.com
"Rahr and Sons Brewing Co","701 Galveston Ave","Fort Worth",TX,76104-3355,"(817) 810-9266",regional,http://www.rahrbrewing.com
"Ranger Creek Brewery","4834 Whirlwind Dr Ste 102","San Antonio",TX,78217-3715,"(832) 969-3800",micro,http://www.drinkrangercreek.com
"Real Ale Brewing Co","231 San Saba Ct",Blanco,TX,78606-4810,"(830) 833-2534",regional,http://www.realalebrewing.com
"Rebel Toad Brewing Co","425 William St.","Corpus Christi",TX,78401-2538,"(512) 221-1267",micro,http://www.rebeltoadbrewing.com
"Red Horn Brewing Co.","13010 W Parmer Lane, Suite 800","Cedar Park",TX,78613,"(512) 986-7038",micro,http://www.redhornbrew.com
"Rentschler Brewing",,Georgetown,TX,78628,,planning,
"Resignation Brewery","98 San Jacinto Blvd, Ste 160",Austin,TX,78701-4082,"(425) 483-3232",contract,http://www.kccobrewery.com
"Revolver Brewing","5650 Matlock Rd",Granbury,TX,76049-5347,"(817) 736-8034",micro,http://www.revolverbrewing.com
"Rogness Brewing Co","2400 Patterson Industrial Dr",Pflugerville,TX,78660-8312,"(512) 670-2537",micro,http://www.rognessbrewing.com
"Running Walker Brewery & Braman Winery",,Richmond,TX,77406-9112,,planning,
"Saga Brewing Company",,Houston,TX,77056,,planning,
"Saint Arnold Brewing Co","2000 Lyons Ave",Houston,TX,77020-2028,"(713) 686-9494",regional,http://www.saintarnold.com
"San Gabriel Brewing Co",,"Liberty Hill",TX,78642,,planning,
"San Gabriel River Brewery Inc",,"Liberty Hill",TX,78642,"(512) 627-9384",planning,http://www.sangabrielriverbrewery.com
"Save the World Brewing Co","1510 Resource Pkwy","Marble Falls",TX,78654-3983,"(830) 637-7654",micro,http://www.savetheworldbrewing.com
"Seguin Brewing Company","320 Beicker Rd",Seguin,TX,78155-0943,,micro,http://www.seguinbrewing.com
"Seven Summits Brewing Co",,Dallas,TX,75206-7211,"(469) 737-0723",planning,
"Shannon Brewing Company, LLC","818 N Main St",Keller,TX,76248-3801,"(817) 400-1985",micro,http://www.shannonbrewing.com
"Sidecar Brewing",,"Wichita Falls",TX,76310,,planning,
"Sigma Brewing Company",,,,,,planning,http://www.sigmabrewingcompany.com
"Smoke & Hops","3799 E US 290","Dripping Springs",TX,78620,"(512) 655-3069",brewpub,http://www.smokehops.com
"Social Brewing Company",,"Fort Worth",TX,76244-5909,,planning,
"Solid Rock Brewing","2214 Bee Creek Rd",Spicewood,TX,78669-5136,"(512) 571-1740",micro,http://www.solidrockbrewing.com
"South Austin Brewery","415 E Saint Elmo Rd Ste 1D",Austin,TX,78745-1286,"(512) 354-2337",micro,http://www.southaustinbrewery.com
"Southerleigh Brewing","136 E Grayson St., Ste 120","San Antonio",TX,78212-4114,"(210) 542-5376",brewpub,http://www.southerleigh.com
"Southern Heights Brewing Co LLC",,Austin,TX,78765,,planning,
"Southern Star Brewing","1207 N FM 3083 Rd E",Conroe,TX,77303-1875,"(936) 441-2739",micro,http://www.southernstarbrewing.com
"Spindletap Brewery","10622 Hirsch Rd.",Houston,TX,77016-2622,"(281) 330-0097",micro,http://www.spindletap.com
"Spoetzl Brewery","PO Box 368",Shiner,TX,77984-0368,"(361) 594-3383",regional,http://www.shiner.com
SportsBreweries,"PO Box 1209 Attn: Tommy Staley",Frisco,TX,75034-0021,"(972) 603-8647",contract,
"St. Elmo Brewing Company",,Austin,TX,78704-3823,,planning,
"Stache Rabbit Brewing Company",,,,,,planning,
"Steam Theory Brewing Co",,Allen,TX,75013-1129,,planning,
"Stoic Brewing","667 robinett rd",waxahachie,TX,75165,"(512) 888-4843",contract,http://stoicbrewing.com
"Texas Ale Project","1001 N Riverfront Blvd",Dallas,TX,75207-4201,,micro,http://www.texasaleproject.com
"Texas Beer Refinery","1825 Dickinson Ave Unit B",Dickinson,TX,77539-7799,,micro,http://www.texasbeerrefinery.com
"Texas Big Beer Brewery","400 County Road 3136",Buna,TX,77612-3436,"(409) 926-2638",micro,http://www.texasbigbeer.com
"Texas Leaguer Brewing Company",,"Missouri City",TX,77489-1022,,planning,http://www.txleaguer.com
"Texas Revolution Brewing Co.",,"San Antonio",TX,78260,,planning,
"Texian Brewing Co","1125 FM 359 Rd",Richmond,TX,77406-2013,"(281) 762-2604",micro,http://www.texianbrewing.com
"The Austin Beer Garden Brewing Co","1305 W Oltorf St Ste B",Austin,TX,78704-5362,"(512) 298-2242",brewpub,http://www.theabgb.com
"The Barber Shop","100 Commons Rd Ste 7 # 213","Dripping Springs",TX,78620-3966,"(512) 829-4636",brewpub,http://www.barbershopbar.com
"The Brewtorium","11715 Spotted Horse Dr",Austin,TX,78759-4258,"(512) 838-1637",contract,http://www.thebrewtorium.com
"The Collective Brewing Project","112 St. Louis Ave","Fort Worth",TX,76104-1228,,micro,
"The Malai Kitchen","3699 McKinney Ave Ste 319",Dallas,TX,75204-4563,"(214) 599-7857",brewpub,http://www.malaikitchen.com
"The Manhattan Project Beer Company",,Dallas,TX,75209-3108,,planning,http://www.manhattanproject.beer
"The Phoenix On Westheimer","1915 Westheimer Rd",Houston,TX,77098-1521,"(713) 526-3100",brewpub,http://www.phoenixow.com
"The Root Cellar","215 N Lbj Dr","San Marcos",TX,78666-5621,"(512) 392-5158",brewpub,http://www.rootcellarcafe.com
"Thirsty Planet Brewing Co","11160 Circle Dr",Austin,TX,78736-7766,"(512) 826-0948",micro,http://www.thirstyplanet.net
"Town In City Brewing Co, LLC","1125 West Cavalcade",Houston,TX,77009-2907,,micro,http://www.townincitybrewing.com
"Trademark Development, LLC.",,Dallas,TX,75225-6202,,planning,
"Tree Farm Brewing Company, LLC","3020 Papa Bear Dr.","College Station",TX,77845-9370,"(979) 820-0535",contract,http://www.treefarmbrewing.com
"Triple J Chophouse and Brew Co","1807 Buddy Holly Ave",Lubbock,TX,79401-5136,"(806) 771-6555",brewpub,http://www.triplejchophouseandbrewco.com
"True Vine Brewing Company",,Tyler,TX,75702-7143,,micro,http://www.truevinebrewing.com
"Tupps Brewery","721 Anderson St",McKinney,TX,75069-7149,,micro,http://www.tuppsbrewery.com
"Twin Peaks Brewery","1500 Market Pl Blvd",Irving,TX,75063,"(469) 420-9216",brewpub,http://www.twinpeaksrestaurant.com
"TWIN SISTERS",,Angleton,TX,77515,"(713) 203-7676",planning,
"Twisted X Brewing Co","23455 West RR 150","Dripping Springs",TX,78620-9999,"(512) 850-6722",micro,http://www.texmexbeer.com
"Two Rows Restaurant and Brewery - Allen","711 Central Expy S",Allen,TX,75013-8012,"(972) 396-8670",contract,http://www.tworows.com/
"Uncle Billy's Brew & Que","1530 Barton Springs Rd",Austin,TX,78704-1013,"(512) 476-0100",brewpub,
"Uncle Buck's","2501 Bass Pro Dr # 1",Grapevine,TX,76051-2009,"(214) 513-2337",brewpub,http://www.unclebucks.com/
"Under The Radar Brewery",,Houston,TX,7004,"(832) 512-0237",planning,http://www.undertheradarbrewery.com
"Vallensons Brewing Co.",,Pearland,TX,77581,,planning,http://www.vallensons.com
"White Rock Brewery",,Dallas,TX,75214,,planning,
"Whitestone Brewery","601 E. Whitestone Blvd Ste 500 Bldg 5","Cedar Park",TX,78613-9046,"(512) 765-4828",micro,http://www.whitestonebrewery.com
"Whole Foods Market Brewing Company","1700 Post Oak Blvd suite 1G101",Houston,TX,77056-3802,"(512) 596-8014",brewpub,
"Wild Bunch Brewing Co, LLC","PO Box 601","La Grange",TX,78945-0601,"(979) 968-6699",brewpub,
"Wimberley Brewing Co & Brewsters Pizza","9595 Ranch Road 12 Ste 10",Wimberley,TX,78676-5248,"(512) 847-3299",brewpub,http://www.wimberlybrewingcompany.com
"Woodall Brewing Company",,Leander,TX,78641,"(512) 963-6701",planning,
"Woodcreek Brewing Company","1400 E Interstate 30, Suite A",Rockwall,TX,75097,"(972) 589-0048",micro,http://www.woodcreekbrewing.com
"Yellow City Co-Op Brewpub",,Amarillo,TX,79102,"(806) 316-8101",planning,http://www.yellowcity.coop
"Zero One Ale House","20 W. Beauregard Ave.","San Angelo",TX,76903-5833,,brewpub,
"Zilker Brewing Co","1701 E 6th St",Austin,TX,78702,"(512) 765-4946",micro,http://www.zilkerbeer.com
