name,address1,address2,city,state,zip,phone,type,url
"515 Brewing Co","7700 University Ave",,Clive,IA,50325-1271,,micro,http://www.515brewing.com
"7 Hills Brewing Company",,,Dubuque,IA,52001-4932,,planning,
"Albia Brewing Co","11 Benton Ave E",,Albia,IA,52531-2032,"(641) 932-4085",brewpub,http://www.albiabrewingcompany.blogspot.com
"Alluvial Brewing Company","3715 W 190th St",,Ames,IA,50014-9316,515337118,micro,http://www.alluvialbrewing.com
"Another Road Brewing","1175 8th Ave",,Marion,IA,52302-3503,"(319) 212-8563",micro,http://www.anotherroadbrewing.com
"Backpocket Brewing Co","903 Quarry Rd",,Coralville,IA,52241-2208,"(319) 449-3700",micro,http://www.backpocketbrewing.com
"Barn Town Brewing Co.","9500 University Ave",,"West Des Moines",IA,50266-1745,"(515) 978-6767",brewpub,
"Big Grove Brewery","101 W Main St",,Solon,IA,52333-9500,"(319) 624-2337",brewpub,http://www.biggrovebrewery.com
"Big Grove Brewery & Tap Room","1225 S Gilbert St.",,"Iowa City ",IA,52333-9500,"(319) 624-2337",brewpub,
"Big Rack Brew Haus","2475 Hiatt Apple Trl",,Winterset,IA,50273-8113,,micro,http://www.bigrackbrewhaus.com
"Blue Mountain Lodge","814 Lincoln Pl SE",,"Orange City",IA,51041-1858,"(712) 737-3553",contract,
"Boone Valley Brewing Co","816 7th St",,Boone,IA,50036-2818,"(515) 432-1232",micro,http://www.boonevalleybrewing.com
"Brewery in Planning - Coralville",,,Coralville,IA,52241-1917,,planning,
"Brewery in Planning - Urbandale",,,Urbandale,IA,50322-2170,"(515) 556-1306",planning,
"Brewery In Planning- Iowa City, IA.",,,"Iowa City",IA,52240-5500,,planning,
"Brick Street Brewing Company","506 Walker St Ste B",,Woodbine,IA,51579-1229,"(712) 592-1894",micro,http://www.brickstreetbrewing.com
"Broad Street Brewing Company","113 Broad St",,Reinbeck,IA,50669-1013,"(319) 350-0749",micro,http://www.broadstreetbrewing.com
"Carroll Brewing Co.",,,Carroll,IA,51401,"(515) 709-0030",planning,http://www.carrollbrewing.com
"CIB Brewery (Chefs In Black)","121 Broadway St",,Carson,IA,51525-,"(515) 450-2981",micro,
"Confluence Brewing Co","1235 Thomas Beck Rd Ste A",,"Des Moines",IA,50315-1055,"(515) 285-9005",micro,http://www.confluencebrewing.com
"Contrary Brewing Co","411 W Mississippi Dr",,Muscatine,IA,52761-3150,"(563) 299-7894",micro,http://www.contrarybrewing.com
"Court Avenue Brewing Co","309 Court Ave Ste 100",,"Des Moines",IA,50309-2230,"(515) 282-2739",brewpub,http://www.courtavebrew.com
"Deb's Brewtopia","106 Cedar St",,Elkader,IA,52043,"(563) 245-3737",micro,http://www.debsbrewtopia.com
"Depot Deli and Lounge","101 N Railroad St",,Shenandoah,IA,51601-1158,"(712) 246-4444",brewpub,http://www.depotdeli.com
"Drink Me Brewing",,,Sibley,IA,51249,"(512) 468-3946",planning,http://www.drinkmebrewing.com
"Dubuque Star Brands / Otter Tail Brewery","132 Sheridan St",,Muscatine,IA,52761-5543,,contract,
"Exile Brewing","1514 Walnut St",,"Des Moines",IA,50309-3420,"(515) 883-2337",micro,http://www.exilebrewing.com
"Fat Hill Brewing","17 N Federal Ave",,"Mason City",IA,50401-3250,"(952) 412-6272",micro,http://fathillbrewing.com
"Fenders Brewing Company",,,"Polk City",IA,50226-2297,"(515) 402-7787",planning,http://fendersbrewing.com
"Firetrucker Brewery","716 SW 3rd St",,Ankeny,IA,50023-2615,"(515) 964-1284",micro,http://www.firetrucker.com
"Flix Brewhouse","3800 Merle Hay Rd",,"Des Moines",IA,50310-1305,"(512) 244-2739",brewpub,
"Fox Brewing","103 S 11th St",,"West Des Moines",IA,50265-4410,"(515) 635-0323",micro,http://www.foxbrewco.com
"Franklin Street Brewing Company","116 S Franklin St",,Manchester,IA,52057-2121,"(563) 927-2722",micro,http://www.franklinstreetbrewing.com
"Front Street Brewery - IA","208 E River Dr",,Davenport,IA,52801-1609,"(563) 322-1569",brewpub,http://www.frontstreetbrew.com
"Granite City Food & Brewery (#4)","12801 University Ave",,Clive,IA,50325-8219,"(515) 224-1300",brewpub,http://www.gcfb.net
"Granite City Food & Brewery (#5)","4755 1st Ave SE",,"Cedar Rapids",IA,52402-3211,"(319) 395-7500",brewpub,http://www.gcfb.net
"Granite City Food & Brewery (#6)","5270 Utica Ridge Rd",,Davenport,IA,52807-3872,"(563) 344-9700",brewpub,http://www.gcfb.net
"Granite City Food & Wort House","PO Box 278",,Ellsworth,IA,50075-0278,"(515) 836-4060",micro,http://www.gcfb.net
"Great River Brewery","332 E 2nd St",,Davenport,IA,52801-1702,"(319) 541-5160",micro,http://www.greatriverbrewery.com
"Green Tree Brewery","309 N. Cody Road",,"Le Claire",IA,52753,,micro,
"Iowa Brewing","708 3rd St SE",,"Cedar Rapids",IA,52401-2012,"(319) 366-2337",micro,http://www.iowabrewing.beer
"Iowa City Brewlab","505 E Washington St",,"Iowa City",IA,52240-1842,"(319) 499-1089",brewpub,http://www.icbrewlab.com
"Iowa River Brewing Company","107 N 1st St",,Marshalltown,IA,50158-5803,"(641) 751-2848",micro,http://www.iowariverbrewing.com
"Jackson Street Brewing","607 5th St",,"Sioux City",IA,51101-1301,"(712) 574-8403",micro,
"Jubeck New World Brewing","115 W 11th St",,Dubuque,IA,52001-4802,"(775) 375-5692",micro,http://www.jubeckbrewing.com
"Kalona Brewing Company","PO Box 818",,Kalona,IA,52247-0818,"(319) 656-3335",micro,http://www.kalonabrewing.com
"Keg Creek Brewing Company","111 Sharp St",,Glenwood,IA,51534-1755,"(712) 520-9029",micro,http://www.kegcreekbrewing.com
"Lake Time Brewery","801 Main Ave Ste C",,"Clear Lake",IA,50428-1919,"(641) 357-2040",micro,http://www.laketimebrewery.com
"Lion Bridge Brewing Company","59 16th Ave SW",,"Cedar Rapids",IA,52404-5948,"(319) 200-4460",brewpub,http://www.lionbridgebrewing.com
"Lost Duck Brewing Co.","723 Avenue H # 725",,"Fort Madison",IA,52627-2935,"(319) 372-8255",brewpub,http://www.duckbrewing.com
"Madhouse Brewing Co","501 Scott Ave",,"Des Moines",IA,50309-5047,"(916) 501-7014",micro,http://www.madhousebeer.com
"Mason City Brewing","28 E State St",,"Mason City",IA,50401-3318,"(641) 423-1080",micro,http://www.masoncitybrewing.com
"Middle River Brewing Company",,,Winterset,IA,50273,"(641) 202-9984",planning,http://www.facebook.com/middleriverbrewingco/
"Millstream Brewing Co","PO Box 284/835 48th Ave",,Amana,IA,52203-0284,"(319) 622-3672",micro,http://www.millstreambrewing.com
"Mistress Brewing Company","1460 NE 69th Pl Ste 66",,Ankeny,IA,50021-8934,"(515) 771-2133",micro,http://www.mistressbrewing.com
"New American Brewing Company","1631 SW Main St Ste 105",,Ankeny,IA,50023-7150,"(515) 250-5648",micro,http://www.newamericanbeer.com
"NoCoast Beer Co","1407 17th Ave E Ste B",,Oskaloosa,IA,52577-3563,,micro,http://www.nocoastbeer.co
"Okoboji Brewing Co","3705 Highway 71",,"Spirit Lake",IA,51360-7196,"(712) 330-3363",micro,http://www.brewokoboji.com
"Olde Main Brewing Co & Restaurant","PO Box 1928",,Ames,IA,50010-1928,"(515) 232-0553",brewpub,http://www.oldemainbrewing.com/
"Parkside Brewing Company","PO Box 27",,Burlington,IA,52601-0027,"(319) 209-2739",brewpub,http://www.parksidebrewing.com
"Peace Tree Brewing Company","107 W Main St",,Knoxville,IA,50138-2528,"(641) 842-2739",micro,http://www.peacetreebrewing.com
"Pulpit Rock Brewing Co.","209 College Dr",,Decorah,IA,52101-1304,"(952) 797-6577",micro,http://www.pulpitrockbrewing.com
"Quarter Barrel Arcade","616 2nd Ave SE",,"Cedar Rapids",IA,52401-1306,"(319) 621-1836",brewpub,http://www.thequarterbarrel.com
"Reclaimed Rails Brewing Company","101 Main St. SE",,Bondurant,IA,50035-7722,"(515) 777-1443",micro,http://www.reclaimedrails.com
"ReUnion Brewery","516 2nd St",,Coralville,IA,52241-2614,"(319) 337-3000",brewpub,http://www.reunionbrewery.com
"River Ridge Brewing","118 N Riverview St",,Bellevue,IA,52031-1248,"(563) 231-0299",micro,http://www.riverridgebrewing.com
"Rock Bottom Brewery - Des Moines","4508 University Ave",,"West Des Moines",IA,50266-1025,"(515) 267-8900",brewpub,http://www.rockbottom.com
"Rustic Brew","117 1st St NW",,Hampton,IA,50441-1701,"(641) 456-2141",brewpub,http://www.rusticbrew.com
"Shiny Top Brewing","520 Central Ave",,"Fort Dodge",IA,50501-3810,,micro,http://www.shinytopbrewing.com
"Single Speed Brewing Co","325 Commercial St",,Waterloo,IA,50701-1315,,brewpub,
"Single Speed Brewing Co Tap Room","325 Commercial St",,Waterloo,IA,50701,"(319) 883-3604",brewpub,
"Third Base Brewery","500 Blairs Ferry Rd NE Ste 2",,"Cedar Rapids",IA,52402-1466,"(319) 378-9090",brewpub,http://www.thirdbasebrew.com
"Toppling Goliath Brewing Co","PO Box 477",,Decorah,IA,52101-0477,"(563) 382-6198",micro,http://www.tgbrews.com
"Torrent Brewing Co","504 Burnett Ave",,Ames,IA,50010-6178,,micro,http://www.torrentbrewingco.com
"TractorLift Brewery","708 Sumner Ave Ste 2",,Humboldt,IA,50548-1763,"(515) 890-9484",micro,
"Turner Alley Brewing Company","2715 12th St SW",,"Cedar Rapids",IA,52404-3435,"(319) 743-8870",micro,http://www.turneralleybrewing.com
"Twisted Vine Brewery","3320 Westown Pkwy",,"West Des Moines",IA,50266-1111,"(515) 720-2940",micro,http://www.twistedvinebrewery.com
"Van Houzen Brewing","435 Koser Ave",,"Iowa City",IA,52246-3040,"(319) 594-9684",micro,http://www.vhbrewing.com
"V's Restaurant and Brewpub","3461 Main St",,Keokuk,IA,52632-2227,"(319) 313-8384",brewpub,
"West O Beer","503 Terrace Park Blvd",,Milford,IA,51351-7300,"(712) 332-8090",micro,http://www.westobeer.com
"Worth Brewing Co","826 Central Ave",,Northwood,IA,50459-1520,"(641) 324-9899",brewpub,http://www.worthbrewing.com
