name,address1,address2,city,state,zip,phone,type,url
"???? Prodigy Brewing Company","1259 Linda Vista Dr",,"San Marcos",CA,92078-3827,,contract,http://www.prodigybrewingcompany.com
"10 Barrel Brewing Co","1501 E St",,"San Diego",CA,92101-6618,"(619) 578-2311",large,http://10barrel.com
"101 North Brewing Company","1304 Scott St Ste D",,Petaluma,CA,94954-7100,"(707) 753-4934",micro,http://www.101northbeer.com
"13 Point Brewing",,,"Lemon Grove",CA,91945,"(619) 724-2445",planning,http://www.13pointbrewing.com
"14 Cannons Brewing Company","31125 Via Colinas Ste 907",,"Westlake Village",CA,91362-3974,"(818) 699-6165",micro,http://14cannons.com
"1850 Brewing Company",,,Mariposa,CA,95338,,micro,http://www.1850restaurant.com
"2 Tread Brewing Co","1018 Santa Rosa Plz",,"Santa Rosa",CA,95401-6399,"(707) 327-2822",brewpub,http://www.2treadbrewing.com
"21st Amendment Brewery","2010 Williams St Unit A",,"San Leandro",CA,94577-2334,"(510) 595-2111",regional,http://www.21st-amendment.com
"21st Amendment Brewery Cafe","563 2nd St",,"San Francisco",CA,94107-1411,"(415) 369-0900",brewpub,http://www.21st-amendment.com
"2Kids Brewing Company","8680 Miralani Dr Ste 123",,"San Diego",CA,92126-6391,"(858) 480-5437",micro,http://www.2kidsbrewing.com
"3 Disciples Brewing",,,Sebastopol,CA,95472-5937,"(707) 228-7309",micro,http://www.3disciplesbrewing.com/home
"3 Iron Brewing Company","898 Via Lata Ste A",,Colton,CA,92324-3920,"(909) 533-4892",micro,http://www.3ironbrewingco.com
"32 North Brewing Co","8655 Production Ave Ste A",,"San Diego",CA,92121-2258,"(619) 363-2622",micro,
"411 Broadway Ales",,,Fresno,CA,93721-2801,"(541) 270-6076",planning,
"47 Hills Brewing Co","137 S Linden Ave",,"South San Francisco",CA,94080-6410,"(650) 867-8476",brewpub,http://47hillsbrewingcompany.com
"5150 Brewing At The Brass Tap Rocklin","5150 Commons Dr Ste 101",,Rocklin,CA,95677-3925,"(916) 246-2729",micro,http://www.brasstaprocklin.com
"559 Local Brewing","608 4th St",,Clovis,CA,93612-1183,"(559) 473-1875",micro,http://www.fresnobrewingcompany.com
"6th and La Brea","600 South La Brea Ave",,"Los Angeles",CA,90036,,brewpub,http://www.6thlabrea.com
"7 Sisters Brewing Co","181 Tank Farm Rd Ste 110",,"San Luis Obispo",CA,93401-7082,"(805) 868-7133",brewpub,http://www.7sistersbrewing.com
"8 Bit Brewing Company","26755 Jefferson Ave Ste F",,Murrieta,CA,92562-6941,"(951) 677-2322",brewpub,http://www.8bitbrewerycompany.com
"8one8 Brewing Company","8951 de Soto Ave",,"Canoga Park",CA,91304-5901,"(818) 835-2286",micro,http://www.818brewing.com
"927 Beer Company","821 Cornwall St",,Cambria,CA,93428-2434,"(805) 203-5265",micro,http://www.cambriabeerco.com
Abigaile,"1301 Manhattan Ave",,"Hermosa Beach",CA,90254-3666,"(310) 798-8227",brewpub,http://abigailrestaurant.com
"Abnormal Beer Company","16990 Via Tazon Ste 123",,"San Diego",CA,92127-1649,"(858) 618-2463",micro,http://abnormalbeer.co
"Absolution Brewing Co","2878 Columbia St",,Torrance,CA,90503-3808,"(310) 490-4860",micro,http://www.absolutionbrewingcompany.com
"Absolution By the Sea","7536 Fay Ave",,"La Jolla",CA,92037-4839,"(619) 202-4152",brewpub,
"Acoustic Ales Brewing Experiment",,,"San Diego",CA,92110-2006,"(619) 299-2537",planning,http://www.acousticales.com
"Adobe Creek Brewing Company","67 Galli Dr Ste E",,Novato,CA,94949-5718,"(415) 506-4565",micro,http://www.adobecreekbrewing.com
"Aftershock Brewing Co","28822 Old Town Front St Ste 107",,Temecula,CA,92590-2893,"(951) 972-2256",micro,http://www.aftershockbrewingco.com
"Alameda Island Brewing Company","1716 Park St",,Alameda,CA,94501-1416,"(510) 217-8885",micro,http://www.alamedaislandbrewingcompany.com
"Alaro Craft Brewery","2004 Capitol Ave",,Sacramento,CA,95811,"(916) 436-7711",brewpub,http://www.alarobrewing.com
"Ale House Brewing Co",,,"San Jose",CA,95118-1605,"(408) 390-7574",micro,
"Ale Industries","3096 E 10th St",,Oakland,CA,94601-2960,"(925) 470-5280",micro,http://www.aleindustries.com
"AleSmith Brewing Co","9990 Alesmith Ct",,"San Diego",CA,92126-4200,"(858) 549-9888",regional,http://www.alesmith.com
"Alibi Ale Works - Truckee","10069 Bridge St",,Truckee,CA,96161-6392,"(530) 536-5029",brewpub,
"Align Brewing Co","8680 Miralani Dr",,"San Diego",CA,92126-6300,,micro,http://www.facebook.com/alignbrewing
"All-American Ale Works","5120 E La Palma Ave Ste 103",,Anaheim,CA,92807-2082,"(951) 741-2771",micro,http://www.all-americanaleworks.com
"Almanac Beer Company","651B W Tower Ave",,Alameda,CA,94501-5047,"(415) 932-6531",micro,http://almanacbeer.com
"Alosta Brewing Co","692 Arrow Grand Cir",,Covina,CA,91722-2122,"(909) 455-8707",micro,http://www.alostabrewing.com
"Alpenglow Beer Co",,,Lafayette,CA,94549-4621,,contract,http://www.buckwildbrew.com
"Alpha Acid Brewing Co","121 Industrial Way Ste 12",,Belmont,CA,94002-8208,"(650) 394-4728",micro,
"Alpine Beer Company","6550 Mira Mesa Blvd",,"San Diego",CA,92121-4100,"(619) 445-2337",brewpub,http://www.alpinebrewing.com
"Alta Brewing Company","1983 Julian Avenue",,"San Diego",CA,92113-1125,"(619) 795-7300",micro,http://www.altabrewing.com
"Altamont Beer Works","2402 Research Dr",,Livermore,CA,94550-3850,"(925) 443-2337",micro,http://www.altamontbeerworks.com
"Alvarado Street Brewery","1315 Dayton St Ste E",,Salinas,CA,93901-4400,,micro,
"Alvarado Street Brewery & Grill","426 Alvarado St",,Monterey,CA,93940-2711,"(831) 655-2337",brewpub,
"Amador Brewing Company","9659 Main St",,Plymouth,CA,95669-9570,"(209) 507-1900",micro,http://www.amadorbrewing.com
"Ambitious Ales",,,"Long Beach",CA,90807-2907,"(714) 296-2550",planning,http://www.ambitiousales.com
"Amplified Ale Works","4150 Mission Blvd Ste 208",,"San Diego",CA,92109-5054,"(619) 587-1400",brewpub,http://www.amplifiedales.com
"Amplified Ale Works Miramar Studio","9030 Kenamar Dr Ste 309",,"San Diego",CA,92121-2432,"(650) 380-4220",brewpub,
"Anacapa Brewing Co","472 E Main St",,Ventura,CA,93001-2627,"(805) 643-2337",brewpub,http://www.anacapabrewing.com
"Anaheim Brewery","336 S Anaheim Blvd",,Anaheim,CA,92805-3830,"(714) 780-1888",micro,http://www.anaheimbrew.com
"Anchor Brewing Co","1705 Mariposa St",,"San Francisco",CA,94107-2334,"(415) 863-8350",large,http://www.anchorbrewing.com
"Anderson Valley Brewing Co","17700 CA-253",,Boonville,CA,95415,"(707) 895-2337",regional,http://www.avbc.com
"Angel City Brewery","216 S Alameda St",,"Los Angeles",CA,90012-4201,"(213) 622-1261",micro,http://www.angelcitybrewery.com
"Angry Horse Brewing","603 W Whittier Blvd",,Montebello,CA,90640-5235,"(323) 530-0015",micro,http://angryhorsebrewing.com
"Anheuser-Busch Inc â€“ Fairfield","3101 Busch Dr",,Fairfield,CA,94534-9726,"(707) 429-2000",large,
"Anheuser-Busch Inc - Los Angeles","15800 Roscoe Blvd",,"Van Nuys",CA,91406-1350,"(818) 989-5300",large,
"Arcana Brewing Company","5621 Palmer Way Ste C",,Carlsbad,CA,92010-7254,,micro,http://www.arcanabrewing.com
"Archaic Craft Brewery At Centro","140 E Main St",,Tustin,CA,92780-4408,"(714) 258-8817",brewpub,
"Armistice Brewing Company","845 Marina Bay Pkwy Suite 1",,Richmond,CA,94804-6420,"(510) 230-4966",micro,http://www.armisticebrewing.com
"Armstrong Brewing Co","415 Grand Ave Ste 103",,"South San Francisco",CA,94080-3614,"(650) 989-8447",micro,http://www.armstrongbrewing.com
"Arrow Lodge Brewing","720 E Arrow Hwy Ste C",,Covina,CA,91722-2103,"(626) 483-2667",micro,
"Artifex Brewing Company","919 Calle Amanecer Ste A",,"San Clemente",CA,92673-6298,"(949) 429-7805",micro,http://www.artifexbrewing.com
"Arts District Brewing Company","828 Traction Ave",,"Los Angeles",CA,90013-1816,,brewpub,
"Asylum Brewing","2970 E. La Palma Ave. Suite D",,Anaheim,CA,92806,"(949) 449-5191",micro,http://www.asylumbrewing.beer
"At Ease Brewing",,,Sacramento,CA,95811-3003,"(916) 736-2267",planning,http://www.ateasebrewing.com
"Auburn Alehouse","289 Washington St",,Auburn,CA,95603-5036,"(530) 885-2537",brewpub,http://www.auburnalehouse.com
"Automatic Brewing Co. / Blind Lady Alehouse","3416 Adams Ave",,"San Diego",CA,92116-2428,"(619) 200-7522",brewpub,http://www.blindlady.blogspot.com
"Aztec Brewing Company","2330 La Mirada Dr Ste 300",,Vista,CA,92081-7871,"(760) 598-7720",micro,http://www.aztecbrewery.com
"Babe's Bar-B-Que and Brewhouse","71800 Highway 111 Ste A176",,"Rancho Mirage",CA,92270-4495,"(760) 346-8738",brewpub,
"Back Street Brewery & Tasting Room","1884 S Santa Cruz St",,Anaheim,CA,92805-6726,"(657) 236-4050",micro,http://www.backstreetbrew.com
"Bagby Beer Company","601 S Coast Hwy",,Oceanside,CA,92054-4120,"(760) 270-9075",brewpub,http://www.bagbybeer.com
"Ballast Point Brewing Co / Home Brew Mart","5401 Linda Vista Rd Ste 406",,"San Diego",CA,92110-2402,"(619) 851-7681",large,http://www.ballastpoint.com
"Ballast Point Brewing Company","9045 Carroll Way",,"San Diego",CA,92121-2405,"(858) 695-2739",large,http://www.ballastpoint.com
"Ballast Point Brewing Company","110 N Marina Dr",,"Long Beach",CA,90803-4601,"(858) 695-2739",large,http://www.ballastpoint.com
"Ballast Point Brewing Company","7606 Trade St",,"San Diego",CA,92121-2405,"(858) 695-2739",large,
"Ballast Point Brewing Company",,,Anaheim,CA,92802-2294,,planning,
"Ballast Point Brewing Company - Little Italy","2215 India St",,"San Diego",CA,92101-1725,"(619) 255-7213",large,http://www.ballastpoint.com
"Ballast Point San Francisco",,,"San Francisco",CA,94158,,planning,
"Bang the Drum Brewery","950 Orcutt Rd",,"San Luis Obispo",CA,93401-6740,"(858) 776-2973",micro,http://www.bangthedrumbrewery.com
"Barebottle Brewing Company","1525 Cortland Ave",,"San Francisco",CA,94110-5714,"(415) 926-8617",micro,http://www.barebottlebeer.com
"Barley Forge Brewing","2957 Randolph Ave Ste B",,"Costa Mesa",CA,92626-4375,"(714) 641-2084",micro,http://www.barleyforge.com
"Barn Brewery","2850 El Cajon Blvd Ste 3",,"San Diego",CA,92104-1389,"(619) 955-8228",micro,http://www.thebarnbrew.com
"Barrel Brothers Brewing Company","399 Business Park Ct Ste 506",,Windsor,CA,95492-6652,"(707) 696-9487",micro,http://www.barrelbrothersbrewing.com
"Barrel Brothers Brewing Company, LLC","399 Business Park Ct. #506",,Windsor,CA,95492,"(707) 696-9487",micro,http://barrelbrothersbrewing.com
"Barrel Harbor Brewing Co.","2575 Pioneer Ave Ste 104",,Vista,CA,92081-8450,"(760) 734-3949",micro,http://www.barrelharborbrewing.com
"Barrel Head Brewhouse","1785 Fulton St",,"San Francisco",CA,94117-1202,"(415) 416-6989",brewpub,http://www.barrelheadsf.com
"Barrelhouse Brewing","3055 Limestone Way",,"Paso Robles",CA,93446-5988,"(805) 296-1128",micro,http://www.barrelhousebrewing.com
"Bartlett Hall","242 Ofarrell St",,"San Francisco",CA,94102-2119,"(415) 433-4332",brewpub,http://www.bartletthall.com
"Battlemage Brewing Co","2870 Scott St Ste 102",,Vista,CA,92081-8556,"(760) 216-6425",micro,http://www.battlemagebrewing.com
"Bay Bridge Brewing Co","688 Marsat Ct Ste B",,"Chula Vista",CA,91911-4697,"(619) 934-7371",micro,http://www.baybridgebrewing.com
"Bay City Brewing Co.","3760 Hancock St",,"San Diego",CA,92110,"(619) 727-4926",micro,http://www.baycitybrewingco.com
"Beach Chalet Brewing Co","1000 Great Hwy",,"San Francisco",CA,94121-3268,"(415) 386-8439",brewpub,http://www.beachchalet.com
"Beach Grease Beer Company","1280 Activity Dr Ste B",,Vista,CA,92081,,micro,http://www.beachgreasebeerco.com
"Beachwood BBQ & Brewing","210 E 3rd St Ste A",,"Long Beach",CA,90802-3197,"(562) 436-4020",brewpub,http://www.beachwoodbbq.com
"Beachwood Blendery","247 Long Beach Blvd",,"Long Beach",CA,90802-3136,,micro,http://beachwoodbbq.com/blendery.html
"Beachwood Brewing","7631 Woodwind Dr Ste B",,"Huntington Beach",CA,92647-7117,"(510) 326-9575",micro,http://www.beachwoodbbq.com
"Bear Republic Brewing Co","345 Healdsburg Ave",,Healdsburg,CA,95448-4105,"(707) 433-2337",regional,http://www.bearrepublic.com
"Bear Republic Brewing Co - Production facility","110 Sandholm Ln Ste 10",,Cloverdale,CA,95425-4439,"(707) 894-2722",regional,http://www.bearrepublic.com
"Bear Republic Brewing Co Pub & Restaurant - Lakeside","5000 Roberts Lake Rd",,"Rohnert Park",CA,94928,"(707) 585-2722",brewpub,http://bearrepublic.com
"Bear Roots Brewing Company","1213 S Santa Fe Ave",,Vista,CA,92083-7230,"(760) 726-4204",micro,http://www.bearrootsbrewing.com
"Belching Beaver Brewery","1334 Rocky Point Dr",,Oceanside,CA,92056-5864,"(760) 732-1415",regional,
"Belching Beaver Brewery Tavern & Grill","302 E Broadway",,Vista,CA,92084-6020,"(760) 599-5832",brewpub,
"Belching Beaver Brewery Vista","1334 ROCKY POINT DR",,Oceanside,CA,92056,"(760) 599-5832",micro,http://www.belchingbeaver.com
"Belmont Brewing Co","25 39th Pl",,"Long Beach",CA,90803-2806,"(562) 433-3891",brewpub,http://www.belmontbrewing.com
"Benchmark Brewing Co","6190 Fairmount Ave Ste G",,"San Diego",CA,92120-3428,"(619) 795-2911",micro,http://www.benchmarkbrewing.com
"Benoit-Casper Brewing","1201 Pennsylvania Ave Ste E",,Richmond,CA,94801-2300,"(408) 695-3449",micro,http://www.bcbrewing.com
"Berryessa Brewing Co","27260 State Highway 128",,Winters,CA,95694-9066,"(530) 304-2202",micro,http://www.berryessabrewingco.com
"Big Bear Lake Brewing Co","40827 Stone Rd",,"Big Bear Lake",CA,92315,"(909) 878-0283",brewpub,http://www.bblbc.com
"Big Bear Mountain Brewery","40260 Big Bear Blvd",,"Big Bear Lake",CA,92315,"(909) 866-2337",brewpub,http://www.mountainbrewery.com
"Big Sexy Brewing Company","5861 88th St Ste 800",,Sacramento,CA,95828-1131,"(916) 374-7332",micro,http://www.bigsexybrewing.com
"Big Stump Brewing Company","1716 L St",,Sacramento,CA,95811-4024,"(916) 668-7433",micro,http://www.bigstumpbrewco.com/
"Bike Dog Brewing Co","2534 Industrial Blvd Ste 110",,"West Sacramento",CA,95691-3471,,micro,
"Bird Street Brewing","242 Heinlen St",,Lemoore,CA,93245-2947,"(559) 309-4649",micro,http://www.birdstreetbrewing.com
"Bison Brewing Co","1627 S 7th St",,"San Jose",CA,95112-5932,"(510) 812-5996",contract,http://bisonbrew.com
"Bitter Brothers Brewing Co.","4170 Morena Blvd Ste F",,"San Diego",CA,92117-5252,"(619) 961-6690",micro,http://www.bitterbrothers.com
"Bittersweet Brewing Company, LLC","191 S Oak Park Blvd Ste 3",,"Grover Beach",CA,93433-2265,,micro,http://www.bittersweetbrewing.com
"BJs Restaurant & Brewery - Brea","600 Brea Mall Dr",,Brea,CA,92821-5764,"(714) 990-2095",brewpub,http://www.bjsrestaurants.com
"BJs Restaurant & Brewery - West Covina","2917 E Eastland Ctr Dr",,"West Covina",CA,91791-1603,"(626) 858-0054",brewpub,http://www.bjsrestaurants.com
"Black Cock Brewing Company","1444 N Batavia St",,Orange,CA,92867-3505,"(714) 744-8410",micro,
"Black Doubt Brewing Company","452 Old Mammoth Rd, #104",,"Mammoth Lakes",CA,93546,"(760) 525-0462",micro,http://www.blackdoubtbrewing.com
"Black Gold Brewing Co","508 Center St",,Taft,CA,93268-3109,"(661) 765-6550",brewpub,
"Black Hammer Brewing","544 Bryant St",,"San Francisco",CA,94107-1217,"(415) 500-2273",micro,http://www.blackhammerbrewing.com
"Black Magic Brewing",,,"Fountain Valley",CA,92708-6431,,planning,
"Black Market Brewing Co","41740 Enterprise Cir N Ste 109",,Temecula,CA,92590-5652,"(951) 643-0161",brewpub,http://blackmarketbrew.com
"Black Plague Brewing","2550 Jason Ct",,Oceanside,CA,92056-3592,"(760) 207-2949",micro,http://www.blackplaguebrewing.com
"Black Sands Brewery","701 Haight St",,"San Francisco",CA,94117-3316,"(415) 534-5194",micro,
"Blaker Brewing","1063 Montcalire Dr",,Ceres,CA,95307,"(209) 585-4040",micro,http://www.blakerbrewing.com
"Blue Frog Brewing Company","1740 Travis Blvd",,Fairfield,CA,94533-3431,"(707) 429-2337",micro,http://www.bluefrogbrewingcompany.com
"Blue Note Brewing Company","750 Dead Cat Aly",,Woodland,CA,95695-3435,"(530) 358-4677",micro,http://www.bluenotebrewing.com
"Blue Oak Brewing Co","821 Cherry Ln",,"San Carlos",CA,94070-3306,"(415) 273-9676",micro,http://blueoakbrewing.com
"Bluebird Brasserie","13730 Ventura Blvd",,"Sherman Oaks",CA,91423,,brewpub,http://www.bluebirdbrasserie.com
"BNS Brewing & Distilling Co.","10960 Wheatlands Ave Ste 101",,Santee,CA,92071-5617,"(619) 956-0952",micro,http://www.bnsbrewinganddistilling.com
"Bolt Brewery","8179 Center St",,"La Mesa",CA,91942-2907,"(619) 303-7837",brewpub,http://www.boltbrewery.com
"Bonaventure Brewing Co","404 S Figueroa St Ste 418A",,"Los Angeles",CA,90071-1797,"(213) 236-0802",brewpub,http://www.bonaventurebrewing.com
"Boomtown Brewery","700 Jackson St",,"Los Angeles",CA,90012-3443,"(213) 617-8497",micro,http://www.boomtownbrew.com
"Bootleggers Brewery","1100 E Truslow Ave",,Fullerton,CA,92831-4626,"(714) 871-2337",micro,http://www.bootleggersbrewery.com
"Bootleggers Brewery","130 S Highland Ave",,Fullerton,CA,92832-1803,"(714) 871-2337",micro,
"Booze Brothers Brewing Co.","2545 Progress St",,Vista,CA,92081-8483,"(760) 295-0217",brewpub,http://www.boozebrothersbrewery.com
"Border X",,"Bell, CA",,,,,planning,
"Border X Brewing","2181 Logan Ave",,"San Diego",CA,92113-2203,"(619) 501-0503",micro,http://www.borderxbrewing.com
"Border X Logan","2181 Logan Ave",,"San Diego",CA,92113-2203,"(858) 405-0528",brewpub,http://www.borderxbrewing.com
"Bottle Logic Brewing","1072 N Armando St",,Anaheim,CA,92806-2605,714-660-ALES,micro,http://www.bottlelogic.com
"Bravery Brewing","42705 8th St W",,Lancaster,CA,93534-7184,"(661) 951-4677",micro,http://www.braverybrewing.com
"Breakwater Brewing Co","101 N Coast Hwy Ste C140",,Oceanside,CA,92054-3015,"(760) 433-6064",brewpub,http://www.breakwaterbrewing.com
"Brew Rebellion","195 N Del Rosa Dr",,"San Bernardino",CA,92408,"(951) 907-4844",micro,http://www.brewrebellion.com
"Brew Rebellion","33 S San Gorgonio Ave",,Banning,CA,92220-6001,"(951) 907-4844",micro,
"Brewbakers Brewing Co","219 E Main St",,Visalia,CA,93291-6355,"(559) 627-2739",brewpub,http://www.brewbakersbrewingco.com
"Brewcaipa Brewing Co.","35058 Yucaipa Blvd",,Yucaipa,CA,92399-4337,"(909) 272-2337",micro,http://www.brewcaipa.com
"Brewery At Abigaile","1301 Manhattan Ave",,"Hermosa Beach",CA,90254-3666,"(310) 798-8227",brewpub,http://www.abigailerestaurant.com
"Brewery At Lake Tahoe","3542 Lake Tahoe Blvd",,"South Lake Tahoe",CA,96150-8900,"(530) 544-4369",brewpub,http://www.brewerylaketahoe.com
"Brewery At Simmzys Burbank","3000 W Olive Ave",,Burbank,CA,91505-4537,"(818) 962-2500",brewpub,http://www.simmzys.com
"Brewery Draconum","24407 Main St # 09",,Newhall,CA,91321-2801,"(661) 993-1846",micro,
"Brewery in Planning - Appleton",,,Hawthorne,CA,90250-6602,"(310) 208-9613",planning,
"Brewery in Planning - Calistoga",,,"San Francisco",CA,94117-1576,,planning,
"Brewery in Planning - Camarillo, CA",,,Camarillo,CA,93012-9406,"(805) 407-7641",planning,
"Brewery In Planning - Claremont",,,Claremont,CA,91711-1764,,planning,
"Brewery in Planning - Culver City",,,"Culver City",CA,90230-4108,,planning,
"Brewery in Planning - Culver City, CA",,,"Culver City",CA,90230,,planning,
"Brewery In Planning - Daly City",,,"Daly City",CA,94015,,planning,
"Brewery In Planning - Elk Grove",,,"Elk Grove",CA,95624-6066,,planning,
"Brewery In Planning - FPO",,,"Lemon Grove",CA,91945,,planning,
"Brewery in Planning - Los Angeles",,,"Los Angeles",CA,90049-1620,"(310) 779-6045",planning,
"Brewery in Planning - Los Gatos",,,"Los Gatos",CA,95033-8034,,planning,
"Brewery in Planning - Montclair",,,Montclair,CA,91763-1589,,planning,
"Brewery in Planning - Oakland",,,Oakland,CA,94611-5570,,planning,
"Brewery in Planning - Rancho Cucamonga",,,"Rancho Cucamonga",CA,91737-2461,"(909) 476-6934",planning,
"Brewery in Planning - Rancho Cucamonga",,,"Rancho Cucamonga",CA,91730-5410,"(909) 466-1555",planning,http://www.penwal.com
"Brewery in Planning - San Diego",,,"San Diego",CA,92121-4396,"(858) 888-2188",planning,http://www.gravityheights.com
"Brewery in Planning - Sherman Oaks",,,"Sherman Oaks",CA,91403,,planning,
"Brewery in Planning - Stevenson Ranch",,,"Stevenson Ranch",CA,91381-1827,"(818) 429-8572",planning,
"Brewery In Planning - Vacaville",,,Vacaville,CA,95688-2526,"(707) 337-9522",planning,
"Brewery in Planning - Ventura",,,Ventura,CA,93003-8058,"(805) 415-1211",planning,http://www.seawardbrewing.com
"Brewery In Planning- Mission Viejo",,"Mission Viejo, CA",,,,,planning,
"Brewery Rex",,"Santa Barbara, CA",,,,"(949) 322-8599",proprietor,http://www.breweryrex.com
"Brewery Twenty Five","106 3rd St",,Hollister,CA,95023,"(831) 636-7640",micro,http://www.brewerytwentyfive.com
"Brewheim Brewing Company",,,Anaheim,CA,92806,,planning,http://www.brewheim.com
"Brewhouse At Bear River","11 Bear Paws Way",,Loleta,CA,95551-9684,,micro,
"Brewjeria Company",,,"Hacienda Heights",CA,91745-1620,,planning,http://www.brewjeriacompany.com
BrewLAB,"4191 Carpinteria Ave Ste 8",,Carpinteria,CA,93013-3302,,micro,http://www.brewlabcraft.com/
Brewtality,"930 McLaughlin Ave",,"San Jose",CA,95122-2611,"(310) 402-3349",contract,http://www.brewtality.com
"Brewyard Beer Company LLC","906 Western Ave",,Glendale,CA,91201,"(818) 409-9448",micro,http://www.brewyardbeercompany.com
"Bridal Veil Brewing","5040 Ca-140 Ste C",,Mariposa,CA,95338,"(209) 966-7837",micro,http://www.facebook.com/bridal-veil-brewing-114925729113371
"British Bulldog Brewery","14540 Camaren Park Dr",,Chico,CA,95973-8835,"(530) 892-8759",micro,http://www.britishbulldogbrewery.com
"Brouwerij West","110 E 22nd St",,"San Pedro",CA,90731-7202,"(310) 833-9330",micro,http://www.brouwerijwest.com
"Bruehol Brewing LLC","4828 E 2nd St",,Benicia,CA,94510-1023,"(707) 327-6768",proprietor,http://www.bruehol.com
"Bruery Terreux","1174 N Grove St",,Anaheim,CA,92806-2129,"(714) 996-6258",micro,http://www.thebruery.com
"Bruery, The","717 Dunn Way",,Placentia,CA,92870-6806,"(714) 996-6258",micro,http://www.thebruery.com
"Buffalo Bills Brewery","1082 B St",,Hayward,CA,94541-4108,"(510) 886-9823",brewpub,http://www.buffalobillsbrewery.com
"Burgeon Beer Company","6350 Yarrow Dr Ste C",,Carlsbad,CA,92011-1544,"(760) 814-2548",micro,http://www.burgeonbeer.com
"Burnin Daylight Brewing Company",,,Lomita,CA,90717,"(310) 741-7621",planning,
"Burning Barrel Brewing Company","11210 Sun Center Dr Ste B",,"Rancho Cordova",CA,95670,"(916) 990-3520",micro,http://www.burningbarrelbrewco.com
"Burning Beard Brewing","785 Vernon Way",,"El Cajon",CA,92020-1938,"(619) 456-9185",micro,http://www.burningbeardbrewing.com
"Calicraft Brewing Co","2700 Mitchell Dr Bldg 2",,"Walnut Creek",CA,94598-1602,,micro,
"California Cider Co.",,,Sebastopol,CA,95472,"(707) 829-1101",planning,http://www.acecider.com
"California Wild Ales","4204 Sorrento Valley Blvd",,"San Diego",CA,92121-1446,,micro,
"Camino Brewing Co LLC","718 S 1st St",,"San Jose",CA,95113,,micro,http://www.caminobrewing.com
"Campbell Brewing Co","200 E Campbell Ave",,Campbell,CA,95008-2010,"(408) 866-2699",micro,
"Can Of Worms Brewing",,,Glendale,CA,91214-1713,"(818) 797-5520",planning,http://www.canofwormsbrewing.com
"Canyon Club Brewery",,,Moraga,CA,94556,"(808) 799-2005",planning,http://www.canyonclub.works
"Canyon Lakes Golf Course & Brewery","640 Bollinger Canyon Way",,"San Ramon",CA,94582-4971,,brewpub,http://www.canyonlakesgolfbrew.com
"Captain Fatty's","6483 Calle Real Ste D",,Goleta,CA,93117-1541,,micro,http://www.captainfattys.com
"Carmel Valley Brewing Company",,"Carmel Valley, CA",,,,"(831) 659-4341",micro,http://www.carmelvalleybrewing.com
"Casa Agria Specialty Ales","701 del Norte Blvd Ste 310",,Oxnard,CA,93030-7980,"(805) 485-1454",proprietor,
"Catalina Island Brew House","417 Crescent Ave",,Avalon,CA,90704,"(310) 590-6905",micro,http://www.catalinaislandbrewhouse.com
"Cayucos Brewing Co","136 Ocean Front Ln",,Cayucos,CA,93430-1649,"(805) 995-1993",contract,http://www.cayucosbeer.com
"Cebula Craft Brewing LLC dba GameCraft Brewing",,,"Laguna Hills",CA,92653-1589,"(949) 734-0910",planning,http://www.gamecraftbrewing.com
"Cedar Crest Brewing and Wine Bar","615 Main St",,"Red Bluff",CA,96080-3343,"(530) 727-9016",brewpub,http://www.facebook.com/enjoythestoreredbluff
"Cellador Ales",,"Los Angeles, CA",,,,,micro,http://www.celladorales.com
"Cellarmaker Brewing Company","1150 Howard St",,"San Francisco",CA,94103-3914,"(415) 863-3940",micro,http://www.cellarmakerbrewing.com
"Central Coast Brewing Co - Higuera St.","6 Higuera St.",,"San Luis Obispo",CA,93401,"(805) 783-2739",brewpub,
"Central Coast Brewing Co - Monterey St.","1422 Monterey St Ste B100",,"San Luis Obispo",CA,93401-2900,"(805) 783-2739",micro,http://www.centralcoastbrewing.com
"Cerveceria Del Pueblo",,,Pasadena,CA,91105-1822,,planning,
"Channel Brewing Co.","110 N San Joaquin St",,Stockton,CA,95209-4506,"(209) 490-4133",micro,http://www.channelbrewing.co
"Chapman Crafted Beer","123 N Cypress St",,Orange,CA,92866-1309,"(844) 855-2337",micro,http://www.chapmancrafted.beer
"Chau Tien Beer Company",,,Fairfield,CA,94533-0244,"(707) 280-8044",contract,http://www.paleale.com
"Chihuahua Brewing Co.",,"Orange County, CA",,,,"(949) 324-2919",micro,
"Chino Valley Brewery","1609 E. Grove Ave, Unit 109",,Ontario,CA,91761-5786,"(951) 291-7117",micro,http://www.chinovalleybrewery.com
"ChuckAlek Independent Brewers","2330 Main St Ste C",,Ramona,CA,92065-2539,,brewpub,http://www.chuckalek.com
"Chula Vista Brewery","294 Third Ave",,"Chula Vista",CA,91910-2701,"(619) 616-8806",micro,http://www.chulavistabrewery.com
"Circle 9 Brewing","7292 Opportunity Rd Ste C",,"San Diego",CA,92111-2223,"(858) 634-2537",micro,http://www.circle9brewing.com
"Cismontane Brewing Co","1409 E Warner Ave Ste C",,"Santa Ana",CA,92705-5432,"(949) 888-2739",micro,http://www.cismontanebrewing.com
"Citizen Brewers","5837 Mission Gorge Rd Ste A",,"San Diego",CA,92120-4060,"(760) 587-7989",micro,http://www.citizenbrewers.com
"Civic Partners, Inc",,,"Huntington Beach",CA,92647-9120,"(714) 230-8000",planning,
"Claimstake Brewing Company","11366 Monier Park Pl",,"Rancho Cordova",CA,95742-6856,"(916) 661-5249",micro,http://www.claimstakebrewing.com
"Clandestine Brewing","980 S 1st Ste B",,"San Jose",CA,95110-3127,,micro,http://www.clandestinebrewing.com
"Claremont Craft Ales","1420 N Claremont Blvd Ste 204C",,Claremont,CA,91711-3528,"(909) 625-5350",micro,http://www.claremontcraftales.com
"Clayton Brewing Co","661 W Arrow Hwy",,"San Dimas",CA,91773-2936,"(909) 394-4900",contract,http://www.claytonbrewingco.com
"Cleophus Quealy Beer Company","448 Hester St",,"San Leandro",CA,94577-1024,,micro,http://www.cleoph.us
"Climber Nine Brewing",,,"Cameron Park",CA,95682-8975,,planning,
"Cloverdale Ale Company's Ruth McGowan's Brewpub","131 E 1st St",,Cloverdale,CA,95425-3701,"(707) 894-9610",brewpub,http://www.ruthmcgowansbrewpub.com
"Coachella Valley Brewing Co","30-640 Gunther St",,"Thousand Palms",CA,92276-2333,"(760) 343-5973",micro,http://www.cvbco.com
"Coastal Star Brewing Company",,,"Santa Maria",CA,93455-1722,"(805) 328-4677",planning,http://www.coastalstarbrewing.com
"Cold Water Brewery and Grill","2544 Lake Tahoe Blvd",,"South Lake Tahoe",CA,96150-7707,"(530) 544-4677",brewpub,http://www.tahoecoldwaterbrewery.com
"Common Space Brewery","3411 W El Segundo Blvd",,Hawthorne,CA,90250-4816,"(310) 666-2825",micro,http://www.commonspace.la
"Concrete Jungle Brewing Project","4561 Market St",,Ventura,CA,93003,"(213) 291-1688",micro,http://www.concretejungle.la
"Congregation Ales","619 N Azusa Ave Ste C",,Azusa,CA,91702-2910,"(626) 334-2337",micro,http://www.congregationalehouse.com
"Constellation Brands","9045 Caroll Way",,"San Diego",CA,92121,,large,
"Converge Brewing Company",,,"Paso Robles",CA,93446-8360,"(307) 690-8538",planning,
"Cool Beerwerks","5020 Ellinghouse Dr",,Cool,CA,95614-9569,"(530) 885-5866",brewpub,http://www.cbwbeer.com
"Cooperage Brewing Co.","981 Airway Ct Ste G",,"Santa Rosa",CA,95403-2049,"(707) 293-9787",micro,http://www.cooperagebrewing.com
"Coronado Brewing Co","170 Orange Ave",,Coronado,CA,92118-1409,"(619) 437-4452",regional,http://www.coronadobrewingcompany.com
"Coronado Brewing Co - Production Facility","1205 Knoxville St",,"San Diego",CA,92110,"(619) 275-2215",regional,
"Coronado Brewing Company Imperial Beach","875 Seacoast Drive",,"Imperial Beach",CA,91932,"(619) 437-4452",brewpub,
"Corralitos Brewing Co","2536 Freedom Blvd",,Watsonville,CA,95076-1046,"(831) 728-2311",micro,http://www.corralitosbrewingco.com
"Cosmic Brewery","20316 Gramercy Pl",,Torrance,CA,90501-1511,"(424) 259-2337",micro,http://www.cosmicbrewery.com
"Council Brewing - Magic Factory","7705 Convoy Ct",,"San Diego",CA,92111-1113,"(858) 256-0038",micro,
"Council Brewing Company","9962 Prospect Ave",,Santee,CA,92071,,micro,
"Council Brewing Company","7705 Convoy Ct",,"San Diego",CA,92111-1105,"(858) 256-0038",micro,http://www.councilbrew.com
"Craft Artisan Ales",,,"Pacific Grove",CA,93950-7093,"(831) 717-7543",contract,
"Craft Brewing Company","530 Crane St",,"Lake Elsinore",CA,92530-2779,"(951) 674-2562",micro,http://www.craftbrewibgcompany.com
"Craftsman Brewing Co","1260 Lincoln Ave Ste 100",,Pasadena,CA,91103-2465,"(626) 296-2537",micro,http://www.craftsmanbrewing.com
"Crooked Goat Brewing","120 Morris St Ste 120",,Sebastopol,CA,95472-3867,"(707) 827-3893",micro,http://www.crookedgoatbrewing.com
"Crooked Lane Brewing Co","536 Grass Valley Hwy",,Auburn,CA,95603-3807,"(530) 613-7434",micro,http://www.crookedlanebrewing.com
"Culture Brewing Co","111 S Cedros Ave Ste 200",,"Solana Beach",CA,92075-2906,"(858) 345-1144",micro,http://www.culturebrewingco.com
"Culver Beer Company","2719 Loker Ave W Ste D",,Carlsbad,CA,92010-6679,"(760) 814-2355",micro,http://www.culverbeer.com
"Danville Brewing Company","200 Railroad Ave Ste A",,Danville,CA,94526-3855,,brewpub,
"Dark Sea Cinema And Brewery",,,Oakland,CA,94609-1804,,planning,http://microcinemabrewery.com
"Dead Oak Brewing Company","5925 Entrada Ave",,Atascadero,CA,93422-4223,"(602) 332-7027",micro,http://www.facebook.com/deadoakbrewing
"Deans Brothers Brewing Co.","1006 S Hathaway St",,"Santa Ana",CA,92705-4129,"(714) 542-2001",micro,http://www.deansbros.com
"Death Valley Brewing","102 Old Spanish Trail Hwy",,Tecopa,CA,92389,"(760) 852-4273",micro,http://www.deathvalleybrewing.com
"Deft Brewing","5328 Banks St",,"San Diego",CA,92110-4008,"(858) 999-5728",micro,http://www.deftbrewing.com
"Del Cielo Brewing Co.","701 Escobar St Ste A",,Martinez,CA,94553-1150,"(925) 330-1229",micro,http://www.delcielobrewing.com
"Delicious Science Brewing","11626 Sterling Ave Ste G",,Riverside,CA,92503-4991,"(951) 352-2739",micro,http://www.delicioussciencebreing.com
"Dempsey's Restaurant And Brewery","50 E Washington St",,Petaluma,CA,94952-3115,"(707) 765-9694",brewpub,http://www.dempseys.com
"Desert Barn Brewing Co.","11352 Hesperia Rd Ste B",,Hesperia,CA,92345-2165,,brewpub,
"Device Brewing Company","8166 14th Ave",,Sacramento,CA,95826-4722,"(916) 737-2739",micro,http://www.devicebrewing.com
"Devil's Canyon Brewing Company","935 Washington St",,"San Carlos",CA,94070-5316,"(650) 592-2739",micro,http://www.devilscanyon.com
"Devil's Potion Brewing Company LLC",,,Escondido,CA,92026-3187,"(760) 532-9091",planning,http://www.devilspotion.com
"Dfamle Enterprises LP (DBA Four Sons Brewing)","18421 Gothard St Ste 100",,"Huntington Beach",CA,92648-1235,,micro,
"Diamond Mountain Brewery","900 Skyline Dr",,Susanville,CA,96130-6071,"(530) 252-1369",brewpub,http://www.diamondmountainbrewery.com
"Dionysus Brewing Co.","6201 Schirra Ct Ste 13",,Bakersfield,CA,93313-2119,"(661) 833-6000",micro,http://www.dionysusbrewing.com
"Discretion Brewing","2703 41st Ave Ste A& # B",,Soquel,CA,95073-3104,"(831) 316-0662",micro,http://www.discretionbrewing.com
"Diving Dog Brewhouse","1802 Telegraph Ave",,Oakland,CA,94612-2110,"(510) 306-1914",micro,http://www.divingdogbrew.com
"Division 23 Brewing","7408 Trade St",,"San Diego",CA,92121-3415,"(858) 752-1924",micro,http://www.division23brewing.com
"Docent Brewing","33049 Calle Aviador Ste C",,"San Juan Capistrano",CA,92675-4785,,brewpub,http://www.docentbrewing.com
"Dos Desperados Brewery","1241 Linda Vista Dr",,"San Marcos",CA,92078-3809,"(760) 566-6209",micro,http://www.dosdesperadosbrew.com
"Double Peak Brewing Company",,"San Marcos, CA",,,,,planning,
"Downtown Joes Brewery and Restaurant","902 Main St",,Napa,CA,94559-3045,"(707) 258-2337",brewpub,http://www.downtownjoes.com
"Dr Hops Kombucha Beer",,,"San Leandro",CA,94577-1263,"(310) 916-8090",planning,http://www.drhopskombuchabeer.com
"Dr Jekyll's Craft Beer","825 Cambridge Ct",,Pasadena,CA,91107-1977,"(310) 273-8339",contract,http://www.drjekylls.com
"Dragon's Tale Brewery","8920 Vernon Ave Ste 122",,Montclair,CA,91763-1662,"(909) 529-2688",micro,http://www.dragonstalebrewery.com
"Drake's Brewing Co","1933 Davis St Ste 177",,"San Leandro",CA,94577-1256,"(510) 568-2739",regional,http://www.drinkdrakes.com
"Draughtsman Brewery",,,"La Mirada",CA,90638-3454,,planning,
"Draughtsmen Aleworks","53 Santa Felicia Dr",,Goleta,CA,93117-2804,"(805) 387-2577",micro,http://www.draughtsmenaleworks.com
"Dreaming Dog Brewery","2501 W Taron Ct",,"Elk Grove",CA,95757-8423,,micro,
"Dry River Brewing","671 S Anderson St",,"Los Angeles",CA,90023-1110,"(213) 375-5235",micro,http://www.dryriverbrewing.com
"DTSJ Brewing Company",,,"San Jose",CA,95116,"(408) 887-7910",planning,
"Duck Foot Brewing Co.","8920 Kenamar Dr Ste 210",,"San Diego",CA,92121-2454,"(858) 433-7916",micro,http://www.duckfootbeer.com
"Dudes' Brewing Co","PO BOX 276",,Somis,CA,93066,"(424) 271-2915",micro,http://www.thedudesbrew.com
"Dueling Dogs Brewing Company",,,Lincoln,CA,95648-8503,"(916) 434-8141",planning,http://www.duelingdogsbrewing.com
"Dunbar Brewing","2200 El Camino Real",,"Santa Margarita",CA,93453-8668,"(805) 704-9050",micro,
"Dunloe Brewing LLC","1606 Olive Dr",,Davis,CA,95616-4741,"(530) 231-3502",micro,http://dunloebrewing.com
"Dunsmuir Brewery Works","5701 Dunsmuir Ave",,Dunsmuir,CA,96025-2008,"(530) 235-1900",brewpub,http://www.dunsmuirbreweryworks.com
"Dust Bowl Brewing Co","3000 Fulkerth Rd",,Turlock,CA,95380-9403,"(209) 634-1934",micro,http://www.dustbowlbrewing.com
"Dutch's BrewHouse","4244 Atlantic Ave",,"Long Beach",CA,90807-2802,"(562) 336-1326",brewpub,http://dutchsbrewhouse.com
"E.J. Phair Brewing Co","2151 Salvio St Ste L",,Concord,CA,94520-2470,"(925) 680-4253",micro,http://www.ejphair.com
"E.J. Phair Brewing Co.","300 Cumberland St",,Pittsburg,CA,94565-2234,"(925) 252-9895",micro,http://www.ejphair.com
"Eagle Rock Brewery","3056 Roswell St",,"Los Angeles",CA,90065-2214,"(323) 257-7866",micro,http://www.eaglerockbrewery.com
"Earth And Fire Brewing Company","825 Riverside Ave Ste 1",,"Paso Robles",CA,93446-2660,"(805) 270-2959",micro,http://www.earthandfirebrewing.com
"East Brother Beer Company","1001 Canal Blvd # C-2",,Richmond,CA,94804-3533,"(510) 230-4081",micro,http://www.eastbrotherbeer.com
"East Cliff Brewing Company","21517 E Cliff Dr",,"Santa Cruz",CA,95062-4844,"(831) 713-5540",micro,http://www.eastcliffbrewing.com/
"Ebullition Brew Works","2449 Cades Way Ste D",,Vista,CA,92081,"(760) 842-1046",micro,http://www.ebullitionbrew.com
"Eckert Malting and Brewing Co","2280 Ivy St Ste 130",,Chico,CA,95928-8000,"(530) 342-2320",micro,http://www.eckertmaltingandbrewing.com
"Eel River Brewing Co","1777 Alamar Way",,Fortuna,CA,95540-9548,"(707) 725-2739",micro,http://www.eelriverbrewing.com
"Eel River Brewing Co - Facility and Warehouse","600 K Bridge St",,Scotia,CA,95565,"(707) 764-1772",micro,
"Eight Bridges Brewing","332 Earhart Way",,Livermore,CA,94551-9309,"(925) 961-9160",micro,http://www.eightbridgesbrewing.com
"Einstok Beer Company","12910 Culver Blvd Ste D",,"Los Angeles",CA,90066-6788,"(424) 218-1168",contract,http://einstokbeer.com
"El Dorado Brewing Co","6051 Enterprise Dr",,"Diamond Springs",CA,95619-9447,"(530) 558-4188",micro,http://www.eldobrew.com
"El Segundo Brewing Co","140 Main St",,"El Segundo",CA,90245-3801,"(310) 529-3882",micro,http://www.elsegundobrewing.com
"El Toro Brewing Company Brewpub","17605 Monterey Rd",,"Morgan Hill",CA,95037-3620,,brewpub,
"Electric Brewing Co","41537 Cherry St",,Murrieta,CA,92562-9193,"(951) 696-2266",micro,http://www.electricbrewingcompany.com
"Elevation 66 Brewing Co","10082 San Pablo Ave",,"El Cerrito",CA,94530-3927,"(530) 848-9176",brewpub,http://www.elevation66.com
"Elkhorn Slough Brewing Company","65 Hangar Way Unit D",,Watsonville,CA,95076-2476,"(831) 288-3152",micro,http://www.elkhornsloughbrew.com
"Enegren Brewing Co","444 Zachary St Unit 120",,Moorpark,CA,93021-2073,"(805) 552-0602",micro,http://www.enegrenbrewing.com
"English Ales Brewery","223 Reindollar Ave Ste A",,Marina,CA,93933-3851,"(831) 883-3000",micro,http://www.englishalesbrewery.com
"Epidemic Ales","150 Mason Circle Stes I&J",,Concord,CA,94520,"(925) 566-8850",micro,http://www.epidemicales.com
"Eppig Brewing","3052 El Cajon Blvd Ste 103",,"San Diego",CA,92104-1399,"(619) 501-1840",micro,http://www.eppigbrewing.com
"Escape Craft Brewery","721 Nevada St Ste 401",,Redlands,CA,92373-8053,"(909) 713-3727",micro,http://www.escapecraftbrewery.com
"Escondido Brewing Company","649 Rock Springs Rd",,Escondido,CA,92025-1622,,micro,http://www.escobrewco.com
"Etna Brewing Co LLC","131 Callahan Street",,Etna,CA,96027,"(530) 467-5277",micro,http://www.etnabrew.com
"Euryale Brewing Co","2060 Chicago Ave Ste A17",,Riverside,CA,92507-2344,"(951) 530-8865",micro,http://www.euryalebrewing.com
"Evans Brewing Co / Bayhawk Ales","2000 Main St",,Irvine,CA,92614-7202,"(714) 708-0082",micro,http://www.evansbrewco.com
"Faction Brewing Co","2501 Monarch St Ste 200",,Alameda,CA,94501-5098,"(510) 523-2739",micro,http://www.factionbrewing.com
"Fair Oaks Brew Pub","7988 California Ave",,"Fair Oaks",CA,95628-7140,,brewpub,http://www.fairoaksbrewpub.com
"Fall Brewing Company","4542 30th St",,"San Diego",CA,92116-4247,"(619) 501-0903",micro,http://www.fallbrewing.com
"Fall River Brewing Company","24339 State Highway 89",,Burney,CA,96013-9615,,micro,http://www.fallriverbrewing.com
"Falls Canyon Brewing Co.",,"Trabuco Canyon, CA",,,,,planning,
"Farmers Brewing Co",,,Princeton,CA,95970-9519,"(530) 624-6053",planning,http://www.farmersbrewing.com
"Faultline Brewing Co","1235 Oakmead Pkwy",,Sunnyvale,CA,94085-4040,"(408) 736-2739",brewpub,
"Feather Falls Brewing Co","3 Alverda Dr",,Oroville,CA,95966-9379,"(530) 534-4059",brewpub,http://www.featherfallscasino.com
"Feather River Brewing Co","14665 Forest Ridge Rd",,Magalia,CA,95954-0443,"(530) 873-0734",micro,http://www.featherriverbrewing.com
"Feathered Serpent Brewery",,,"San Dimas",CA,91773-1477,"(323) 707-9238",planning,
"Federation Brewing","420 3rd St Unit A",,Oakland,CA,94607-3809,,micro,http://www.federationbrewing.com
Ferment.Drink.Repeat,"2636 San Bruno Ave",,"San Francisco",CA,94134-1507,,micro,
"Fieldwork Brewing Co","1160 6th St",,Berkeley,CA,94710-1247,"(510) 898-1203",regional,http://www.fieldworkbrewing.com
"FiftyFifty Brewing Co","11197 Brockway Rd Spc 1",,Truckee,CA,96161-3352,"(530) 587-2337",brewpub,http://www.fiftyfiftybrewing.com
"FiftyFifty Brewing Production Facility","10434 River Park Pl",,Truckee,CA,96161-5905,"(530) 587-2337",micro,
"Figueroa Mountain Brewing","45 Industrial Way",,Buellton,CA,93427-9565,"(805) 694-2252",regional,http://www.figmtnbrew.com
"Figueroa Mountain Brewing - Arroyo Grande","1462 E Grand Ave",,"Arroyo Grande",CA,93420-2448,"(805) 886-9275",brewpub,http://www.figmtnbrew.com
"Figueroa Mountain Brewing - Santa Barbara","137 Anacapa St Ste F",,"Santa Barbara",CA,93101-1848,"(805) 886-9275",micro,http://www.figmtnbrew.com
"Figueroa Mountain Brewing - Westlake Village","30770 Russell Ranch Rd Ste E& # F",,"Westlake Village",CA,91362-6314,"(805) 886-9275",micro,http://www.figmtnbrew.com
"Final Draft Brewing Company","1600 California St",,Redding,CA,96001-1001,"(310) 569-3868",brewpub,http://www.finaldraftbrewingcompany.com
"Firehouse Grill & Brewery","111 S Murphy Ave",,Sunnyvale,CA,94086-6113,"(408) 773-9500",brewpub,http://www.firehousegrill.com
"Fireman's Brew","6433 Topanga Canyon Blvd # 189",,"Woodland Hills",CA,91303-2621,"(818) 883-2739",contract,http://www.firemansbrew.com
"Firestone Walker Barrelworks","620 McMurray Rd",,Buellton,CA,93427-2511,"(805) 686-1557",micro,http://www.firestonewalker.com
"Firestone Walker Brewing Co","1400 Ramada Dr",,"Paso Robles",CA,93446-3993,"(805) 225-5911",regional,http://www.firestonebeer.com
"Firestone Walker Brewing Co","3205 Washington Blvd",,"Marina del Rey",CA,90292-5552,"(310) 439-8264",brewpub,
"First Water Brewing Company",,,Pasadena,CA,91106-1420,,planning,http://firstwaterbrewing.com
"Five Suns Brewing","701 Escobar St Ste C",,Martinez,CA,94553,"(925) 957-6706",micro,http://www.fivesunsbrewing.com
"Five Threads Brewing Company","31133 Via Colinas Ste 109",,"Westlake Village",CA,91362-4525,,micro,
"Five Window Beer Co","9 W Locust St",,Lodi,CA,95240-2137,"(209) 712-2336",micro,http://www.fivewindow.com
"Flat Fish Brewing","126 N Wood Rd Ste 104",,Camarillo,CA,93010-8334,"(805) 484-9600",micro,http://www.flatfishbrewing.com
"Flatland Brewing Company","9183 Survey Rd Ste 104",,"Elk Grove",CA,95624-9712,"(916) 753-3116",micro,http://www.flatlandbrewingco.com
"Fogbelt Brewing Co","1305 Cleveland Ave",,"Santa Rosa",CA,95401-4211,"(707) 978-3400",brewpub,http://www.fogbeltbrewing.com
"Fort Point Beer Company","644 Mason St",,"San Francisco",CA,94129-1600,"(415) 906-4021",regional,http://www.fortpointbeer.com
"Fort Rock Brewing","12401 Folsom Blvd Ste 110",,"Rancho Cordova",CA,95742-6422,"(916) 936-4616",micro,http://www.fortrockbrewing.com
"Fossil Fuels Brewing Co","45928 Omega Dr",,Fremont,CA,94539-6848,"(510) 381-5739",contract,
"Fountainhead Brewing Co","4621 24th St",,Sacramento,CA,95822-1412,"(916) 228-4610",micro,http://www.fountainheadbrewingco.com
"Four Sons Brewing","18421 Gothard St Ste 100",,"Huntington Beach",CA,92648-1236,"(714) 584-7501",micro,http://www.foursonsbrewing.com
"FreeWheel Brewing Co","3736 Florence St (Marsh Manor)",,"Redwood City",CA,94063-4418,,brewpub,
"Frogtown Brewery","2931 Gilroy St",,"Los Angeles",CA,90039-2817,"(323) 452-2739",micro,http://www.frogtownbrewery.com
"Full Circle Brewing Co","620 F St",,Fresno,CA,93706-3413,"(559) 264-6323",micro,http://www.fullcirclebrewing.com
"G8 Development, Inc.",,,"San Diego",CA,92109-2802,"(619) 823-3402",planning,
"Garage Brewing Company","26015 Jefferson Ave. Ste D",,Murrieta,CA,92562,"(951) 600-1945",micro,http://www.garagebrewco.com
GBC,"26015 Jefferson Ave Ste D",,Murrieta,CA,92562-6985,,micro,
"Geartooth AleWerks","1635 S 7th St",,"San Jose",CA,95112-5932,"(408) 483-2679",micro,http://www.geartoothalewerks.com
"Ghost Town Brewing","1960 Adeline St",,Oakland,CA,94607-2300,"(510) 926-6728",micro,http://www.ghosttownbrewing.com
"Gilman Brewing Company","912 Gilman St",,Berkeley,CA,94710-1424,,micro,http://www.gilmanbrew.com
Globier,,,"San Diego",CA,92117-1604,"(775) 762-3818",planning,http://www.drinkglobier.com
"GoatHouse Brewing Co.","600 Wise Rd",,Lincoln,CA,95648-8518,"(916) 740-9100",micro,http://www.goathousebrewing.com
"Gold Hill Brewery","5660 Vineyard Ln",,Placerville,CA,95667-9330,"(530) 626-6522",micro,http://www.goldhillvineyard.com
"Golden Road Brewing","5430 W San Fernando Rd",,"Los Angeles",CA,90039-1015,"(213) 542-6039",large,http://www.goldenroad.la
"Golden Road Brewing","2210 E Orangewood Ave",,Anaheim,CA,92806,"(714) 912-4015",large,
"Golden Road Brewing Co","1830 L St",,Sacramento,CA,95811,"(916) 382-9445",large,
"Golden State Brew and Grill","7560 Monterey Rd Ste 100",,Gilroy,CA,95020,"(408) 846-7070",brewpub,
"Golden State Brewery","1252 Memorex Dr",,"Santa Clara",CA,95050-2812,"(408) 727-2337",micro,http://www.goldenstate.beer
"Gordon Biersch Brewery Restaurant - Burbank","145 S San Fernando Blvd",,Burbank,CA,91502-1322,"(818) 569-5240",brewpub,http://www.gordonbiersch.com/restaurant
"Gordon Biersch Brewery Restaurant - San Diego","5010 Mission Center Rd",,"San Diego",CA,92108-3211,"(619) 688-1120",brewpub,http://www.craftworksrestaurants.com
"Gordon Biersch Brewing Co","357 E Taylor St",,"San Jose",CA,95112-3105,"(408) 278-1008",regional,http://www.gordonbiersch.com
"Grass Valley Brewing Co.","141 E Main St",,"Grass Valley",CA,95945-6522,"(530) 271-2739",micro,http://www.gvbrew.com
"GravSouth Brewing Co.","7950 Redwood Dr Ste 15",,Cotati,CA,94931-3054,"(707) 753-4198",brewpub,http://www.gravsouthbrewco.com
"Great Beer Co","21119 Superior St",,Chatsworth,CA,91311-4309,"(818) 718-2739",contract,http://www.greatbeerco.com
"Great Change Brewing",,,Bakersfield,CA,93313,"(619) 517-0736",planning,http://www.greatchangebrewing.com
"Green Cheek Beer Company","2294 N Batavia St Ste C",,Orange,CA,92865-3108,"(714) 998-8172",micro,
"Green Flash Brewing Co","6550 Mira Mesa Blvd",,"San Diego",CA,92121-4100,"(858) 622-0085",regional,http://www.greenflashbrew.com
"Greywolf Brewing",,,Riverside,CA,92508-9793,,planning,http://www.greywolfbrewing.com
"Gridlock Brewing Co","2659 Pickfair Lane",,Livermore,CA,94551,"(408) 835-8794",contract,http://www.gridlockbrewing.com
"Grillin & Chillin Alehouse","401 McCray St # B24",,Hollister,CA,95023-2225,"(831) 637-2337",brewpub,http://www.relaxgrillinchillin.com
"Groundswell Brewing Co","10151 Prospect Ave",,Santee,CA,92071-4411,"(610) 749-9123",micro,http://www.groundswellbrew.com
"Guadalupe Brewery","5674 El Camino Real Ste D",,Carlsbad,CA,92008-7130,"(858) 751-4278",micro,http://www.guadalupebrewery.com
"Gunwhale Ales","2960 Randolph Ave Unit A",,"Costa Mesa",CA,92626-4312,"(949) 239-9074",micro,http://www.gunwhaleales.com
"Gyppo Ale Mill",,,Whitethorn,CA,95589-0627,"(707) 986-7700",micro,
"H2OPS LLC",,,Anaheim,CA,92808-1225,"(714) 392-4414",planning,http://www.h2ops.com
"Half Door Brewing Company","903 Island Ave",,"San Diego",CA,92101-7227,,brewpub,http://www.halfdoorbrewing.com
"Half Moon Bay Brewing Co","390 Capistrano Road",,"Half Moon Bay",CA,94019,"(650) 728-2739",brewpub,http://www.hmbbrewingco.com
"Hamilton Family Brewery","9757 7th St Ste 802",,"Rancho Cucamonga",CA,91730-5297,"(909) 989-7050",micro,http://hamiltonfamilybrewery.com
"Hand-Brewed Beer","9771 Variel Ave",,Chatsworth,CA,91311-4315,"(818) 964-1422",micro,http://www.handbrewedbeer.com
"Hangar 24 Craft Brewery","1710 Sessums Dr",,Redlands,CA,92374-1909,"(909) 389-1400",regional,http://www.hangar24brewery.com
"Hapa's Brewing Company","460 Lincoln Ave # 90",,"San Jose",CA,95126-3702,"(408) 982-3299",micro,http://hapasbrewing.com/
"Hardwood Bar and Smokery","680 8th St Ste 170",,"San Francisco",CA,94103,"(415) 796-2437",brewpub,http://www.hardwoodsf.com
"Hare In the Forest","9311 Gibson Ln",,"Potter Valley",CA,95469-8799,"(910) 545-7759",micro,http://www.hareintheforest.com
"Harmonic Brewing","1050 26th St",,"San Francisco",CA,94107-3513,"(415) 872-6817",micro,http://www.harmonicbrewing.com
"Headlands Brewing Company",,,"Mill Valley",CA,94941-2003,"(415) 860-4226",proprietor,http://www.headlandsbrewing.com
"Helix Brewing Co","8101 Commercial St",,"La Mesa",CA,91942-2927,"(619) 741-8447",micro,http://www.drinkhelix.com
"Hello Brew Co.",,"Stockton, CA",,,,,planning,http://www.hellobrewco.com
"Helm's Brewing Company, LLC","5640 Kearny Mesa Rd Ste C",,"San Diego",CA,92111-1312,"(209) 202-4308",micro,http://www.helmsbrewingco.com
"HenHouse Brewing","322 Bellevue Ave # 2",,"Santa Rosa",CA,95407-7711,,micro,http://www.henhousebrewing.com
"Henhouse Brewing Company Palace of Barrels","1333 N McDowell Blvd Ste A",,Petaluma,CA,94954,,micro,
"Henson Brewing",,,Burbank,CA,91504,,micro,http://www.facebook.com/hensonbrewing/
"Heretic Brewing Company","1052 Horizon Dr Ste B",,Fairfield,CA,94533-1694,"(707) 389-4573",micro,http://www.hereticbrewing.com
"Hermitage Brewing Company","1627 S 7th St",,"San Jose",CA,95112-5932,"(408) 291-0966",regional,http://www.hermitagebrewing.com
"Heroes Restaurant and Brewery","3397 Mission Inn Ave",,Riverside,CA,92501-3302,"(951) 248-0722",brewpub,http://www.heroesrestaurantandbrewery.com
"High Water Brewing",,,Stockton,CA,95204-2943,"(530) 440-9098",proprietor,http://www.highwaterbrewing.com
"Highland Park Brewery","5125 York Blvd",,"Los Angeles",CA,90042,"(425) 501-1255",micro,http://www.hpb.la
"Highland Park Brewery","1229 N Spring St",,"Los Angeles",CA,90012,"(323) 739-6459",brewpub,
"Highway 1 Brewing Company","5720 Cabrillo Hwy",,Pescadero,CA,94060-9725,"(650) 879-9243",brewpub,http://www.highway1brewing.com
"Hillcrest Brewing Company","1458 University Ave",,"San Diego",CA,92103-3405,"(619) 269-4323",brewpub,http://www.hillcrestbrewingcompany.com
"Hodad's Brewing Company",,,"San Diego",CA,92123,"(858) 278-2770",planning,
"Hoi Polloi Brewpub and Beat Lounge","1763 Alcatraz Ave",,Berkeley,CA,94703,"(510) 858-7334",micro,
"Hoi Polloi Brewpub and Beat Lounge - Oakland","246 30th St # 103",,Oakland,CA,94611-5745,,micro,
"Hollister Brewing Co","6980 Market Place Dr",,Goleta,CA,93117-2997,"(805) 968-2810",brewpub,http://www.holisterbrewco.com
"Holy Craft Brewing Co",,"San Francisco, CA",,,,"(415) 269-0738",contract,http://www.holycraftbrewery.com
"Homage Brewing","281 S Thomas St Ste 101",,Pomona,CA,91766-1750,"(626) 377-0930",micro,http://www.homagebrewing.com/
"Home Brewing Co.","2911 El Cajon Blvd # 2",,"San Diego",CA,92104-1204,"(619) 450-6165",micro,http://www.thehomebrewerssd.com
"Hop Creek Pub","3253 Browns Valley Rd",,Napa,CA,94558-5424,"(707) 257-7708",brewpub,http://www.hopcreekpub.com
"Hop Dogma Brewing Company","270 Capistrano Rd #22",,"Half Moon Bay",CA,94019,"(650) 560-8729",micro,http://www.hopdogma.com
"Hop Secret Brewing Co","162 W Pomona Ave",,Monrovia,CA,91016-4558,,micro,http://www.hopsecretbrewing.com
"Hoparazzi Brewing Co","2910 E La Palma Ave Ste D",,Anaheim,CA,92806-2618,,micro,
"Hoppy Brewing Co","2425 24th St",,Sacramento,CA,95819-4619,"(916) 451-4677",micro,http://www.hoppy.com
"HopSaint Brewing Company","5160 W 190th St",,Torrance,CA,90503-1005,"(310) 214-4611",brewpub,http://www.hopsaint.com
"Horus Aged Ales","4040 Calle Platino Ste 120",,Oceanside,CA,92056-5859,"(310) 347-5685",micro,http://www.horusbeer.com
"House Beer","219 Rose Ave",,Venice,CA,90291-2567,"(310) 310-3331",proprietor,http://www.housebeer.us
"House Of Pendragon Brewing Co","1849 Industrial Way Ste 103",,Sanger,CA,93657-8727,"(559) 346-7786",micro,http://www.hopbeer.com
"Humble Farmer Brewing Co.","116 S Imperial Ave Ste C",,Imperial,CA,92251-1666,"(760) 545-0037",brewpub,
"Humble Farmer Brewing Co., Inc.","438 Walnut Ave",,Holtville,CA,92250-1343,"(760) 356-7066",micro,http://www.humblefarmerbrewing.com
"Humble Sea Brewing Co","820 Swift St",,"Santa Cruz",CA,95060-5866,"(831) 431-6189",brewpub,http://www.humblesea.com
"Humboldt Regeneration","2320 Central Ave Ste F",,McKinleyville,CA,95519-3682,"(707) 738-8225",micro,http://www.humboldtregeneration.com
"Huntington Beach Beer Co","201 Main St Ste E",,"Huntington Beach",CA,92648-8110,"(714) 960-5343",brewpub,http://www.hbbeerco.com
"HWY 50 Brewery",,,Camino,CA,95709,,planning,http://www.hwy50brewery.com
"I & I Brewing","5135 Edison Ave Ste 1",,Chino,CA,91710-5773,"(909) 591-3915",micro,http://www.iandibrewing.com
"I and I Brewing","5135 Edison 1",,Chino,CA,91710,"(909) 591-3915",micro,http://iandibrewing.com
"Idol Beer Works","100 S Sacramento St",,Lodi,CA,95240-3526,,micro,http://www.idolbeerworks.com
"Idyllwild Brewpub","54423 Village Center Dr",,Idyllwild,CA,92549,"(951) 659-0163",brewpub,http://www.idyllwildbrewpub.com
"Inc 82 Brewing","7370 San Ramon Rd",,Dublin,CA,94568-2336,"(925) 560-8344",brewpub,http://www.inc82.com
"Independent Brewing Co","444 Harrison St",,Oakland,CA,94607-4118,,micro,
"Indian Joe Brewing","2123 Industrial Ct",,Vista,CA,92081-7900,"(760) 295-3945",micro,http://www.indianjoebrewing.com
"Indian Valley Brewing","14 Commercial Blvd Ste 125",,Novato,CA,94949-6110,"(415) 301-4983",micro,http://www.indianvalleybrewing.com
"Indian Wells Brewing Co","2565 State Highway 14",,Inyokern,CA,93527-2700,"(760) 377-5989",micro,http://www.mojave-red.com
"Indie Brewing Company","2301 E 7th St Ste C100 Ste C100",,"Los Angeles",CA,90023-1036,"(323) 354-4285",micro,http://indiebrewco.com
"Inland Empire Brewing Co","1710 Palmyrita Ave Ste 11",,Riverside,CA,92507-1627,"(951) 643-7687",proprietor,http://www.iebrew.com
"Inland Wharf Brewing Company","26440 Jefferson Ave Ste A",,Murrieta,CA,92562-6951,"(951) 696-7999",micro,http://www.inlandwharfbrewing.com
"Innovation Brew Works","3650 W Temple Ave Bldg 220A",,Pomona,CA,91768-2582,"(909) 869-2788",micro,http://www.ibrewworks.com/
"Institution Ale Company","3841 Mission Oaks Blvd",,Camarillo,CA,93012-5036,"(805) 482-3777",brewpub,http://www.institutionales.com
"Iron Fist Brewing Co","1305 Hot Springs Way Ste 101",,Vista,CA,92081-7876,"(760) 216-6500",micro,http://www.ironfistbrewing.com
"Iron Springs Pub & Brewery","765 Center Blvd",,Fairfax,CA,94930-1764,"(415) 485-1005",brewpub,http://www.ironspringspub.com
"Iron Triangle Brewing Company","1581 Industrial St",,"Los Angeles",CA,90021-1217,"(310) 990-5702",micro,http://www.irontrianglebrewing.com
"Ironfire Brewing Company","42095 Zevo Dr Unit 1",,Temecula,CA,92590-3741,"(951) 296-1397",micro,http://www.ironfirebrewing.com
"Island Brewing Co","5049 6th St",,Carpinteria,CA,93013-2001,"(805) 745-8272",micro,http://www.islandbrewingcompany.com
"Jack Russell Farm Ales","2380 Larsen Dr",,Camino,CA,95709-9749,"(530) 647-9420",brewpub,http://www.jackrussellbrewing.com
"Jacked Up Brewery","800 W Grand Ave Ste B Ste 201",,Escondido,CA,92025-2562,"(760) 300-0633",micro,http://jackedupbrewery.com
"Jackrabbit Brewing Co","1323 Terminal St",,"West Sacramento",CA,95691-3514,"(209) 612-0259",micro,http://www.jackrabbitbrewingcompany.com
"Jack's Brewing Co","39176 Argonaut Way",,Fremont,CA,94538-1304,"(510) 796-2036",brewpub,
"Jamul Brewing Co. - Production Only","3113 Calle Allejandro",,Jamul,CA,91935-3108,"(619) 517-9829",micro,http://www.jamulbrewingco.com
"John Scott Brewing Co.",,,"Trabuco Canyon",CA,92679-5145,"(714) 470-2055",planning,
"Johnny's Calistoga / Mud City Brews","1457 Lincoln Ave",,Calistoga,CA,94515,"(707) 942-5938",brewpub,http://www.johnnyscalistoga.com
"JP DasBrew","44356 S Grimmer Blvd",,Fremont,CA,94538-6385,"(510) 270-5345",micro,http://www.dasbrewinc.com
"JT Schmids Restaurant & Brewery","2610 E Katella Ave",,Anaheim,CA,92806-5903,"(714) 634-9200",brewpub,http://www.jtschmids.com
"Julian Beer Co","2315 Main St",,Julian,CA,92065,"(760) 765-3757",micro,http://www.baileybbq.com
"Junction Brewery & Grill","110 W American Canyon Rd",,"American Canyon",CA,94503-4196,"(707) 649-2285",brewpub,http://www.junctionbreweryandgrill.com
"June Lake Brewing","131 S Crawford Ave",,"June Lake",CA,93529,,micro,http://www.junelakebrewing.com
Jupiter,"2181 Shattuck Ave",,Berkeley,CA,94704-1308,"(510) 843-8277",brewpub,http://www.jupiterbeer.com
"Karl Strauss Brewing Co","40868 Winchester Rd",,Temecula,CA,92591-5521,"(951) 225-7963",brewpub,http://www.karlstrauss.com
"Karl Strauss Brewing Co","5985 Santa Fe St",,"San Diego",CA,92109-1623,"(858) 273-2739",regional,http://www.karlstrauss.com
"Karl Strauss Brewing Co - Sorrento Mesa","9675 Scranton Rd",,"San Diego",CA,92121-1761,"(858) 587-2739",brewpub,http://www.karlstrauss.com
"Karl Strauss Brewing Co - 4S Ranch","10448 Reserve Dr",,"San Diego",CA,92127-3510,"(858) 273-2739",brewpub,http://www.karlstrauss.com
"Karl Strauss Brewing Co - Anaheim","2390 E Orangewood Ave Ste 100",,Anaheim,CA,92806-6141,"(714) 940-1772",brewpub,
"Karl Strauss Brewing Co - Carlsbad","5801 Armada Dr",,Carlsbad,CA,92008-4609,"(760) 431-2739",brewpub,http://www.karlstrauss.com
"Karl Strauss Brewing Co - Costa Mesa","901 S Coast Dr Ste A",,"Costa Mesa",CA,92626-7790,"(714) 546-2739",brewpub,http://www.karlstrauss.com
"Karl Strauss Brewing Co - Downtown","1157 Columbia St",,"San Diego",CA,92101-3511,"(619) 234-2739",brewpub,http://www.karlstrauss.com
"Karl Strauss Brewing Co - Downtown Los Angeles","600 Wilshire Blvd Ste 100",,"Los Angeles",CA,90017-3212,"(213) 228-2739",brewpub,
"Karl Strauss Brewing Co - La Jolla","1044 Wall St",,"La Jolla",CA,92037-4437,"(858) 551-2739",brewpub,http://www.karlstrauss.com
"Karl Strauss Brewing Co - Universal CityWalk","1000 Universal Studios Blvd",,"Universal City",CA,91608-1008,"(818) 753-2739",brewpub,http://www.karlstrauss.com
"Kathrin's Biergarten","4810 Granite Dr Ste 1A",,Rocklin,CA,95677,"(916) 251-7502",brewpub,http://www.kathrinsbiergarten.com
"Kaweah Brewing Co.","1054 E Walnut Ave",,Tulare,CA,93274,"(559) 972-5573",micro,http://www.kaweahbrewing.com
"Kelsey Creek Brewing","3945 Main St",,Kelseyville,CA,95451-7424,"(707) 279-2311",micro,http://www.kelseycreekbrewing.com
"Kern River Brewing Co","13415 Sierra Way",,Kernville,CA,93238-9714,"(760) 376-2337",brewpub,http://www.kernriverbrewingcompany.com
"Kern River Brewing Company Back Yard","134415 Sierra Way Ste B",,Kernville,CA,93238,"(760) 376-2337",brewpub,
"Kilowatt Brewing","7576 Clairemont Mesa Blvd",,"San Diego",CA,92111-1504,"(858) 715-3998",micro,http://www.kilowatt.beer
"Kinetic Brewing Company","735 W Lancaster Blvd",,Lancaster,CA,93534-3118,"(661) 942-2337",brewpub,http://www.kineticbrewing.com
"King Cong Brewing Company","1709 del Paso Blvd",,Sacramento,CA,95815-3016,"(916) 514-8041",micro,
"King Harbor Brewing Co","2907 182nd St",,"Redondo Beach",CA,90278-3922,"(310) 542-8657",micro,http://www.kingharborbrewing.com
"Kings Brewing Company","8560 Vineyard Ave Ste 301",,"Rancho Cucamonga",CA,91730-4395,"(909) 727-3333",micro,http://www.kingsbrewingco.com
"Kings River Brewing Company",,,Clovis,CA,93612-2825,"(559) 906-0615",planning,http://www.kingsriverbrewing.com
"Knee Deep Brewing Co.","13395 New Airport Rd Ste H",,Auburn,CA,95602-7419,"(530) 797-4677",regional,http://www.kneedeepbrewing.com
"Knotty Brewing Co.","842 Market St",,"San Diego",CA,92101-6425,"(619) 269-4337",micro,http://www.knottybrewing.com
"K-Oz Restaurant Brewery","121 7th St",,"San Francisco",CA,94103-2835,"(415) 872-9431",brewpub,http://www.kandoz.com
"Kuracali Inc","821 Caminito del Reposo",,Carlsbad,CA,92011-2404,"(858) 775-6502",proprietor,http://www.kuracali.com
"LA Bodega Brewing Co",,,Whittier,CA,90603-1207,,planning,http://labodegabrewingco.com
"La Quinta Brewing Co","77917 Wildcat Dr",,"Palm Desert",CA,92211-1159,"(760) 200-2597",micro,http://www.laquintabrewing.com
"La Verne Brewing","2125 Wright Ave Ste C15",,"La Verne",CA,91750-5816,"(909) 596-5804",micro,http://www.lavernebrewingco.com
"LAB Brewing Co / Twisted Oak Tavern","30105 Agoura Rd",,"Agoura Hills",CA,91301-2003,"(818) 735-0091",brewpub,http://www.twistedoaktavern.pub
"Ladyface Ale Companie","29281 Agoura Rd",,"Agoura Hills",CA,91301-2597,"(818) 477-4566",brewpub,http://www.ladyfaceale.com
"Laguna Beach Beer Co","29851 Aventura",,"Rancho Santa Margarita",CA,92688-2014,"(949) 264-6821",micro,http://www.lagunabeer.com
"Laguna Beach Brewery and Grille","237 Ocean Ave",,"Laguna Beach",CA,92651-2106,"(949) 497-3381",brewpub,http://www.lagunabeachbrewery.net
"Lagunitas Brewing Co","1280 N McDowell Blvd",,Petaluma,CA,94954-1113,"(707) 769-4495",large,http://www.lagunitas.com
"Lake Tahoe AleWorX","2050 Lake Tahoe Blvd",,"South Lake Tahoe",CA,96150-6404,"(530) 600-0442",micro,http://www.laketahoealeworx.com
"Lassen Ale Works @ The Pioneer Saloon","724 Main St",,Susanville,CA,96130-4372,"(530) 257-7666",brewpub,http://www.lassenaleworks.com
"Last Call Brewing Company","944 Shepard Ct Ste C",,Oakdale,CA,95361-7785,"(888) 512-5592",micro,http://www.lastcallbrewing.com
"Last Name Brewing","2120 Porterfield Way",,Upland,CA,91786-2111,"(909) 579-0032",micro,http://www.lastnamebrewing.com
"Latchkey Brewing Company","1795 Hancock St Mission Brewery Plaza",,"San Diego",CA,92110-2006,"(916) 555-1212",brewpub,http://www.latchkeybrew.com
"Latitude 33 Brewing Co","1430 Vantage Ct Ste 104",,Vista,CA,92081-8545,"(760) 410-6333",micro,http://www.latitude33brewing.com
"Laughing Monk Brewing","1439 Egbert Ave Unit A",,"San Francisco",CA,94124-3221,"(415) 890-5970",micro,http://www.laughingmonkbrewing.com
"Lawless Brewing",,,"Los Angeles",CA,90068-1436,"(818) 456-7345",planning,http://www.lawlessbeer.com
"Lazy Duck Brewing","1723 Rogers Ave Ste E",,"San Jose",CA,95112-1124,,micro,http://www.lazyduckbrewing.com
"Leashless Brewing","585 E Thompson Blvd",,Ventura,CA,93001-2826,"(805) 628-9474",micro,http://www.leashlessbrewing.com
"Left Coast Brewing Co.","1245 Puerta del Sol",,"San Clemente",CA,92673-6310,"(949) 361-9972",micro,http://www.leftcoastbrewing.com
"Left Coast Brewing Co. Tasting Room Smokehouse Distillery","6652 Irvine Center Dr",,Irvine,CA,92618,"(949) 361-9972",brewpub,
"Legacy Brewing Company","363 Airport Rd",,Oceanside,CA,92058-1203,"(760) 705-3221",micro,http://www.legacybrewingco.com
"Legends Craft Brewery","1301 S Lewis St",,Anaheim,CA,92805-6431,"(888) 327-0202",micro,http://www.legendsbeer.com
"Lengthwise Brewing Co","7700 District Blvd",,Bakersfield,CA,93313-4861,"(661) 836-2537",brewpub,http://www.lengthwise.com
"Liberation Brewing","3630 Atlantic Ave",,"Long Beach",CA,90807,"(562) 349-0133",micro,http://www.liberationbrewing.com
"Libertine Brewing Company","1234 Broad St",,"San Luis Obispo",CA,93401-3908,"(805) 772-0700",brewpub,http://www.libertinebrewing.com
"Lincoln Beer Company","3083 N Lima St",,Burbank,CA,91504-2013,"(818) 687-4206",micro,http://www.lincolnbeercompany.com
"Line 51 Brewing",,"Oakland, CA",,,,,contract,http://www.line51beer.com
"Little Miss Brewing","7949 Stromesa Ct Ste Y",,"San Diego",CA,92126-6338,"(619) 880-2752",micro,http://www.littlemissbrewing.com
"Local Brewing Co","69 Bluxome St",,"San Francisco",CA,94107-1605,,micro,http://www.localbrewingco.com
"Local Craft Beer, Tehachapi","365 Enterprise Way Ste G",,Tehachapi,CA,93561-1369,"(661) 822-2337",micro,http://www.honeywagonbrewing.com
"Lodi Beer Company","105 S School St",,Lodi,CA,95240-3509,"(209) 368-2964",brewpub,http://www.lodibeercompany.com
"LogOff Brewing LLC",,,Carmichael,CA,95608-5615,"(916) 541-6677",planning,
"Loma Brewing Company","130 N Santa Cruz Ave Ste G",,"Los Gatos",CA,95030-5949,"(408) 560-9626",brewpub,http://www.lomabrew.com
"Long Beach Beer Lab","518 W Willow St",,"Long Beach",CA,90806-2831,"(562) 341-3659",micro,http://www.lbbeer.com
"Longship Brewery","10320 Camino Santa Fe Ste C",,"San Diego",CA,92121-3103,"(858) 246-7875",micro,http://www.longshipbrewery.com
"Loomis Basin Brewing Co","3277 Swetzer Rd",,Loomis,CA,95650-7607,"(916) 259-2739",micro,http://www.loomisbasinbrewing.com
"Los Angeles Ale Works","12918 Cerise Ave",,Hawthorne,CA,90250-5521,"(424) 456-4191",micro,http://www.laaleworks.com
"Lost Coast Brew House","1600 Sunset Dr",,Eureka,CA,95503-2401,"(707) 445-4484",brewpub,http://www.lostcoast.com
"Lost Coast Brewery and Cafe - Table Bluff Brewing, Inc.","617 4th St",,Eureka,CA,95501-1013,"(707) 445-4480",regional,http://www.lostcoast.com
"Lost Winds Brewing Company","924 Calle Negocio Ste C",,"San Clemente",CA,92673-6208,"(949) 244-4288",micro,http://www.lostwindsbrewing.com
"Lot 713 Craft Brewery",,,Riverside,CA,92506-3208,,planning,http://www.lot713.com
"Lucky Devil Brewing","1134 Delaware St Apt E",,Berkeley,CA,94702-1672,"(510) 969-2865",contract,http://www.luckydevilbrewery.com
"Lucky Luke Brewing Company","610 W Avenue O Ste 104",,Palmdale,CA,93551-3610,"(661) 270-5588",micro,http://www.luckylukebrewing.com
"M.Special Brewing Company","6860 Cortona Dr Ste C",,Goleta,CA,93117-5507,,micro,http://www.mspecialbrewco.com
"MachineHead Brewing Co",,,Clovis,CA,93612,,planning,
"MacLeod Ale Brewing Company, LLC","14741 Calvert St",,"Van Nuys",CA,91411-2706,"(818) 631-1963",micro,http://www.macleodale.com
"Mad Duck Craft Brewing Company","3085 E Campus Pointe Dr",,Fresno,CA,93710-7526,"(559) 325-3825",brewpub,http://www.madduckcraft.com
"Mad Fritz","393 Lafata St",,"Saint Helena",CA,94574-1405,"(707) 968-5058",micro,http://www.madfritz.com
"Mad River Brewing Co","101 Taylor Way",,"Blue Lake",CA,95525,"(707) 668-4151",micro,http://www.madriverbrewing.com
"Madewest Brewing Company","1744 Donlon St",,Ventura,CA,93003-5673,"(805) 947-5002",micro,http://www.madewest.com
"Magnolia Brewing Company","1398 Haight St",,"San Francisco",CA,94117-2909,,brewpub,
"Magnolia Dogpatch","2505 3rd St",,"San Francisco",CA,94107-3112,"(415) 864-7468",micro,http://www.magnoliasmokestack.com
"Main Street Brewery","493 N Main St",,Corona,CA,92880-2042,"(951) 371-1471",brewpub,http://www.mainstreetbrewery.com
"Mammoth Brewing Company","18 Lake Manor Pl",,"Mammoth Lakes",CA,93546,"(760) 934-7141",micro,http://www.mammothbrewingco.com
"ManRock Brewing","1750 El Camino Real Ste A",,"Grover Beach",CA,93433-1416,"(702) 217-2826",brewpub,http://www.manrockbrewing.com
"Mare Island Brewing Co. - Coal Shed Brewery","851 Waterfront Ave.",,Vallejo,CA,94592,"(707) 556-3000",micro,
"Mare Island Brewing Co. - Ferry Taproom","289 Mare Island Way",,Vallejo,CA,94590-5801,"(707) 556-3000",brewpub,http://www.mareislandbrewingco.com
"Marin Brewing Co","1809 Larkspur Landing Cir",,Larkspur,CA,94939-1801,"(415) 461-4677",brewpub,http://www.marinbrewing.com
"Mason Ale Works","2002 S Coast Hwy",,Oceanside,CA,92054-6535,"(858) 395-8809",micro,http://www.masonaleworks.com
"MBF Brewing Co","530 W 7th St Apt 401",,"Los Angeles",CA,90014-2507,"(831) 521-7921",contract,http://www.mbfcompany.com
"Midnight Jack Brewing Company","3801 Oceanic Dr Ste 101",,Oceanside,CA,92056-5850,"(760) 637-9679",micro,http://www.midnightjackbrewing.com
"Mike Hess Brewing","3812 Grim Ave",,"San Diego",CA,92104-3602,"(619) 255-7136",micro,
"Mike Hess Brewing - Miramar","7955 Silverton Ave Ste 1201",,"San Diego",CA,92126-6357,"(619) 887-6453",micro,http://www.hessbrewing.com
"Mikkeller Brewing San Diego","9366 Cabot Dr",,"San Diego",CA,92126-4311,,micro,
"Mill Valley Beer Works","173 Throckmorton Ave",,"Mill Valley",CA,94941-1909,,brewpub,http://www.millvalleybeerworks.com
"MillerCoors Brewing Co - Irwindale","15801 1st St",,Irwindale,CA,91706-2069,"(626) 969-6225",large,http://www.millerbrewing.com
"Minerâ€™s Alley Brewing Company","2053 Montgomery St",,Oroville,CA,95965-4947,"(530) 693-4388",brewpub,http://www.minersalleybrewingco.com
"Mission Brewery","1441 L St",,"San Diego",CA,92101-8967,"(619) 544-0555",micro,http://www.missionbrewery.com
"Modern Times - The Dankness Dojo","3725 Greenwood St",,"San Diego",CA,92110-4441,"(619) 546-9694",brewpub,
"Modern Times Barrel House","3486 Kurtz St # 102",,"San Diego",CA,92110-4429,,micro,
"Modern Times Beer","3725 Greenwood St",,"San Diego",CA,92110-4441,"(619) 546-9694",regional,http://www.moderntimesbeer.com
"Moksa Brewing Co","5860 Pacific St",,Rocklin,CA,95677-3738,"(916) 824-1366",micro,http://www.moksabrewing.com
"Moksha Beer",,,"San Jose",CA,95154-0279,"(415) 729-5796",contract,http://www.mokshabeer.com
"Monkish Brewing Co","20311 S Western Ave",,Torrance,CA,90501-1504,"(310) 295-2157",micro,http://www.monkishbrewing.com
"Monk's Cellar","240 Vernon St",,Roseville,CA,95678-2633,"(916) 786-6665",brewpub,http://monkscellar.com
"Monterey Coast Brewing","165 Main Street",,Salinas,CA,93901,"(831) 758-2337",brewpub,http://www.montereycoastbrewing.com
"Moonlight Brewing Co","3350 Coffey Ln Ste A",,"Santa Rosa",CA,95403-7412,"(707) 528-2537",large,http://www.moonlightbrewing.com
"Moonraker Brewing Co.","12970 Earhart Ave Ste 100",,Auburn,CA,95602-9022,"(530) 745-6816",micro,http://www.moonrakerbrewing.com
"Moonraker Brewing Company (Production Facility)","2349 Rickenbacker Way",,Auburn,CA,95602,"(530) 745-6816",micro,
"Morgan Territory Brewing","1885 N Macarthur Dr",,Tracy,CA,95376-2820,"(209) 834-8664",micro,http://www.morganterritorybrewing.com
"Mother Earth Brew Co LLC","2055 Thibodo Rd Ste H",,Vista,CA,92081-7991,"(760) 542-8868",regional,http://www.motherearthbrewco.com
Motobrewer,,,"San Francisco",CA,94112-1330,,planning,http://www.motobrewer.com
"Mount Shasta Brewing Co","360 College Ave",,Weed,CA,96094-2706,"(530) 938-2394",micro,http://www.weedales.com
"Mountain Rambler Brewery","186 S Main St",,Bishop,CA,93514-3415,"(760) 258-1348",micro,http://www.mountainramblerbrewery.com
"Moylan's Brewery & Restaurant","15 Rowland Way",,Novato,CA,94945-5001,"(415) 898-4677",brewpub,http://www.moylans.com
"Mraz Brewing Company","2222 Francisco Dr Ste 510",,"El Dorado Hills",CA,95762-3766,"(916) 934-0744",micro,http://www.mrazbrewingcompany.com
"Mt Lowe Brewing Company","150 E Saint Joseph St",,Arcadia,CA,91006-2851,"(626) 244-7593",micro,http://www.mtlowebrewing.com
"Mumford Brewing Company","416 Boyd St",,"Los Angeles",CA,90013-1631,"(626) 375-9353",micro,http://www.mumfordbrewing.com
"Napa Palisades Beer Company","1000 Main St",,Napa,CA,94559-2645,"(707) 296-1552",proprietor,http://www.napapalisadesbeer.com
"Napa Smith Brewery","101 Yolano Dr",,Vallejo,CA,94589-2250,"(707) 255-2912",micro,http://www.napasmithbrewery.com
"Napa Valley Brewing Co/ Calistoga Inn","1250 Lincoln Ave",,Calistoga,CA,94515-1741,"(707) 942-4101",brewpub,http://www.napabeer.com
"Naughty Oak Brewing Company","165 S Broadway St Ste 102",,Orcutt,CA,93455-4627,"(805) 287-9663",micro,http://www.naughtyoak.com
"Network Brewery","1824 Carnegie Ave",,"Santa Ana",CA,92705-5503,"(657) 859-8004",micro,http://www.networkbrewery.com
"New Bohemia Brewing Co","1030 41st Ave",,"Santa Cruz",CA,95062-4447,"(831) 350-0253",brewpub,http://www.nubobrew.com
"New English Brewing Co Inc","11545 Sorrento Valley Rd Ste 305",,"San Diego",CA,92121-1322,"(619) 857-8023",micro,http://www.newenglishbrewing.com
"New Glory Craft Brewery","8251 Alpine Ave",,Sacramento,CA,95826-4708,"(916) 451-9355",micro,http://www.newglorybeer.com
"New Helvetia Brewing Company","1730 Broadway",,Sacramento,CA,95818-2320,"(916) 469-9889",micro,http://www.newhelvetiabrew.com
"Newport Beach Brewing Co","2920 Newport Blvd Frnt",,"Newport Beach",CA,92663-3758,"(949) 675-8449",brewpub,http://www.nbbrewco.com
"Nickel Beer Co","1485 Hollow Glen Rd",,Julian,CA,92036,"(760) 765-2337",micro,http://www.nickelbeerco.com
"No Clue Craft Brewery","9037 Arrow Rte Ste 170",,"Rancho Cucamonga",CA,91730-4433,"(909) 989-2394",micro,http://www.nocluebrew.com
"Noble Ale Works","1621 S Sinclair St Ste B",,Anaheim,CA,92806-5947,"(714) 634-2739",micro,http://www.noblealeworks.com
"North Coast Brewing Co Inc.","455 N Main St",,"Fort Bragg",CA,95437-3215,"(707) 964-2739",regional,http://www.northcoastbrewing.com
"North Park Beer Co.","3038 University Ave",,"San Diego",CA,92104-3002,"(619) 255-2946",micro,http://www.northparkbeerco.com
"Northern Pine Brewing","326 N Horne St",,Oceanside,CA,92054-2810,"(760) 754-1434",micro,http://www.northernpinebrewing.com
"Novel Brewing Company","6510 San Pablo Ave",,Oakland,CA,94608-1236,"(510) 922-9974",micro,http://novelbrewing.com
"Novo Brazil Brewing Company","901 Lane Ave # 100",,"Chula Vista",CA,91914-3501,"(619) 869-4274",micro,http://www.novobrazilbrewing.com
"Oak Grove Brewing Company",,,Glendale,CA,91208-1836,"(818) 319-9577",planning,http://www.oakgrovebrewingcompany.com
"Oak Hills Brewing","12221 Poplar St Ste 3",,Hesperia,CA,92344-9287,"(760) 244-8278",micro,http://www.oakhillsbrewing.com
"Oakland United Beerworks","3775 Alameda Ave Ste G",,Oakland,CA,94601-3920,"(510) 251-8898",micro,http://www.oaklandunitedbeerworks.com
"Ocean Beach Brewery","5041 Newport Ave",,"San Diego",CA,92107-3009,"(619) 955-8053",brewpub,
"Oceanside Brewing Company","312 Via Del Norte",,Oceanside,CA,92058-1232,"(760) 453-7900",micro,http://www.oceansidebrewingco.com
"Oda Restaurant","1500 Owens St",,"San Francisco",CA,94158-2334,"(415) 558-9450",brewpub,http://www.barodasf.com
"Off the Grid Brewing Co","13615 John Glenn Rd Ste A",,"Apple Valley",CA,92308-5730,"(760) 247-5600",micro,http://www.otgbrew.com
"Offshoot Beer Co.","737 Dunn Way",,Placentia,CA,92870,"(714) 996-6258",micro,http://www.offshootbeer.com
"Oggis Pizza & Brewing Co - Carmel Mountain Ranch","10155 Rancho Carmel Dr",,"San Diego",CA,92128-3609,"(858) 592-7883",brewpub,http://www.oggis.com
"Oggis Pizza & Brewing Co - Mission Valley","2245 Fenton Pkwy Ste 108 Fenton Marketplace",,"San Diego",CA,92108-4737,"(619) 640-1072",brewpub,http://www.oggis.com
"Oggi's Sports Brewhouse Pizza - Apple Valley","19201 Bear Valley Rd Ste D",,"Apple Valley",CA,92308-2704,"(760) 792-2622",brewpub,http://www.oggis.com
"Ogopogo Brewing","864 Commercial Ave",,"San Gabriel",CA,91776,,micro,http://www.ogopogobrewco.com
"Ohana Brewing Co","1756 E 23rd St",,"Los Angeles",CA,90058-1012,"(626) 282-2337",micro,http://www.ohanabrew.com
"Ol' Republic Brewery","124 Argall Way",,"Nevada City",CA,95959-3002,"(530) 264-7263",micro,http://www.olrepublicbrewery.com
"Ol' Republic Brewery Rancho Cordova","11151 Trade Center Dr Ste 104",,"Rancho Cordova",CA,95670,"(916) 215-8702",micro,
"Old 290 Brewery",,,"Santa Ana",CA,92704-7463,"(714) 546-4255",planning,
"Old Bus Tavern","3193 Mission St",,"San Francisco",CA,94110-4515,"(415) 843-1938",brewpub,http://www.oldbustavern.com
"Old Country Brewing",,,Fairfield,CA,94533-7790,,planning,
"Old Hangtown Beer Works","11327 Trade Center Dr Ste 350",,"Rancho Cordova",CA,95742-6285,"(530) 919-5166",micro,http://www.oldhangtownbeerworks.com
"Old Hangtown Beer Works",,,Placerville,CA,95667,"(530) 919-5166",micro,
"Old Kan Beer & Co","95 Linden St",,Oakland,CA,94607-2510,"(510) 338-3965",brewpub,http://www.old-kan.com
"Old Possum Brewing Company","357 Sutton Pl",,"Santa Rosa",CA,95407,"(707) 303-7177",brewpub,http://www.oldpossumbrewing.com
"Old Redwood Brewing Co.","9000 Windsor Rd # A",,Windsor,CA,95492-9701,"(707) 657-7624",micro,http://www.oldredwoodbrewing.com
"Old Stump Brewery","2896 Metropolitan Pl",,Pomona,CA,91767-1854,"(909) 860-9052",micro,http://www.oldstumpbrewery.com
"O'Meara Bros. Brewing Company","901 Bevins St",,Lakeport,CA,95453-8778,"(707) 262-1234",brewpub,http://www.omearabros.com
"Origin Brewer",,,Richmond,CA,94805-2121,,micro,
"Original Pattern Brewing Company","292 4th St",,Oakland,CA,94607-4332,"(510) 844-4833",micro,http://www.originalpatternbeer.com
"Out of Bounds Brewing Company","4480 Yankee Hill Rd Ste 100",,Rocklin,CA,95677-1633,,micro,
"Outbreak Brewing Co.","640 Main St",,Placerville,CA,95667-5704,"(530) 748-3258",micro,http://www.outbreakbrewing.com
"Outpost Brewing Co","932 Stateline Ave",,"South Lake Tahoe",CA,96150-6913,"(530) 494-9805",micro,
"Pacific Beach Ale House","721 Grand Ave",,"San Diego",CA,92109-3905,"(858) 581-2337",brewpub,http://www.pbalehouse.com
"Pacific Brew Lab","111 Industrial Way",,Belmont,CA,94002-8202,"(415) 937-7843",contract,http://www.pacbrewlab.com
"Pacific Islander Beer Company","8665 Argent St ste b",,Santee,CA,92071-4180,"(619) 270-7777",micro,http://www.pibbeer.com
"Pacific Plate Brewing Co","1999 S Myrtle Ave",,Monrovia,CA,91016-4854,"(626) 239-8456",micro,http://www.pacificplatebrewing.com
"Packinghouse Brewing Co, The","6421 Central Ave Ste 101",,Riverside,CA,92504-1450,"(951) 333-9261",micro,http://pbbeer.com
Palmia,"3749 Divisadero St",,"San Francisco",CA,94123-1010,"(415) 385-3100",proprietor,http://www.palmiabeer.com
"Palo Alto Brewing Co","1080B La Avenida St",,"Mountain View",CA,94043-1422,,contract,http://www.paloaltobrewing.com
"Palooza Brewery and Gastropub","8910 Sonoma Hwy",,Kenwood,CA,95452,"(707) 833-4000",brewpub,http://www.paloozafresh.com
"Papa Marce's Cerveceria",,,Carlsbad,CA,92008,"(858) 414-6976",planning,http://www.papamarces.com
"Paperback Brewing Company",,,"Woodland Hills",CA,91367-2912,,planning,http://www.paperback.la
"Paraiso Brewery","80 W G St",,"Los Banos",CA,93635-3659,"(209) 855-2337",micro,http://paraisobrewery.com
"Pariah Brewing Company","3052 El Cajon Blvd Ste B",,"San Diego",CA,92104-1618,"(619) 642-0545",micro,http://www.pariahbrewingco.com
"Paso Robles Casino / Craft Paso Bar","1144 Black Oak Dr",,"Paso Robles",CA,93446,"(805) 226-0500",brewpub,http://www.pasoroblescasino.com
"Paystreak Brewing","449 Main Street",,Etna,CA,96027,"(530) 467-2337",brewpub,http://www.paystreakbrewing.com
"Pedro Point Brewing","55A Bill Drake Way",,Pacifica,CA,94044,"(650) 288-9149",micro,http://www.pedropointbrewing.com
"Pennyweight Craft Brewing",,,Livermore,CA,94550,"(510) 754-1685",planning,http://www.pennyweightbrew.com
"Pentagonal Brewing Co","115 N Imperial Ave Suite A",,Imperial,CA,92251-1250,"(760) 545-1045",micro,http://www.facebook.com/pentagonalbrewingcompany/
"Peter B's Brewpub","2 Portola Plz Behind The Portola Hotel",,Monterey,CA,93940-2419,"(831) 649-2699",brewpub,http://www.peterbsbrewpub.com
"Phantom Ales","1211 N Las Brisas St",,Anaheim,CA,92806-1823,"(714) 630-9463",brewpub,http://www.phantomales.com
"Phantom Carriage Brewery","18525 S Main St",,Gardena,CA,90248-4611,"(310) 538-5834",brewpub,http://www.phantomcarriage.com
"Pine and Palm Brewing","352 W Bedford Ave Ste 102",,Fresno,CA,93711-6079,,micro,http://www.pineandpalmbrewing.com
"Pine Street Brewery",,,"San Francisco",CA,94109-4929,"(415) 744-4062",micro,http://www.pinestreetbrewery.com
"Pismo Brewing Co","500 Cypress St",,"Pismo Beach",CA,93449-2624,"(805) 295-6200",micro,http://www.pismobrew.com
"Pizza Port - Bressi Ranch","2730 Gateway Rd",,Carlsbad,CA,92009-1730,"(760) 707-1655",regional,http://www.pizzaport.com
"Pizza Port Carlsbad","571 Carlsbad Village Dr",,Carlsbad,CA,92008-2304,"(760) 720-7007",regional,http://www.pizzaport.com
"Pizza Port Ocean Beach","1956 Bacon St",,"San Diego",CA,92107-2844,"(619) 224-4700",brewpub,http://www.pizzaport.com
"Pizza Port San Clemente","301 N El Camino Real",,"San Clemente",CA,92672-4716,"(949) 940-0005",brewpub,http://www.pizzaport.com
"Pizza Port Solana Beach","135 N Highway 101",,"Solana Beach",CA,92075-1128,"(858) 481-7332",brewpub,http://www.pizzaport.com
"Placerville Brewing Co","155 Placerville Dr",,Placerville,CA,95667-3909,"(530) 295-9166",brewpub,http://www.placervillebrewing.com
"Plan 9 Alehouse","155 E Grand Ave",,Escondido,CA,92025-2701,"(760) 489-8817",brewpub,http://www.plan9alehouse.com
"Pleasanton Main St Brewery","830 Main St Frnt",,Pleasanton,CA,94566-6652,"(925) 462-8218",brewpub,http://www.mainstbrewery.com
"Plow Brewing Company","3334 Industrial Dr",,"Santa Rosa",CA,95403-2011,"(707) 843-4583",micro,http://www.sonomacounty.com/brewery/plow-brewing-company
"Pocock Brewing Company","24907 Avenue Tibbitts Ste B",,"Santa Clarita",CA,91355-3487,"(661) 775-4899",micro,http://www.pocockbrewing.com
"Poor House Brewing","4494 30th St",,"San Diego",CA,92116-4287,"(858) 769-9070",micro,http://www.poorhousebrew.com
"Porchlight Brewing Company","866 57th St",,Sacramento,CA,95819-3327,"(916) 476-5384",micro,http://www.porchlightbrewingcompany.com
"Port Brewing Co / The Lost Abbey","155 Mata Way Ste 104",,"San Marcos",CA,92069-2983,"(800) 918-6816",micro,http://www.portbrewing.com
"Port O'Pints Brewing Co.","1215 Northcrest Dr",,"Crescent City",CA,95531-2320,"(707) 460-1154",brewpub,http://www.portopints.com
"Port Town Brewing Co","700-726 S Centre St",,"San Pedro",CA,90731,"(310) 508-6013",proprietor,http://www.porttownbrewing.com
"Poseidon Brewing Company","5777 Olivas Park Dr Unit Q",,Ventura,CA,93003-7928,"(805) 477-0239",micro,http://www.poseidonbrewingco.com
"Progress Brewing","1822 Chico Ave",,"South El Monte",CA,91733-2944,"(626) 552-9603",micro,http://progress-brewing.com
"Prohibition Brewing","2004 E Vista Way",,Vista,CA,92084-3321,"(760) 295-3525",brewpub,http://www.prohibitionbrewingcompany.com
"Protector Brewery LLC","8680 Miralani Drive Ste. 128",,"San Diego",CA,92126,"(858) 757-9160",micro,http://www.protectorbrewery.com
"Pure Order Brewing Co","410 N Quarantina St",,"Santa Barbara",CA,93103-3119,"(805) 966-2881",micro,http://www.pureorderbrewing.com
"Pure Project","9030 Kenamar Dr Ste 308",,"San Diego",CA,92121-2432,"(858) 252-6143",micro,http://www.purebrewing.org
"Quantum Brewing Co","5375 Kearny Villa Rd Ste 116",,"San Diego",CA,92123-1422,"(858) 254-6481",micro,http://www.quantumbrewingsd.com
"Red Branch Brewing Company / Rabbits Foot Meadery","1246 Birchwood Dr",,Sunnyvale,CA,94089-2205,"(408) 747-0770",micro,http://www.redbranchcider.com
"Red Bus Brewing Company","802 Reading St Ste A",,Folsom,CA,95630-3061,"(916) 985-7299",micro,http://www.redbusbrew.com
"Red Car Brewery and Restaurant","1266 Sartori Ave",,Torrance,CA,90501-2717,"(310) 782-0222",brewpub,http://www.redcarbrewery.com
"Red Tandem Brewery","1009 Harbor Blvd",,Oxnard,CA,93035-1131,"(805) 832-4023",micro,http://www.redtandembrewery.com
"Redwood Curtain Brewing Co","550 S G St Ste 6",,Arcata,CA,95521-6683,"(707) 826-7222",micro,http://www.redwoodcurtainbrewing.com
"Reel Brew Co.","Â 7037 Laurel Canyon Boulevard",,"Los Angeles",CA,91605,,contract,
"Refuge Brewery, Inc.","43040 Rancho Way Ste 200",,Temecula,CA,92590-5400,"(951) 506-0609",micro,http://www.refugebrew.com
"Relentless Brewing Co","42030 Avenida Alvarado Ste F",,Temecula,CA,92590-3404,"(951) 296-9400",micro,http://www.relentlessbrewing.com
"Rescue Brewing Co","167 N 2nd Ave",,Upland,CA,91786-6019,"(909) 536-2739",micro,http://www.rescuebrewingco.com
"Resident Brewing","411 C St",,"San Diego",CA,92101-5105,"(619) 717-6622",micro,http://www.residentbrewing.com
"REV Brewing Co","1580 W San Bernardino Rd Ste H",,Covina,CA,91722-3457,"(626) 388-9949",micro,http://www.revwineryandbrewingco.com
"Right Eye Brewing Co","301 Spring St",,"Suisun City",CA,94585,"(707) 416-1347",micro,http://www.righteyebrewing.com
"Riip Beer Company","17214 PACIFIC COAST HWY",,"Huntington Beach",CA,92649-4116,"(714) 248-6710",micro,http://www.riipbeer.com
"Riley's Brew Pub","2674 Owens Mountain Pkwy Ste 104",,Clovis,CA,93611-9588,"(559) 862-2925",brewpub,http://rileysbrew.pub
"Riley's Brewing Co","28777 Avenue 15 1/2",,Madera,CA,93638-2316,"(559) 673-8021",micro,http://www.rileysbrewing.us
"Rincon Brewery","5065 Carpinteria Ave",,Carpinteria,CA,93013-2046,"(805) 684-6044",brewpub,http://www.rinconbrewery.com
"Rip Current Brewery","1325 Grand Ave Ste 100",,"San Marcos",CA,92078-2451,"(760) 481-3141",micro,http://www.ripcurrentbrewing.com
"Rip Current Brewing North Park","4101 30th St",,"San Diego",CA,92104-1905,"(760) 481-3141",brewpub,http://www.ripcurrentbrewing.com
"Ritual Brewing Co","1315 Research Dr",,Redlands,CA,92374-4583,"(909) 478-7800",micro,http://www.ritualbrewing.com
"River City Brewing Co","545 Downtown Plz Ste 1115",,Sacramento,CA,95814-3338,"(916) 550-5093",brewpub,http://www.rivercitybrewing.net
"River Rock Brewery","807 C St",,Galt,CA,95632-1706,"(209) 331-6071",micro,http://riverrockbrewery.com
"Rock Bottom Brewery - La Jolla","8980 Villa La Jolla Dr",,"La Jolla",CA,92037-1701,"(858) 450-9277",brewpub,http://www.rockbottom.com
"Rock Bottom Brewery - Long Beach","1 Pine Ave",,"Long Beach",CA,90802-4759,"(562) 308-2255",brewpub,http://www.rockbottom.com
"Rock Bottom Brewery - San Jose","1875 S Bascom Ave Ste 700",,Campbell,CA,95008-2310,"(408) 377-0707",brewpub,http://www.rockbottom.com
"Rocksteady Brewing Co.","611 Escobar St",,Martinez,CA,94553-1111,"(925) 228-8787",brewpub,http://www.creekmonkey.com
"Rocky Hill Brewing","20147 Avenue 306",,Exeter,CA,93221-9763,"(559) 592-4594",micro,
"Rocland Beverage Co","1601 Airport Rd",,Ukiah,CA,95482-6456,"(707) 657-7721",contract,http://www.asskisserales.com
"Rok House Brewing Co., LLC","1939 W 11th St Ste A",,Upland,CA,91786-3559,"(909) 981-0020",micro,http://www.rokhousebrewing.com
"Roses' Taproom","4930 Telegraph Ave",,Oakland,CA,94609-2012,"(510) 858-3969",micro,http://www.rosestaproom.com
"Rough Draft Brewing","8830 Rehco Rd Ste D",,"San Diego",CA,92121-3263,"(858) 453-7238",micro,http://www.roughdraftbrew.com
"Rouleur Brewing Company","5840 El Camino Real Ste 101",,Carlsbad,CA,92008-8804,"(442) 244-5111",micro,http://www.rouleurbrewing.com
"Route 30 Brewing Company","9860 Indiana Ave Ste 19",,Riverside,CA,92503-5515,"(951) 776-7083",micro,
"Rowdy's Brewing Company","10002 6th St Ste A",,"Rancho Cucamonga",CA,91730-5784,"(909) 929-2722",micro,http://rowdysbrewco.com
"RT Rogers Brewing Co","38 E Montecito Ave",,"Sierra Madre",CA,91024,"(626) 888-6412",micro,http://www.rtrbrew.com
"Rugged Coast Brewing","817 Piner Ave",,"Santa Rosa",CA,95403,"(415) 602-7272",micro,http://www.ruggedcoastbrewing.com
"Ruhstaller Beer","800 Business Park Drive, Suite G",,Dixon,CA,95620,"(530) 601-8240",micro,
"Ruhstaller Beer","726 K St",,Sacramento,CA,95814-3403,"(916) 919-5691",micro,http://www.ruhstallerbeer.com
"Russian River Brewing Co","725 4th St",,"Santa Rosa",CA,95404-4407,"(707) 545-2337",regional,http://www.russianriverbrewing.com
"Russian River Brewing Co - Production","1812 Ferdinand Ct",,"Santa Rosa",CA,95404-5968,,micro,http://www.russianriverbrewing.com
"Sackbut Brewing and Barrelwerks","3153 E Huntington Blvd",,Fresno,CA,93702-3215,,micro,http://www.sackbutbrewing.com
"Sacrament Brewing","1616 J st.",,"Sacramento ",CA,95814,"(310) 259-2158",micro,http://www.sacramentbrewing.com
"Sacrilege Brewing Project","730 Main St",,"Half Moon Bay",CA,94019-1925,"(650) 276-7029",brewpub,
"Sactown Union Brewery","1210 66th St Unit B",,Sacramento,CA,95819-4327,"(916) 272-4472",micro,http://sactownunion.com
"Saint Archer Brewing Company","9550 Distribution Ave",,"San Diego",CA,92121-2306,"(858) 225-2337",large,http://www.saintarcherbrewery.com
"San Diego Brewing Co","10450 Friars Rd Ste L",,"San Diego",CA,92120-2311,"(619) 284-2739",brewpub,http://www.sandiegobrewing.com
"San Fernando Brewing Co.","425 Park Ave",,"San Fernando",CA,91340-2525,"(818) 745-6175",micro,http://www.sanfernandobrewingcompany.com
"San Francisco Brewing Co","900 N Point St West Plaza",,"San Francisco",CA,94109,"(415) 484-2337",proprietor,http://www.sfbrewingco.com
"San Marcos Brewery and Grill","1080 W San Marcos Blvd Ste 180",,"San Marcos",CA,92078-4099,"(760) 471-0050",brewpub,
"San Pedro Brewing Co","331 W 6th St",,"San Pedro",CA,90731-3317,"(310) 831-5663",brewpub,http://www.sanpedrobrewing.com
"Sanctum Brewing Co","560 E Commercial St Ste 21",,Pomona,CA,91767-5649,"(909) 345-0253",micro,http://www.sanctumbrewing.com
"Sandbox Brewing Company","4650 Arrow Hwy Ste A9",,Montclair,CA,91763,"(909) 929-0108",micro,http://www.sandboxbrewing.com
"Sandude Brewing Co","1401 Freitas Park",,Turlock,CA,95380-6254,"(209) 678-1547",micro,
"Santa Barbara Brewing Co","501 State St",,"Santa Barbara",CA,93101-1601,"(805) 730-1040",brewpub,http://www.sbbrewco.com
"Santa Clara Valley Brewing","101 E Alma Ave",,"San Jose",CA,95112-5944,"(408) 288-5181",micro,http://www.scvbrewing.com
"Santa Cruz Aleworks","150 Dubois St Ste E",,"Santa Cruz",CA,95060-2114,"(831) 425-1182",brewpub,http://www.santacruzaleworks.com
"Santa Cruz Mountain Brewing","402 Ingalls St Ste 27",,"Santa Cruz",CA,95060-5869,,brewpub,
"Santa Maria Brewing Co","1451 Fairway Dr",,"Santa Maria",CA,93455-1404,,micro,http://www.santamariabrewingco.com
"Santa Monica Brew Works","1920 Colorado Ave Ste C",,"Santa Monica",CA,90404-3414,"(310) 828-7629",micro,http://www.santamonicabrewworks.com
"Sante Adairius Rustic Ales","103 Kennedy Dr",,Capitola,CA,95010-3641,"(831) 345-4867",micro,http://www.rusticales.com
"Sauced BBQ & Spirits","2300 1st St Ste 120",,Livermore,CA,94550-3141,"(925) 961-1300",contract,http://www.saucedbbqandspirits.com
"Savagewood Brewing Company","9879 Hibert St Ste F",,"San Diego",CA,92131-1058,"(858) 577-0350",micro,http://www.savagewoodbrewing.com
"Scholb Premium Ales","2964 Columbia St",,Torrance,CA,90503-3806,"(424) 350-7303",micro,http://www.drinkscholb.com
"Seabright Brewery","519 Seabright Ave Ste 107",,"Santa Cruz",CA,95062-3482,"(831) 426-2739",brewpub,http://www.seabrightbrewery.com
"Seaquake Brewing","400 Front St",,"Crescent City",CA,95531-4369,"(707) 465-4444",brewpub,http://www.seaquakebrewing.com
"Second Chance Beer Company","15378 Ave of Science Ste 222",,"San Diego",CA,92128-3451,"(858) 705-6250",micro,http://www.secondchancebeer.com
"Second Son Brews","12810 Road 38",,Madera,CA,93636-8671,,micro,
"Secret Trail Brewing Company, LLC","132 Meyers St Ste 120",,Chico,CA,95928-8002,"(916) 709-4820",micro,http://ww.secrettrailbrewing.com
"Seismic Brewing Co","2870 Duke Ct",,"Santa Rosa",CA,95407-5711,"(707) 544-5996",micro,http://www.seismicbrewingco.com/
"Sequoia Brewing Co - Tower District","777 E Olive Ave",,Fresno,CA,93728-3350,"(559) 264-5521",brewpub,http://www.sequoiabrewing.com
"Seven Stills","1439 Egbert Ave Unit C",,"San Francisco",CA,94124-3221,"(415) 914-0936",micro,http://www.sevenstillsofsf.com
"Shadow Puppet Brewing Company","4771 Arroyo Vis Ste B",,Livermore,CA,94551-4847,"(925) 453-6498",brewpub,http://www.shadowpuppetbrewing.com
"Shady Oak Barrel House","420 1st St",,"Santa Rosa",CA,95401-6339,"(707) 595-8958",micro,http://shadyoakbarrelhouse.com
"Shanty Irish Brewing Company/Rooney's Irish Pub","241 S Broadway St",,"Santa Maria",CA,93455-4657,"(805) 934-3777",brewpub,http://www.rooneysirishpub.net
"Shanty Shack Brewing","138 Fern St",,"Santa Cruz",CA,95060-2118,"(831) 316-0800",brewpub,http://shantyshackbrewing.com
"Shire Station Brewing Company","12913 17th Ave",,Lemoore,CA,93245-9485,"(559) 250-2797",micro,http://www.shirestation.com
"Sidellis Lake Tahoe","3350 Sandy Way",,"South Lake Tahoe",CA,96150,"(530) 600-3999",brewpub,
"Sierra Nevada Brewing Co","1075 E 20th St",,Chico,CA,95928-6722,"(530) 893-3520",regional,http://www.sierranevada.com
Silo's,"530 Main St",,Napa,CA,94559-3378,"(707) 251-5833",brewpub,http://www.silosnapa.com
"Silva Brewing","525 Pine St Ste B",,"Paso Robles",CA,93446-3185,"(805) 369-2337",micro,http://www.silvabrewing.com
"Siskiyou Brew Works","110 Squawvalley Rd",,Mccloud,CA,96057,"(530) 925-5894",brewpub,http://www.siskiyoubrewworks.com
"Six Rivers Brewery","1300 Central Ave",,McKinleyville,CA,95519-6429,"(707) 839-7588",brewpub,
"Skyland Ale Works","1869 Pomona Rd Ste E",,Corona,CA,92880-1789,"(951) 817-3037",micro,http://www.skylandaleworks.com
"SLO Brewing Co","736 Higuera St",,"San Luis Obispo",CA,93401-3513,"(805) 459-5604",micro,http://www.slobrew.com
"SLO Brewing Co - The Rock","855 Aerovista Pl",,"San Luis Obispo",CA,93401-8056,"(805) 706-2915",brewpub,
"Smog City Brewing","1901 del Amo Blvd Ste B",,Torrance,CA,90501-1350,"(310) 320-7664",micro,http://www.smogcitybrewing.com
"Smog City Brewing Wood Cellar","1879 Del Amo Blvd",,Torrance,CA,90501,"(310) 320-7664",micro,http://www.smogcitybrewing.com
"Smoke Mountain Brewery","6520 Casitas Pass Rd",,Ventura,CA,93001-9794,"(805) 804-7954",micro,http://www.smokemtn.com
"Smoking Cannon Brewery","780 Main St Ste I",,Ramona,CA,92065-2079,"(760) 407-7557",micro,http://www.smokingcannonbrewery.com
"Snowshoe Brewing Co","2050 Hwy 4",,Arnold,CA,95223,"(209) 795-2272",brewpub,http://www.snowshoebrewing.com
"Social Kitchen & Brewery","1326 9th Ave",,"San Francisco",CA,94122-2309,"(415) 681-0330",brewpub,http://www.socialkitchenandbrewery.com
"Societe Brewing Company","Societe Brewing Company 8262 Clairemont Mesa Blvd",,"San Diego",CA,92111-1702,"(713) 816-1157",micro,
"Solarc Brewing","607 CRANE BLVD",,"Los Angeles",CA,90065-4015,"(508) 479-2502",contract,http://www.solarcbrewing.com
"Solid Ground Brewing","552 Pleasant Valley Road",,"Diamond Springs",CA,95619,"(530) 344-7442",brewpub,http://www.solidgroundbrewing.com
"Solorio Brewing Co","9395 Feron Blvd Ste K",,"Rancho Cucamonga",CA,91730-4565,"(909) 755-5400",micro,http://www.soloriobrewing.com
"Solvang Brewing Co","1547 Mission Dr",,Solvang,CA,93463-2607,"(805) 688-2337",brewpub,http://www.solvangbrewingcompany.com
"Solvang Brewing Company - Lompoc","234 N H St",,Lompoc,CA,93436-6022,"(978) 729-2485",brewpub,http://www.solvangbrewing.com
"Sonoma Grille","165 W Napa St",,Sonoma,CA,95476-6626,"(707) 938-7542",brewpub,http://www.sonomagrilleandbar.com
"Sonoma Springs Brewing Co","19449 Riverside Dr Ste 101",,Sonoma,CA,95476-6357,"(707) 938-7422",micro,http://www.sonomaspringsbrewing.com
"Sons of Liberty Aleworks","1780 Town and Country Dr Ste 101",,Norco,CA,92860-3618,"(951) 403-5122",micro,http://www.solaleworks.com
"Soquel Fermentation Project",,,"Los Gatos",CA,95033,,micro,http://facebook.com/soquel-fermentation-project-1661153424004618/
"South Bay Brewco","930 McLaughlin Ave",,"San Jose",CA,95122-2611,"(408) 219-3696",contract,
"South Gate Brewing Co","40233 Enterprise Dr",,Oakhurst,CA,93644-8839,"(858) 232-1737",brewpub,http://www.southgatebrewco.com
"South Lake Brewing Company","1920 Lake Tahoe Blvd",,"South Lake Tahoe",CA,96150-6307,"(530) 578-0087",micro,http://www.southlakebeer.com
"South Park Brewing","1517 30th St",,"San Diego",CA,92102-1503,"(619) 610-9038",brewpub,http://www.southparkbrewing.com
"Southern Pacific Brewing","620 Treat Ave",,"San Francisco",CA,94110-2016,"(415) 341-0152",brewpub,http://www.southernpacificbrewing.com
"Southpaw BBQ & Southern Cooking","2170 Mission St",,"San Francisco",CA,94110-1247,"(415) 934-9300",brewpub,http://www.southpawbbqsf.com
"Speakeasy Ales and Lagers","1195 Evans Ave",,"San Francisco",CA,94124-1704,"(415) 642-3371",micro,http://www.goodbeer.com
"SR 76 Beerworks","777 HARRAHS RINCON WAY",,"Valley Center",CA,92082,"(760) 751-3100",micro,http://www.sr76beerworks.com
"St Clair Brown Winery & Brewery","816 Vallejo St",,Napa,CA,94559,"(707) 255-5591",micro,http://www.stclairbrownwinery.com
"St. Florian's Brewery","7704 Bell Rd Ste A",,Windsor,CA,95492-8518,"(707) 838-2739",micro,http://www.stfloriansbrewery.com
"Stadium Brewing Co","26731 Aliso Creek Rd Ste C",,"Aliso Viejo",CA,92656-4811,"(949) 448-9611",brewpub,http://www.stadiumbrewingco.com
"Stadium Pizza - Murrieta","32278 Clinton Keith Rd Ste 101",,Wildomar,CA,92595-7314,"(951) 678-7826",brewpub,http://www.stadiumpizza.com
"Stadium Pizza Main ST","169 N Main St",,"Lake Elsinore",CA,92530-4005,"(951) 228-2128",brewpub,http://www.stadiumpizza.com
"Standard Deviant Brewing","280 14th St",,"San Francisco",CA,94103-2420,"(415) 590-2550",micro,http://www.standarddeviantbrewing.com
"Star B Ranch",,,Ramona,CA,92065-6714,,planning,
"Stash Brewing Co","3782 Winding Creek Ln",,"Garden Valley",CA,95633-9773,"(415) 680-4181",micro,http://stashbrewingco.com
"State Brewing Co LLC","1237 W 134th St Ste 2",,Gardena,CA,90247-1962,"(310) 819-8179",micro,http://www.statebrewingco.com
"State Room Brewery","1132 4th St",,"San Rafael",CA,94901-3007,"(415) 295-7929",brewpub,http://stateroombrewery.com
"Stateline Brewery","4118 Lake Tahoe Blvd Ste 1",,"South Lake Tahoe",CA,96150-6990,"(530) 542-9000",brewpub,http://www.statelinebrewery.com
"Steady Brewing","2936 Clark Ave",,"Long Beach",CA,90815,"(562) 351-6793",micro,http://www.steadybrewing.com
"Steel Bonnet Brewing Co","20 Victor Sq Ste B",,"Scotts Valley",CA,95066-3518,"(831) 454-8429",micro,http://www.steelbon.net
"Steele and Hops Public House","1901 Mendocino Ave",,"Santa Rosa",CA,95401,"(707) 523-2201",brewpub,http://www.steeleandhops.com
"Steelhead Brewing Co - Burlingame Station","333 California Dr",,Burlingame,CA,94010-4114,"(650) 344-6050",brewpub,http://www.steelheadbrewery.com
"Stereo Brewing Co","950 S Via Rodeo",,Placentia,CA,92870-6775,"(714) 993-3390",micro,http://www.stereobrewing.com
"Stone Brewing Co","2120 Harmony Grove Rd",,Escondido,CA,92029-2053,"(760) 294-7899 Ext. 1803",regional,http://www.stonebrewing.com
"Stone Brewing Napa","920-930 Third Street",,Napa,CA,94559,"(760) 294-7899",brewpub,
"Stone Brewing World Bistro & Gardens- Liberty Station","2816 Historic Decatur Rd Ste 116",,"San Diego",CA,92106-6164,"(619) 269-2200",brewpub,http://www.stonelibertystation.com
"Stone Church Brewing","2785 Cabot Dr Ste 160",,Corona,CA,92883-7388,"(310) 567-6582",micro,http://www.stonechurchbrewing.com
"Storytellers Brewery and Meet House, LLC","109 N Maple St Ste C",,Corona,CA,92880-1798,"(909) 247-5710",micro,http://www.storytellersbrewery.com
"Stover Brewing",,,"San Diego",CA,92124-1426,"(619) 363-4677",planning,http://www.stoverbrewing.com
"Strand Brewing Co","2201 Dominguez St",,Torrance,CA,90501-1418,"(310) 517-0900",micro,http://www.strandbrewing.com
"Strike Brewing Co","2099 S 10th St Unit 30",,"San Jose",CA,95112-4116,"(650) 714-6983",micro,http://www.strikebrewingco.com
"Strum Brewing Company","235 S Campus Ave",,Ontario,CA,91761-1736,"(909) 678-6935",micro,http://www.strumbrewing.com
"Stumblefoot Brewing","1784 La Costa Meadows Dr Ste 103",,"San Marcos",CA,92078-5174,"(760) 566-3668",micro,http://www.stumblefoot.com
"Stumptown Brewery","15045 River Rd",,Guerneville,CA,95446-8043,"(707) 869-0705",brewpub,
"Sudwerk Brewing Co","2001 2nd St",,Davis,CA,95618-5474,"(530) 756-2739",micro,http://www.sudwerkbrew.com
"Sufferfest Beer Company","1770 UNION STREET",,"San Francisco",CA,94123-3404,"(415) 238-6431",proprietor,http://www.sufferfestbeer.com
"Sundowner Brewing Co.","30961 Agoura Rd Ste 321",,"Westlake Village",CA,91361-5686,"(818) 597-9463",micro,http://www.malibusundowner.com
"Sunset Reservoir Brewing Company","1735 Noriega St",,"San Francisco",CA,94122-4307,"(415) 571-8452",brewpub,http://www.sunsetbeersf.com
"Super Owl Brewing","1260 Lake Blvd Ste 121",,Davis,CA,95616-5669,"(530) 746-5992",micro,http://www.superowlbrewing.com
"Surfing Donkey",,,"Santa Monica",CA,90405-6510,,planning,http://surfingdonkey.com
"Surfridge Brewing Company",,,"El Segundo",CA,90245-4209,"(310) 847-0283",planning,http://www.surfridgebrewery.com
"Sutter Buttes Brewing","421 Center St",,"Yuba City",CA,95991-4505,"(530) 790-7999",brewpub,http://www.sutterbuttesbrewing.com
"Sweet Spot Pub and Grill","619 4th St",,"Santa Rosa",CA,95406,"(707) 528-7566",brewpub,http://www.sweetspotpub.com
"Tack Brewing",,,Oakland,CA,94618-1534,"(805) 404-4861",planning,http://www.tackbrewing.com
"Tactical OPS Brewing Inc.","2985 N Burl 102",,Fresno,CA,93727,"(559) 313-8759",proprietor,http://www.tacticalopsbrewing.com
"Tahoe Mountain Brewing Company","475 N. Lake Blvd",,"Tahoe City",CA,96145,"(530) 581-4677",brewpub,http://www.tahoebrewing.com
"Tahoe Mountain Brewing Company","10990 Industrial Way Ste B104",,Truckee,CA,96161-0258,,micro,http://tahoebrewing.com/
"Tannery Bend Beerworks","101 South Coombs Street Suite X",,Napa,CA,94559,"(707) 681-5774",brewpub,http://www.tannerybendbeerworks.com
"Tap and Vine","907 Lincoln Way",,Auburn,CA,95603,"(530) 889-8463",brewpub,http://www.tapandvineauburn.com
"Tap It Brewing Co","675 Clarion Ct Ste 1",,"San Luis Obispo",CA,93401-8178,"(805) 545-7702",micro,http://www.tapitbrewing.com
"Taplands Brewery","1171 Homestead Rd Ste 110",,"Santa Clara",CA,95050-5479,"(408) 709-2990",brewpub,http://www.taplands.com
"TAPS Brewery and Barrel Room","15501 Red Hill Ave",,Tustin,CA,92780-7302,,brewpub,
"TAPS Fish House and Brewery - Brea","101 E Imperial Hwy",,Brea,CA,92821-4924,"(714) 257-0101",brewpub,http://www.tapsbrea.com
"TAPS Fish House and Brewery - Corona","2745 Lakeshore Dr",,Corona,CA,92883-7367,"(951) 277-5800",brewpub,
"Tarantula Hill Brewing Company",,,"Thousand Oaks",CA,91360,"(619) 995-1731",planning,
"Tarla Mediterranean Bar and Grill","1480 1st St",,Napa,CA,94559-2843,"(707) 255-5599",brewpub,http://www.tarlagrill.com
"Tecopa Brewing Company","368 Tecopa Hot Springs Rd",,Tecopa,CA,92389,"(760) 852-4343",brewpub,http://www.delightshotspringsresort.com
"Teeccino Brewing Company",,,Carpinteria,CA,93013-2905,"(805) 966-0999",planning,http://www.teeccino.com
"Telegraph Brewing Co","418 N Salsipuedes St",,"Santa Barbara",CA,93103-3127,"(805) 963-5018",micro,http://www.telegraphbrewing.com
"Temblor Brewing Company","3200 Buck Owens Blvd Ste 200",,Bakersfield,CA,93308-6376,"(661) 489-4855",brewpub,http://www.temblorbrewing.com
"Temescal Brewing","4115 Telegraph Ave",,Oakland,CA,94609-2405,"(510) 899-5628",micro,http://www.temescalbrewing.com
"Ten Mile Brewing","1136 E Willow St",,"Signal Hill",CA,90755-3433,"(562) 612-1255",micro,http://www.tenmilebrewing.com
"Tent City Beer Company","6760 El Camino Real",,Atascadero,CA,93422-4205,"(805) 460-6454",micro,http://www.tentcitybeer.com
"The Bell Marker","602 Broadway Ste 101",,"San Diego",CA,92101-5449,,brewpub,http://www.thebellmarker.com
"The Blue Poppy Brewery",,,"Yorba Linda",CA,92886-7300,,planning,
"The Booth Brewing Co.","123 W 3rd St",,Eureka,CA,95501-0222,"(707) 572-5728",micro,http://www.theboothbrewing.com
"The Brewhouse","229 W Montecito St",,"Santa Barbara",CA,93101-3824,"(805) 963-2739",brewpub,http://www.brewhousesb.com
"The Brewing Lair","67007 CA Hwy 70",,Blairsden-Graeagle,CA,96103-1651,"(530) 394-0940",micro,http://www.thebrewinglair.com
"The Dancing Fox","203 S School St",,Lodi,CA,95240-3511,"(209) 366-2634",brewpub,http://www.dancingfoxwinery.com
"The Fat Cat Beer Co","7979 Ivanhoe Ave Ste 555",,"La Jolla",CA,92037-4570,,contract,http://www.fatcatbeers.com
"The Feinics Company, Inc.",,,"Pollock Pines",CA,95726-9751,"(916) 300-3049",planning,
"The Good Beer Company, Inc.","309 W 4th St",,"Santa Ana",CA,92701-4502,"(714) 714-2988",micro,http://www.thegoodbeerco.com
"The Mason Jar Brewing Company","29683 New Hub Dr Ste A",,Menifee,CA,92586-6545,"(951) 244-5277",micro,http://www.masonjarbrewing.com
"The Rare Barrel","940 Parker St",,Berkeley,CA,94710,"(510) 984-6585",micro,http://www.therarebarrel.com
"The Runway By Patrick","2044 Airport Rd",,Napa,CA,94558-6208,"(707) 258-6115",brewpub,http://www.therunwaybypatrick.com
"The Stalking Horse","10543 West Pico Blvd",,"Los Angeles",CA,90064,"(424) 832-7511",brewpub,http://www.thestalkinghorsepub.com
"There Does Not Exist",,,"San Luis Obispo",CA,93401,,planning,http://www.theredoesnotexist.com
"Third Street Aleworks","610 3rd St",,"Santa Rosa",CA,95404-4418,"(707) 523-3060",brewpub,http://www.thirdstreetaleworks.com
"Third Window Brewing","406 E Haley St Ste 3",,"Santa Barbara",CA,93101-1740,"(805) 979-5090",brewpub,http://www.thirdwindowbrewing.com
"ThirstyBear Organic Brewery","661 Howard St",,"San Francisco",CA,94105-3915,"(415) 974-0905",brewpub,http://www.thirstybear.com
"Thompson Brewing Co","9900 Indiana Ave Ste 7",,Riverside,CA,92503-5498,"(951) 956-0480",brewpub,http://www.thompsonbrewing.com
"Thorn Brewing Co","1745 National Ave.",,"San Diego",CA,92113-1010,,micro,
"Thorn Street Brewery","3174 Thorn St",,"San Diego",CA,92104-4636,"(619) 501-2739",micro,http://www.thornstreetbrew.com
"Thr3e Punks Ale","259 Third Ave",,"Chula Vista",CA,91910-2721,"(619) 857-9092",micro,http://3punkales.com/red/index.html
"Three Forks Bakery & Brewing Company","211 Commercial St",,"Nevada City",CA,95959-2506,"(530) 470-8333",brewpub,http://threeforksnc.com
"Three Mile Brewing Co","231 G St",,Davis,CA,95616-4549,"(530) 564-4351",micro,http://www.threemilebrewing.com/
"Three Monkeys Brewing Co","455 S Pine St Ste 3",,Madera,CA,93637-5242,"(559) 363-2709",contract,http://www.3monkeysbrewing.com
"Three Rivers Brewing Co","41763 Sierra Dr Ste B",,"Three Rivers",CA,93271-9671,"(559) 909-5483",micro,http://www.threeriversbrewingco.com
"Three Stacks and A Rock Brewing Co","3118 Main St Ste D",,"Morro Bay",CA,93442-1346,"(805) 771-9286",brewpub,http://threestacksandarockbrewing.com
"Three Weavers Brewing Company","1031 W Manchester Blvd Unit A-B",,Inglewood,CA,90301-1509,"(310) 400-5830",micro,http://www.threeweavers.la
"Thunderhawk Alements","8675 Miralani Dr Ste 100",,"San Diego",CA,92126-4355,"(619) 952-4832",micro,http://thunderhawkbeer.com
"Tied House Cafe and Brewery-Mtn View","954 Villa St",,"Mountain View",CA,94041-1236,"(650) 965-2739",brewpub,http://www.tiedhouse.com
"Tilted Mash Brewery","9175 Union Park Way",,"Elk Grove",CA,95624-2792,,micro,http://www.tiltedmash.com
"Timeless Pints Brewing Co","3671 Industry Ave Ste C1",,Lakewood,CA,90712-4155,"(562) 490-0099",micro,http://www.timelesspints.com
"Tioga-Sequoia Brewing Co","746 Broadway St",,Fresno,CA,93721-2808,"(559) 264-5521",micro,http://www.tiogasequoia.com
"Toolbox Brewing Company","1495 Poinsettia Ave Ste 148",,Vista,CA,92081-8539,"(760) 598-1477",micro,http://toolboxbrewing.com
"Topa Topa Brewing Co","104 E Thompson Blvd",,Ventura,CA,93001-2723,"(805) 628-9255",micro,http://www.topatopabrewingco.com
Topsy's,"260 Kearny St",,"San Francisco",CA,94108-4538,"(415) 757-0290",brewpub,http://www.topsyssf.com
"Toro Creek Brewing Co","1111 Riverside Ave, Ste 103",,"Paso Robles",CA,93446,"(805) 550-7007",micro,http://www.torocreekbrewingcompany.com
"Tortugo Brewing Company","916 W Hyde Park Blvd",,Inglewood,CA,90302-3308,,micro,
"Touchstone Brewing Company",,,Sacramento,CA,95811-0618,"(415) 570-1391",planning,
"Towne Park Brew Co","1566 W Lincoln Ave",,Anaheim,CA,92801-5850,"(949) 647-3562",micro,http://www.towneparkbrew.com
"Toy Soldier","52 Belden Pl",,"San Francisco",CA,94104,"(415) 906-9048",brewpub,http://www.toysoldiersf.com
"Track 7 Brewing Co - Curtis Park","3747 W Pacific Ave Ste F",,Sacramento,CA,95820-1000,"(916) 520-4677",micro,http://www.track7brewing.com
"Track 7 Brewing Co - Natomas","826 Professor Ln Ste 100",,Sacramento,CA,95834-7743,"(916) 520-4677",micro,
"Trade Brewing","731 1st St",,Napa,CA,94559-2624,"(707) 492-8223",micro,http://www.tradebrewing.com
"Trademark Brewing",,,"Long Beach",CA,90813,"(562) 308-7722",planning,http://www.trademarkbrewing.com
"Trader Joes - West Coast Office","800 S. Shamrock Ave",,Monrovia,CA,91016,"(626) 599-3700",contract,
"Trail Dog Brewing Co.",,,Novato,CA,94945-3318,"(415) 758-0411",planning,http://traildogbrewing.com
"Transmission Brewing Company",,,Oxnard,CA,93030-8231,"(805) 407-6133",planning,http://jonkercarey@gmail.com
"Transplants Brewing Company","40242 La Quinta Ln Ste 101",,Palmdale,CA,93551-3630,"(661) 266-7911",micro,http://www.transplantsbrewing.com
"Triple Rock Brewery and Alehouse","1920 Shattuck Ave",,Berkeley,CA,94704-1022,"(510) 843-2739",brewpub,http://www.triplerock.com
"Triple Voodoo Brewing Co","2245 3rd St",,"San Francisco",CA,94107-3125,"(415) 598-8811",micro,http://www.triplevoodoo.com
"True Symmetry Brewing Company","315 Marina Ctr",,"Suisun City",CA,94585-2518,"(707) 202-6000",micro,http://www.truesymmetry.beer
"Trumer Brewery","1404 4th St",,Berkeley,CA,94710-1323,"(510) 526-1160",regional,http://www.trumer-international.com
"Tustin Brewing Co","13011 Newport Ave Ste 100",,Tustin,CA,92780-3517,"(714) 665-2337",brewpub,http://www.tustinbrewery.com
"TUYA SuperBrewing Co.",,,"Santa Cruz",CA,95062-1411,"(844) 487-8892",planning,http://www.tuyasuperbrew.com
"TW Pitchers Brewing Co","1329 17th Ave",,"San Francisco",CA,94122-1912,"(415) 999-2009",contract,http://www.twpitchers.com
"Two Coast Brewing Co.","1866 W 169th St Ste H",,Gardena,CA,90247-5231,"(310) 730-0055",contract,http://www.twocoastbrewing.com
"Two Dude Brew",,,Clearlake,CA,95422-8159,"(707) 533-7600",planning,
"Ukiah Brewing Co","102 S State St",,Ukiah,CA,95482-4903,"(707) 468-5898",brewpub,http://www.ukiahbrewingco.com
"Uncommon Brewers","303 Potrero St Ste 40H",,"Santa Cruz",CA,95060-2778,"(831) 621-6270",micro,http://www.uncommonbrewers.com
"Underground Brewing Co.","3940 Broad St # 7415",,"San Luis Obispo",CA,93401-7017,,brewpub,
"Unsung Brewing Company","1332 Bell Ave Ste 2D",,Tustin,CA,92780-6439,,micro,
"Unsung Brewing Company- Taproom","500 S Anaheim Blvd Ste B",,Anaheim,CA,92805-4725,,micro,
"Uproar Brewing","439 S 1st St",,"San Jose",CA,95113-2816,"(408) 673-2266",brewpub,http://www.uproarbrewing.com
"Upshift Brewing Company LLC",,,"El Segundo",CA,90245-4419,"(310) 259-1924",planning,
"Urban Roots Brewing","1322 V St",,Sacramento,CA,95818-1418,"(916) 706-3741",brewpub,http://www.urbanrootsbrewing.com
"Urge Gastropub & Common House/Mason Ale Works","255 Redel Rd",,"San Marcos",CA,92078-4347,,brewpub,
"Valley Brewing Co","157 W Adams St",,Stockton,CA,95204-5337,"(209) 464-2739",brewpub,http://www.valleybrew.com
"Venice Ale House Brewing Co","2 Rose Ave",,Venice,CA,90291-2411,"(310) 314-8253",contract,http://www.venicealehouse.com
"Venice Duck Brewery",,,Venice,CA,90291-3833,"(310) 383-4927",contract,http://www.veniceduckbrewery.com
"Ventura Coast Brewing Company","76 S Oak St",,Ventura,CA,93001-2702,"(805) 667-8640",micro,http://www.vcbc.beer
"Verdugo West Brewing Company","156 W Verdugo Ave",,Burbank,CA,91502-2132,"(818) 841-5040",micro,http://www.verdugowestbrewing.com
"Viewpoint Brewing Co","2201 San Dieguito Dr Ste F",,"del Mar",CA,92014-2257,"(858) 356-9346",brewpub,http://www.viewpointbrewing.com
"Waganupa Brewing","289 Clifford Dr Unit B",,"Lake Almanor",CA,96137-9641,"(530) 259-3705",micro,http://www.waganupa.com
"Waterman Brewing Company","9824 Dino Dr Unit 150",,"Elk Grove",CA,95624-1277,"(916) 714-2337",micro,http://www.watermanbrewing.com
"Wavelength Brewing Company","236 Main St",,Vista,CA,92084-6008,"(760) 820-9283",micro,http://www.wavelengthbrewco.com
"Westlake Brewing & Libation","31111 Via Colinas # 200",,"Thousand Oaks",CA,91362-3909,"(747) 222-7231",micro,http://westlakebrewingcompany.com
"White Labs Tasting Room","9495 Candida St",,"San Diego",CA,92126-4541,"(858) 693-3441",micro,http://www.whitelabs.com
"Whole Foods Market Brewing Company- Floodcraft Brewing","777 The Alameda",,"San Jose",CA,95126-3155,"(408) 207-1126",brewpub,http://floodcraftbrewing.com/
"Wicks Brewing Company LLC","11620 Sterling Ave Ste C",,Riverside,CA,92503-4904,"(951) 689-2739",brewpub,http://wicksbrewing.com
"Wiens Brewing Co","27941 Diaz Rd Ste A",,Temecula,CA,92590-3484,"(951) 694-9892",micro,http://www.weinsbrewing.com
"Wild Barrel Brewing Company","692 Rancheros Dr",,"San Marcos",CA,92069-3005,"(760) 593-4785",micro,http://www.wildbarrelbrewing.com
"Wildcard Brewing Company","9565 Crossroads Dr",,Redding,CA,96003-6814,"(530) 722-9239",micro,http://www.wildcardbrewingco.com
"Wiretap Brewing Corporation","341B South Avenue 17",,"Los Angeles",CA,90031,,micro,http://www.wiretapbrewing.com
"Wolf Creek Brewery","25108 Rye Canyon Loop",,Valencia,CA,91355-5004,"(661) 263-9653",micro,
"Woodfour Brewing Company","6780 Depot St Ste 160",,Sebastopol,CA,95472-3462,"(707) 823-3144",brewpub,
"Woodhouse Blending & Brewing",,,"Santa Cruz",CA,95060-,"(619) 888-9489",planning,
"Woods Bar & Brewery","1701 Telegraph Ave",,Oakland,CA,94612-2107,"(415) 509-1695",brewpub,http://www.woodsbeer.com
"Woods Beer Company","1701 Telegraph Ave",,Oakland,CA,94612-2107,"(415) 814-9212",brewpub,http://woodsbeer.com
"Woods CervecerÃ­a","3801 18th St",,"San Francisco",CA,94114-2615,"(415) 273-9295",brewpub,http://www.cerveceriasf.com
"Woody's Brewery","1257 Oregon St",,Redding,CA,96001-0414,"(530) 768-1034",brewpub,http://www.woodysbrewing.com
"Working Man Brewing Co","5542 Brisa St Ste F",,Livermore,CA,94550-2524,"(925) 269-9622",micro,http://www.workingmanbrewing.com
"Ximix Craft Exploration","13723 1/2 Harvard Pl",,Gardena,CA,90249-2527,"(760) 333-2351",micro,http://www.ximixcraft.com
"Yeti Restaurant","190 Farmers Ln",,"Santa Rosa",CA,95405-4703,"(707) 521-9608",brewpub,http://www.yetirestaurant.com
"Yolo Brewing Co","1520 Terminal St",,"West Sacramento",CA,95691-3814,"(916) 379-7585",micro,http://www.yolobrew.com
"Yorkshire Square Brewing Co.","1109 Van Ness Ave",,Torrance,CA,90501-2236,"(424) 376-5115",micro,http://www.yorkshiresquarebrewery.com
"Zone 9 Brewing Company","1450 Tollhouse Rd Ste 105",,Clovis,CA,93611-0503,"(559) 260-0539",micro,
"Zymurgy Brew Works","22755 Hawthorne Blvd",,Torrance,CA,90505-3613,"(310) 650-2474",micro,http://www.zymurgybrewworks.com
