name,address,city,state,zip,phone,type,url
"902 Brewing Co","902 Washington St.",Hoboken,NJ,07030-5106,,contract,http://www.902brewing.com
"Angry Erik Brewing","10 Millpond Dr Unit 8",Lafayette,NJ,07848-3825,"(862) 432-9003",micro,http://www.angryerik.com
"Anheuser-Busch InBev â€“ Newark","200 US Highway 1",Newark,NJ,07114-2298,"(973) 645-7700",large,http://www.anheuser-busch.com
"Artisan's Brewery & Italian Grill","1171 Hooper Ave","Toms River",NJ,08753-8305,"(732) 244-7566",brewpub,http://www.artisanstomsriver.com
"Asbury Park Community Brewery",,"Asbury Park",NJ,07712,"(609) 602-0268",planning,
"Backward Flag Brewing",,,,,"(267) 253-0465",planning,http://www.backwardflagbrewing.com
"Beach Haus Brewery","801 Main St",Belmar,NJ,07719-2705,"(732) 202-7782",contract,http://www.beachhausbeer.com
"Belford Brewing Company","84 Leonardville Rd",Belford,NJ,07718-1144,"(732) 769-7168",micro,http://www.belfordbrewing.com
"Berlin Brewing Company",,Berlin,NJ,08009-1902,,planning,http://www.berlinbrewco.com
Birravino,"183 Riverside Ave","Red Bank",NJ,07701-1015,"(732) 842-5990",brewpub,http://www.birravino.com
"Boak Brewing Co","262 Wanaque Ave Rear","Pompton Lakes",NJ,07442-2116,"(973) 570-6381",contract,http://www.boaks.com
"Bolero Snort Brewery","65 Railroad Ave","Ridgefield Park",NJ,07660-1321,"(201) 819-3527",contract,http://www.bolerosnort.com
"Brewery In Planning - Blairstown",,Blairstown,NJ,07825,"(973) 600-8236",planning,
"Brewery In Planning - Bogota",,Bogota,NJ,7603,,planning,
"Brewery In Planning - Broomfield",,,,,,planning,
"Brewery In Planning - Chester",,Chester,NJ,7930,,planning,
"Brewery In Planning - Great Meadows",,"Great Meadows",NJ,07838,,planning,
"Brewery In Planning - Mahwah",,Mahwah,NJ,7430,,planning,
"Brewery In Planning - Montclair",,Montclair,NJ,7043,,planning,
"Brewery In Planning - Philadelphia",,Southampton,NJ,08088,"(303) 345-3966",planning,
"Brewery In Planning - Pitman, NJ.",,,,,,planning,
"Brewery In Planning - Princeton",,,,,,planning,
"Brewery In Planning - Whitehouse Station",,,,,,planning,
"Brewery In Planning- Chandler, AZ.",,Kingston,NJ,85286,,planning,
"Brewery In Planning- Kearny, NJ.",,,,,,planning,
"Brewery In Planning- Nutley, NJ.",,,,,,planning,
"Brix City Brewing","4 Alsan Way","Little Ferry",NJ,07643-1001,"(201) 440-0865",micro,http://www.brixcitybrewing.com
"Bulkhead Brewing Company",,,,,,planning,
"Cape May Brewing Company","1288 Hornet Rd","Rio Grande",NJ,08242-2210,"(609) 849-9933",micro,http://www.capemaybrewery.com
"Carton Brewing Co","6 E Washington Ave","Atlantic Highlands",NJ,07716-1230,"(732) 654-2337",micro,
"Climax Brewing Co","112 Valley Rd","Roselle Park",NJ,07204-1402,"(908) 620-9585",micro,http://www.climaxbrewing.com
"Conclave Brewing",,Flemington,NJ,08822-5750,,planning,http://www.conclavebrewing.com
"Cricket Hill Brewing Co, Inc","24 Kulick Rd",Fairfield,NJ,07004-3308,"(973) 276-9415",micro,http://www.crickethillbrewery.com
"Cypress Brewing Company",,Edison,NJ,08837,,planning,http://www.cypressbrewing.com
"Czig Meister Brewing Co.",,Blairstown,NJ,07825-4000,,planning,
"Dark City Brewing Company",,"Asbury Park",NJ,07712-5944,,planning,http://www.darkcitybrewing.com
"Demented Brewing Co.","600 Lincoln Blvd",Middlesex,NJ,08846-2443,,contract,http://www.dementedbrewing.com
"Departed Soles Brewing","150 Bay Street, Commercial Side Suite 2A","Jersey City",NJ,07302-2900,"(201) 479-8578",micro,http://www.departedsoles.com
"East 5th Brewing Company",,,,,,planning,
"Egan & Sons","118 Walnut St",Montclair,NJ,07042-3852,"(973) 744-1413",brewpub,http://www.eganandsons.com
"Flounder Brewing Co","1 Ilene Ct Ste 8 Ste 16",Hillsborough,NJ,08844-1916,"(908) 396-6166",micro,http://www.flounderbrewing.com
"Flying Fish Brewing Co","900 Kennedy Blvd",Somerdale,NJ,08083-1031,"(856) 489-0061",regional,http://www.flyingfish.com
"Forgotten Boardwalk Brewing, LLC","1940 Holmey Ave Ste 100","Cherry Hill",NJ,08003,"(856) 437-0709",micro,http://www.forgottenboardwalk.com
"Garden State Beer Company",,,,,"(609) 232-2337",planning,http://www.gardenstatebeerco.com
"Gaslight Brewery and Restaurant","15 S Orange Ave","South Orange",NJ,07079-1716,"(973) 762-7077",brewpub,http://www.gaslightbrewery.com
"Glasstown Brewing","10 Peterson St",Millville,NJ,08332-4818,"(856) 327-7770",brewpub,http://www.glasstownbrewingco.com
"Harvest Moon Brewery/Cafe","392 George St","New Brunswick",NJ,08901-2018,"(732) 249-6666",brewpub,http://www.harvestmoonbrewery.com
"Hidden Sands Brewing Company LLC",,"Egg Harbor Township",NJ,08234-3807,,planning,http://www.aibrew.com
"High Point Brewing Co, Inc.","22 Park Pl",Butler,NJ,07405-1377,"(973) 838-7400",micro,http://www.ramsteinbeer.com
"Iron Hill Brewery & Restaurant - Maple Shade","124 E Kings Hwy Ste 301","Maple Shade",NJ,08052-5405,"(856) 273-0300",brewpub,
"Iron Hill Brewery & Restaurant - Voorhees","13107 Town Center Blvd",Voorhees,NJ,08043-2668,"(302) 888-2739",brewpub,http://www.ironhillbrewery.com
"J.J. Bitting Brewing Co.","33 Main St",Woodbridge,NJ,07095-3335,"(732) 634-2929",brewpub,http://www.njbrewpubs.com
"Jersey Girl Brewing Company",,Hackettstown,NJ,07840-5535,"(908) 591-4186",planning,http://www.jerseygirlbrewing.com
"Kane Brewing","1750 Bloomsbury Ave",Ocean,NJ,07712-3941,"(732) 922-8600",micro,http://www.kanebrewing.com
"Krogh's Restaurant and Brewpub","23 White Deer Plz",Sparta,NJ,07871-1823,"(973) 729-8428",brewpub,http://www.kroghs.com
"Little Dog Brewing Co.","141 Steiner Avenue",Neptune,NJ,07753-6500,,micro,http://www.gretchenbrew.com
"Long Valley Pub and Brewery","PO Box 401","Long Valley",NJ,07853-0401,"(908) 876-1122",brewpub,http://www.longvalleypubandbrewery.com
"Lower Forge Brewery & Distillery",,Medford,NJ,08055-2414,,planning,http://www.lowerforge.com
"Lunacy Brewing Company","214 West Davis Rd",Magnolia,NJ,08049-1215,"(856) 282-6300",brewpub,http://www.lunacybrewingcompany.com
"Magnify Brewing Company","1275 Bloomfield Ave Building 7, Unit 40C",Fairfield,NJ,07004,,micro,http://www.magnifybrewing.com
"Man Skirt Brewing Co",,Hackettstown,NJ,07840-1930,,planning,http://www.manskirtbrewing.com
"New Jersey Beer Co","4201 Tonnelle Ave","North Bergen",NJ,07047-2430,"(551) 482-2013",contract,
"Oak & Iron Brewing Co",,Sparta,NJ,07871-4003,,planning,
"Pinelands Brewing","140 7th Ave Unit 15","Little Egg Harbor Twp",NJ,08087-4259,"(609) 296-6169",micro,http://www.pinelandsbrewing.com
"Pizzeria Uno Chicago Grill and Brewery","61 US Highway 1",Metuchen,NJ,08840-2931,"(732) 548-7979",brewpub,http://www.pizzeriauno.com
Q-Brewing,,"Long Branch",NJ,07740,"(973) 573-2634",planning,
"Rinn Duin Brewing","1540 Route 37 W","Toms River",NJ,08755-5055,"(732) 569-3261",micro,http://www.rinnduinbrewing.com
"River Horse Brewing Company","2 Graphics Dr",Ewing,NJ,08628-1546,"(609) 883-0890",micro,http://www.riverhorse.com
"Saint William Brewery",,Hillsborough,NJ,08844-4654,"(908) 229-4099",planning,http://www.saintwilliambrewery.blogspot.com
"Screamin Hill Brewery",,"Cream Ridge",NJ,08514,,planning,
"Ship Inn, The","PO Box 497 61 Bridge St/",Milford,NJ,08848-0497,"(908) 995-0188",brewpub,http://www.britishbrewpub.com
"Spellbound Brewing","10 Lippincott Ln Unit 12","Mount Holly",NJ,08060-1603,"(609) 744-0665",micro,http://www.spellboundbrewing.com
"The Alementary",,,,,,planning,http://www.alementary.com
"The Hearthstone Grill & Brewery","306 Gatzmer Avenue",Jamesburg,NJ,08831-1178,"(732) 605-1800",brewpub,
"The Whitechapel Projects",,"Long Branch",NJ,07740-6703,"(732) 721-0890",planning,http://www.whitechapelprojects
"Third State Brewing","352 High St. PO Box 87",Burlington,NJ,08016-4412,"(609) 387-1620",micro,http://www.thirdstatebrewing.com
"Three 3's Brewery",,Hammonton,NJ,08037,"(856) 524-0848",planning,
"Tomfoolery Brewing",,Hammonton,NJ,08037-1538,"(609) 878-0108",planning,http://www.tomfoolerybrewing.com
"Trap Rock Restaurant and Brewery","279 Springfield Ave","Berkeley Heights",NJ,07922-1214,"(908) 665-1755",brewpub,http://www.traprockrestaurant.net
"Triumph Brewing Co of Princeton","138 Nassau St Ste A",Princeton,NJ,08542-7011,"(609) 924-7855",brewpub,http://www.triumphbrew.com
"Tuckahoe Brewing Co","9 Stoney Ct","Ocean View",NJ,08230-1041,"(609) 827-5375",micro,http://www.tuckahoebrewing.com
"Tun Tavern Brewery and Restaurant","2 Convention Blvd Ste 3","Atlantic City",NJ,08401-4137,"(609) 347-7800",brewpub,http://www.tuntavern.com
"Two Ton Brewing",,Linden,NJ,07036-2448,,planning,http://www.twotonbrewing.com
"Village Idiot Brewing Company","42 High St.","Mount Holly",NJ,08060-1702,"(609) 975-9270",micro,http://www.villageidiotbrewing.com
