name,address1,address2,city,state,zip,phone,type,url
"12 Bar Brewing","Unit 7 Crest Industrial Estate Pattenden Lane","Marden, United Kingdom",,,,,micro,
"360 Degree Brewing Company","Bluebell Business Estate Sheffield Park","Uckfield, United Kingdom",,,,"+44 1825 722375",micro,
"8 Sail Brewery","4 Hale Rd","Heckington, United Kingdom",,,,"+44 1529 469308",micro,
"Abbeydale Brewery","Unit 8 Aizlewood Rd","Sheffield, United Kingdom",,,,"+44 114 281 2712",micro,http://www.abbeydalebrewery.co.uk/
"Acorn Brewery of Barnsley Ltd.","Unit 3 Mitchell Rd Wombwell","Barnsley, United Kingdom",,,,"+44 1226 270734",micro,http://acorn-brewery.co.uk/
"Acton Ales","2 Castle Island Way North Seaton","Northumberland, United Kingdom",,,,"077 0770 3182",micro,http://www.actonales.com
"Adnams PLC-Sole Bay Brewery","Sole Bay Brewery","Southwold, United Kingdom",,,,,regional,http://www.adnams.co.uk
"Adnams Southwold",,"Southwold, United Kingdom",,,,"+44 1502 727200",planning,http://www.adnams.co.uk
"Ainsty Ales Brewery","Manor Farm Buildings Intake Lane","Acaster Malbis, United Kingdom",,,,"+44 7983 604989",micro,
"Alcazar Brewery/Fox & Crown Brewpub","33 Church St","Nottingham, United Kingdom",,,,"+44 115 942 2002",micro,
"Ales of Scilly","2B Porthmellon Business Park","St. Mary's, United Kingdom",,,,"+44 7737 721599",micro,
"Alfred's Brewery","5b Scylla Industrial Estate Winnall Valley Road","Winchester, United Kingdom",,,,"+44 1962 859999",micro,
"Allendale Brew Company Ltd.","Allen Mill Allendale","Hexham , United Kingdom",,,,"+44 1434 618686",micro,http://www.allendalebrewery.com/
"Allied-lyons Plc","24 Portland Pl","London, United Kingdom",,,,"020 7323 9000",large,
"Amber Ales Ltd.","Unit 7 Benjamin Outram Business Centre Whiteley Road","Ripley, United Kingdom",,,,"44 01773 512 864",micro,http://www.amberales.co.uk/
"Ampthill Brewery Limited","Unit D The Sidings Station Rd Industrial Estate","Ampthill, United Kingdom",,,,"+44 7508 305754",micro,
"Anarchy Brew Co.","Whitehouse Farm Centre Stannington","Northumberland, United Kingdom",,,,"44 01670 789 755",micro,http://anarchybrewco.com/
"Arbor Ales","181 Easton Rd","Bristol, United Kingdom",,,,"+44 117 329 2711",micro,
"Archers Ales LTD","Penzance Dr","Swindon, Wilts, United Kingdom",,,,"(179) 387-9929",micro,
"Arran Brewery","Cladach Isle of Arran","Brodick, United Kingdom",,,,"+44 1770 302353",micro,http://www.arranbrewery.com
"Ascot Ales Ltd","Unit 5 Compton Place Business Centre Surrey Avenue","Camberley, United Kingdom",,,,"+44 1276 686696",micro,
"Ashleyhay Brewery","New Buildings Farm Lane End","Ashleyhay, United Kingdom",,,,,micro,https://www.facebook.com/ashleyhaybrewery.co.uk
"Ashover Brewery","Unit 1 Kershaw Buildings Derby Road Business Park","Clay Cross, United Kingdom",,,,"+44 1246 251859",micro,
"Atom Brewing Co.","Malmo Rd","Hull, United Kingdom",,,," +44 1482 820572",micro,http://www.atombeers.com/
"Axholme Brewing Company","7 Lakes Country Side Park Wharf Road","Scunthorpe, United Kingdom",,,,"+44 1724 781804",micro,
"Baa Brewing Ltd.","Unit 4, Station Yard Industrial Estate","Chepstow, United Kingdom",,,,,micro,
"BAD Co. Brewing","3 Dishforth Airfield North Hill Road","Dishforth, United Kingdom",,,,"+44 1423 324005",micro,http://wearebad.co
"Bad Seed Brewery","7 Rye Close Malton","North Yorkshire, United Kingdom",,,,"01653 695 783",micro,http://www.badseedbrewery.com/
"Baildon Brewing Company","Unit D Tong Park Business Centre Otley Road","Baildon, United Kingdom",,,,"07914 025 148",micro,http://baildonbrewing.co.uk/
"Bank Top Brewery","The Pavilion Ashworth Lane","Bolton, United Kingdom",,,,"+44 1204 595800",micro,
"Barney's Beer","1 Summerhall Place","Edinburgh, United Kingdom",,,,"+44 7512 253660",micro,http://barneysbeer.co.uk/
"Barngates Brewery-The Drunken Duck Inn",Barngates,"Ambleside, United Kingdom",,,," +44 15394 36347",micro,http://www.drunkenduckinn.co.uk
"Barrell & Sellers","Spring Farm St Cross South Elmham","Harleston, United Kingdom",,,,"07788 561455",micro,
"Barum Brewery","Reform St","Barnstaple, United Kingdom",,,," +44 1271 329994",micro,
"Bass Brewers","Manor Park","Alton, United Kingdom",,,,04520541177,regional,
"Battledown Brewing Co","London Road Dowdeswell","Charlton Kings, United Kingdom",,,,"+44 7734 834104",micro,http://www.battledownbrewery.com
"Battlefield Brewery Ltd","Harlescott Lane","Shrewsbury, United Kingdom",,,,"+44 1743 465000",micro,
"Bays Brewery","Aspen Way","Paignton, United Kingdom",,,,"+44 1803 555004",micro,
"Beartown Brewery","Bromley House Spindle Street","Congleton, United Kingdom",,,,"44 1260 299964",micro,
"Beat Ales","Old Coach House Church Road","North Curry, United Kingdom",,,,"+44(0)7821 132 297",micro,
"Beath Brewing Ltd.","54 Foulford Rd.","Cowdenbeath, United Kingdom",,,,"+44 7792 369678",micro,http://www.beathbrewing.com/
"Beavertown Brewery","Unit 17-18 Lockwood Industrial Park","Tottenham Hale, United Kingdom",,,,"+44 20 8525 9884",regional,http://www.beavertownbrewery.co.uk
"Beehive Brae","3/3 Etna Estate Clamp Road","Wishaw, United Kingdom",,,,"01698 580 572",micro,http://beehivebrae.uk
"Beeston Brewery","Fransham Road Farm Beeston","Kings Lynn, United Kingdom",,,,"+44 1328 700844",micro,
"Bellfield Brewery Ltd","46 Stanley Place Abbeyhill","Edinburgh, United Kingdom",,,,"44 (131) 656-9390",contract,http://www.bellfieldbrewery.com
"Bellingers Brewery","Station Road","Grove, United Kingdom",,,,"+44 1235 772255",micro,
"Bespoke Brewing Company","The Mews Brook Street","Mitcheldean, United Kingdom",,,,"+44 1594 546426",micro,
"Bewdley Brewery Limited","Unit 7, Bewdley Craft Centre Lax Lane","Bewdley, United Kingdom",,,,"01299 405148",micro,
"Bexley Brewery Ltd","18 Manford Industrial Estate Manor Road","Erith, United Kingdom",,,,"+44 1322 337368",micro,
"Big Beer Co TA Left Handed Giant Brewing","Unit 8 & 9 Wadehurst Industrial Park","Bristol, United Kingdom",,,,,micro,
"Big Bog Brewing Company","74 Venture Point West Evans Road","Speke, United Kingdom",,,,"+44 151 558 0290",micro,
"Big Clock Brewery","1 Manchester Road","Accrington, United Kingdom",,,,"+44 1254 393938",micro,
"Big Hand Brewing Company Ltd","Unit A1 Abbey Close Redwither Business Park","Wrexham, United Kingdom",,,,"+44 1978 660709",micro,https://www.facebook.com/bighandbrewing/
"Big Smoke Brew Co","87 Maple Road","Surbiton, United Kingdom",,,," +44 20 8339 9721",micro,
"Billericay Brewing Company","54c Chapel Street","Billericay, United Kingdom",,,,"44 01277 500 121",micro,
"Binghams Brewery Ltd","Ruscombe Twyford","Readin, United Kingdom",,,,"+44 118 934 4376",micro,
"Bingley Brewery","Unit 2 Old Mill Yard Shay Lane","Bradford, United Kingdom",,,,"+44 1535 274285",micro,http://www.bingleybrewery.co.uk/
"Bishop's Crook Brewery","Woodcroft Close Penwortham","Preston, United Kingdom",,,,"07977 220742",micro,
"Bitter End Brewing Co","15 Kirkgate","Cockermouth, United Kingdom",,,,"+44 1900 828993",micro,
"Black Country Ales","69 Third Avenue Pensnett Trading Estate","Kingswinford, United Kingdom",,,," 01384 401820",micro,
"Black Dog Brewery LTD","St Hildas Business Centre","Whitby, N Yorkshire, United Kingdom",,,,"+44 194-782-1467",contract,http://www.synthesys.co.uk/black_dog/index.htm
"Black Hole Brewery","Unit 63GF, Imex Business Park Shobnail Road","Burton-upon-Trent, United Kingdom",,,,,micro,http://www.blackholebrewery.co.uk/
"Black Iris Brewery","Unit 1 Shipstone Street","Nottingham, United Kingdom",,,,"+44 115 979 1936",micro,https://www.facebook.com/blackiris.brewery
"Black Isle Brewery","Old Allangrange","Munlochy, United Kingdom",,,,"+44 1463 811871",micro,http://www.blackislebrewery.com
"Black Paw Brewery Ltd.","Westgate Road","Bishop Auckland, United Kingdom",,,,"+44 1388 602144",micro,http://www.blackpawbrewery.co.uk/
"Black Rock Brewing","6C Empire Way","Falmouth, United Kingdom",,,,"+44 1326 379477",micro,
"Black Sheep Brewery","Wellgarth House Crosshills","Wellgarth Court, United Kingdom",,,,"+44 1765 689227",micro,http://www.blacksheepbrewery.co.uk
"Black Tor Brewery","Unit 5 Gidleys Meadow Christow","Exeter, United Kingdom",,,,"+44 1647 252120",micro,
"Black Wolf Brewery","7c Bandeath Industrial Estate","Throsk, United Kingdom",,,,"+44 1786 817000",micro,http://blackwolfbrewery.com/
"Blackedge Brewing Company Ltd","Moreton Mill Hampson Street","Horwich, United Kingdom",,,,"+44 1204 692976",micro,
"Blackhill Brewery","Unit 1a Pontop Centre Hare Law Industrial Estate","Stanley, United Kingdom",,,,"+44 1207 230632",micro,http://www.blackhillbrewery.com/
"Blackjack Beers Ltd","Irk St","Manchester, United Kingdom",,,,"+44 161 819 2767",micro,
"Blindmans Brewery","Talbot Farm Leighton","Frome, United Kingdom",,,," +44 1749 880038",micro,
"Blue Bee Brewery Ltd.","Unit 29-30 Hoyland Road Industrial Estate","Sheffield, United Kingdom",,,,"+44 7375 659349",micro,http://bluebeebrewery.co.uk
"Blue Monkey Brewing Ltd","10 Pentrich Road Giltbrook Industrial Park","Nottingham, United Kingdom",,,,"+44 115 938 5899",micro,
"Bluestone Brewing Co.","Tyriet Cilgwyn","Newport, United Kingdom",,,,"01239 820 833",micro,
"Blythe Brewery","Blythe House Farm Lichfield Road","Rugeley, United Kingdom",,,,"+44 7773 747724",micro,
"Bobage Brewing Co.","P.O. Box 96 Leeds","West Yorkshire, United Kingdom",,,,"+44 7582 409682",micro,http://www.bobagebrewing.co.uk/
"Bollington Brewing Company","Adlington Road Bollington","Cheshire, United Kingdom",,,,"+44 1625 575380",micro,
"Borough Brewery (Neath)","2 New Henry Street","Neath, United Kingdom",,,,"+44 1639 644902",micro,
"Boss Brewing Company","14 Worcester Court Mannesmann Close","Swansea, United Kingdom",,,,"07825 525 735",micro,
"Bosun's Brewing Company","Unit C2 Wakefield Commercial Park Bridge Road","Wakefield, United Kingdom",,,,"+44 1924 671881",micro,http://www.bosunsbrewery.co.uk/
"Botley Brewery","Botley Flour Mills Mill Hill","Botley, United Kingdom",,,," +44 7909 337212",micro,
"Bowland Brewery","Holmes Mill Greenacre Street","Clitheroe, United Kingdom",,,,"+44 1200 443592",micro,
"Bowman Ales Ltd","Wallops Wood Sheardley Lane","Droxford, United Kingdom",,,,"+44 1489 878110",micro,
"Box Social Brewing","Units 1-3 Winnings Courtyard Newburn","Newcastle Upon Tyne, United Kingdom",,,,"+44 191 267 1295",micro,http://www.boxsocial.pub/
"Box Steam Brewery","15 The Midlands Holt","Trowbridge, United Kingdom",,,,"+44 1225 782700",micro,
"Bradfield Brewery Ltd","Watt House Farm High Bradfield","Sheffield, United Kingdom",,,,"+44 114 285 1118",micro,
"Bradford Brewery","West 3SH 22 Rawson Road","Bradford, United Kingdom",,,,"+44 1274 397054",micro,
"Bragdy Nant Brewery","The Outbuildings Penrhwylfa","Maenan, United Kingdom",,,,"07723 036862",micro,
"Bragdy Twt Lol","Unit B27","Trefforest, United Kingdom",,,,,micro,
"Brampton Brewery","Unit 5 Chatsworth Business Park Chatsworth Road","Chesterfield, United Kingdom",,,,"+44 1246 221680",micro,
"Brandon Brewery","76 High Street","Brandon, United Kingdom",,,,"44 07876 234 689",micro,
"Brass Castle Brewery Ltd","10A Yorkersgate","Malton, United Kingdom",,,,"01653 698683",micro,
"Braunton Brewery","Unit 9 Chivenor Business Park","North Devon, United Kingdom",,,,,micro,
"Brecon Brewing","Brecon Enterprise Park","Brecon, United Kingdom",,,,"+44 1874 620800",micro,
"Brentwood Brewing Co Ltd","Calcott Hall Farm Ongar Road","Brentwood, United Kingdom",,,,"01277 200483",micro,
"BrewDog PLC","Balmacassie Industrial Estate Balmacassie Drive","Ellon, United Kingdom",,,,"+44 1358 724924",regional,
Brewmeister,"Isla Bank Mills","Keith, United Kingdom",,,,"+44 1542 488006",micro,http://keithbrewery.co.uk/
"Brewshed Brewery"," 3 The St Ingham","Bury St Edmunds, United Kingdom",,,,"01284 848066",micro,
"Briarbank Brewing Company Ipswich","70 Fore Street","Ipswich, United Kingdom",,,,"+44 1473 284000",micro,http://briarbank.org
"Brick Brewery","Blenheim Grove","London, United Kingdom",,,,"+44 7747 787636",micro,
"Bridestones Brewing","Smithy Farm Blackshaw Head","Hebden Bridge, United Kingdom",,,,"+44 1422 847104",micro,
"Bridgehouse Brewery Ltd.","Aireworth Rd","Keighley, United Kingdom",,,,"01535 642893",micro,
"Brightside Brewing Company","Dale Industrial Estate Radcliffe","Manchester, United Kingdom",,,," +44 161 725 9644",micro,
"Brimstage Brewing Company Ltd","Home Farm Brimstage Lane","Wirral, United Kingdom",,,,"0151 342 1181",micro,
"Brinkburn Street Brewery Ltd.","Quayside I4 Ouseburn Building","Newcastle Upon Tyne, United Kingdom",,,,"0191 2600688",micro,http://www.brinkburnbrewery.co.uk/
"Brixton Brewery","Arch 547 Brixton Station Road","London, United Kingdom",,,,"+44 20 3609 8880",micro,
"Broughton Ales Ltd","Main Street","Broughton Village, United Kingdom",,,,"+44 1899 830345",micro,http://www.broughtonales.co.uk
"Bude Brewery","14c Kings Hill Industrial Estate","Bude, United Kingdom",,,,"+44 1288 359937",micro,
"Burton Bridge Brewery","24 Bridge St","Burton upon Trent, Staffs, United Kingdom",,,,"(128) 351-0573",micro,
"Burton Bridge Brewery","24 Bridge Street","Burton-on-Trent, United Kingdom",,,,"+44 1283 510573",micro,
"Burton Town Brewery","Unit 8 Falcon Close","Burton Upon Trent, United Kingdom",,,,"44 1283 510839",micro,
"Buxton Brewery Co","Unit 4B Staden Business Park","Buxton, United Kingdom",,,,"44 (111) 111-1111",micro,http://www.buxtonbrewery.co.uk
"Buxton Brewery Co Ltd","4A-4B Staden Business Park Staden Ln","Staden , United Kingdom",,,,"+44 1298 24420",micro,
"By The Horns Ltd","25 Summerstown","London, United Kingdom",,,,"+44 20 3417 7338",micro,
"Byatt's Brewery Ltd","Unit 10, Lythalls Lane Lythalls Lane Industrial Estate","Coventry, United Kingdom",,,,,micro,
"Cader Ales Limited T/A CWRW Cader","Unit 4 Marian Mawr Enterprise Park","Dolgellau, United Kingdom",,,,"07931 734655",micro,
"Cairngorm Brewery Co Ltd","Unit 12 Dalfaber Industrial Estate","Aviemore, United Kingdom",,,,"+44 1479 812222",micro,
"Calverley's Brewery","23A Hooper Street","Cambridge, United Kingdom",,,,"+44 1223 312370",micro,
"Calvors Brewery","Home Farm Coddenham Green","Ipswich, United Kingdom",,,,"+44 1449 711055",micro,
"Camden Town Brewery","55-59 Wilkin St Mews","London, United Kingdom",,,,"+44 20 7485 1671",regional,
"Canopy Beer Co","Arch 1127 Bath Factory Estate 41 Norwood Road","London, United Kingdom",,,,"+44 20 8671 9496",micro,
"Captain Cook Brewery","The White Swan 1 West End","Stokesley, United Kingdom",,,,01642710263,micro,
"Carlisle Brewing Company","12A Kingstown Broadway Unit 2","Carlisle, United Kingdom",,,,"+44 1228 594959",micro,
"Carlsberg-Tetley Brewing Ltd.","Jacobsen House 140 Bridge Street","Northampton, United Kingdom",,,,"(+44) 1604 668866",large,http://www.carlsberg.co.uk
"Caythorpe Brewery","C/o The Black Horse 29 Main Street","Caythorpe, United Kingdom",,,,"01159 664933",micro,
"Cerddin Brewery","Maesteg Road","Maesteg, United Kingdom",,,,"+44 1656 732476",micro,
"Cerne Abbas Brewery","2 Mill Ln","Cerne Abbas, United Kingdom",,,,"+44 7506 303407",micro,
"Chantry Brewery","Unit 1 Callum Court Gateway Industrial Estate","Rotherham, United Kingdom",,,,"+44 1709 711866",micro,
"Charnwood Brewery","22 Jubilee Drive","Loughborough, United Kingdom",,,,"+44 1509 218666",micro,
"Cheddar Ales Ltd","Winchester Farm Draycott Road","Cheddar, United Kingdom",,,,"+44 1934 744193",micro,
"Cheshire Brew Brothers","6 Stanney Mill Ind. Est. Dutton Green","Chester, United Kingdom",,,,"+44 7890 567582",micro,
"Cheshire Brewhouse","Unit 5, Daneside Business Park Riverdane Road","Cheshire, United Kingdom",,,,"01260 274788",micro,http://www.cheshirebrewhouse.co.uk/contact/
"Church Farm Brewery","Church Farm","Budbrooke, United Kingdom",,,,,micro,
"Cloudwater Brew Co.","7-8 Piccadilly Trading Estate","Manchester, United Kingdom",,,,"+44 161 661 5943",micro,
"Coastal Brewery","Unit 10B Cardrew Industrial Estate","Cornwall, United Kingdom",,,,"44 01209 212613",micro,
"Cobra Beer","137 High Street","Burton-on-Trent, United Kingdom",,,,"+44 1283 511000",micro,http://www.cobrabeer.com
"Colchester Brewery Ltd","Wakes Hall Business Centre Colchester Rd","Colchester, United Kingdom",,,,"+44 1787 829422",micro,
"Collingham Ales","Leeds Road","Collingham, United Kingdom",,,,"01937 573 096",micro,
"Company Value Ltd.","14 Kerwin Road","Sheffield, United Kingdom",,,,+44-114-262-0810,micro,
"Compass Brewery Limited","Clare Terrace","Carterton, United Kingdom",,,,"+44 1993 846846",micro,http://compassbrewery.com/
"Concertina Brewery","Dolcliffe Rd","Mexborough, United Kingdom",,,,"+44 1709 580841",micro,
"Coniston Brewing Co","Coppermines Rd","Coniston, United Kingdom",,,,"+44 15394 41133",micro,
"Cornish Chough Brewery","Trethvas Farm The Lizard","Helston, United Kingdom",,,,"+44 1326 290908",micro,
"Corvedale Brewery","The Sun Inn  B4368","Shropshire, United Kingdom",,,,"+44 1584 861239",brewpub,
"Cotswold Lion Brewery","Grain Store 5 Dowmans Farm","Coberley, United Kingdom",,,,,micro,
"Cotswold Spring Brewing Co","Tortworth Business Park","Tortworth, United Kingdom",,,,,micro,
"Country Life Brewery"," Abbotsham Rd Abbotsham","Bideford, United Kingdom",,,,"+44 1237 420808",micro,
"Courage LTD","1 Bridge St Staines","Middlesex, United Kingdom",,,,,large,
"Crafty Brewing Company Ltd","Thatched House Farm Loxhill","Surrey, United Kingdom",,,,"+44 1483 276300",micro,
"Cromarty Brewing Co.",Glencora,"Davidston, United Kingdom",,,,"+44 1381 600440",micro,http://www.cromartybrewing.co.uk
"Cronx Brewery Ltd","Unit 6 Vulcan Business Centre Vulcan Way","New Addington, United Kingdom",,,,"+44 20 3475 8848",micro,
"Cryptic Ales Ltd","3 Carrington Field Street","Stockport, United Kingdom",,,,"0161 222 8840",micro,
"Cullercoats Brewery Ltd.","17 St Oswins Avenue Cullercoats","Tyne and Wear, United Kingdom",,,,"44 07895 692 881",micro,
"Cumbrian Legendary Ales","Old Hall Brewery Hawkshead","Cumbria, United Kingdom",,,,"01539 436 436",micro,
"Daleside Brewery","Camwal Rd","Harrogate, United Kingdom",,,,"+44 1423 880022",micro,
"Dancing Cows Ltd","Sadlers Farm Workshops Lower Pennington Lane","Lymington, United Kingdom",,,,"+44 1590 676071",micro,
"Dancing Duck Brewery","John Cooper Buildings Payne Street","Derby, United Kingdom",,,,"+44 1332 205582",micro,
"Daniel Thwaites PLC","Daniel Thwaites PLC Penny Street","Lancashire, United Kingdom",,,,"01254 686868",regional,
"Dark Horse Brewing Co","Coonlands Laithe Hetton","North Yorkshire, United Kingdom",,,,"(199) 250-9800",micro,
"Dark Revolution","Unit 9 Lancaster Road","Salisbury, United Kingdom",,,,"01722 411179",micro,
"Darwin Brewery LTD","Unit 1 West Quay Court Sunderland Enterprise Park","Sunderland, United Kingdom",,,,"+44 191 549 9450",micro,
"Dawkins Ales","Timsbury Workshop Estate Hayeswood Road","Timsbury, United Kingdom",,,,"+44 1761 472242",micro,
"Decent Brewery Ltd","Unit 1, LHS Gate House 16 Hamm Moor Lane","Addlestone, United Kingdom",,,,,micro,
"Derby Brewing Company Ltd","Masons Place Business Park Nottingham Road","Derby, United Kingdom",,,,,micro,
"Derventio Brewery Ltd","The Brew Shed Darley Abbey Mills","Darley Abbey, United Kingdom",,,," +44 1332 380199",micro,
"Digfield Ales","Lilford Lodge Farm","Peterborough, United Kingdom",,,,"+44 1832 273954",micro,
"Dorber Brewing Ltd",,"Stratford St. Mary, United Kingdom",,,,0441206321244,planning,http://www.stratfordswan.com
"Dorking Brewery","The Engine Shed Dorking West Station Yard","Dorking, United Kingdom",,,,"+44 1306 877988",micro,
"Double Maxim Beer Company Ltd","Maxim Brewery 1 Gadwall Road","Houghton Le Spring, United Kingdom",,,,"+44 (0)191 584 8844",micro,http://www.maximbrewery.co.uk
"Double Top Brewery","Unit 4 Kilton Terrace Bracebridge","Notts, United Kingdom",,,,"+44 7973 521824",micro,
"Dove Street Brewery","82 St Helens Street","Ipswich, United Kingdom",,,,"+44 1473 211270",micro,http://www.dovestreetbrewery.co.uk/pages/contact.php
"Dow Bridge Brewery","2-3 Rugby Rd","Lutterworth, United Kingdom",,,,"+44 1788 869121",micro,
"Downlands Brewery","Unit Z2a Mackley Industrial Estate Henfield Road","Henfield, United Kingdom",,,,"+44 1273 495596",micro,
"Downton Brewery Co Ltd","Unit 11 Batten Road Downton Industrial Estate","Salisbury, United Kingdom",,,,"+44 1725 513313",micro,
"Dragonfly Brewery","183 High Street Acton","London, United Kingdom",,,,"+44 20 8992 3712",micro,
"Drygate Brewing Co.","85 Drygate","Glasgow, United Kingdom",,,,"+44 141 212 8815",brewpub,http://drygate.com
"Dukeries Brewery","Carlton Forest Distribution Centre","Worksop, United Kingdom",,,,"+44 1909 731171",micro,
"Dunscar Bridge Brewery","Unit 12, Dunscar Business Park Blackburn Road","Bolton, United Kingdom",,,,"01204 563 517",micro,
"East London Brewing Co Ltd","Fairways Business Park Lammas Road","London, United Kingdom",,,,"+44 20 8539 0805",micro,
Edinbrew,"Unit 5 Knightsridge East Industrial Est","Livingston, United Kingdom",,,,"+44 1506 442136",micro,http://www.edinbrew.beer
"Edinburgh Beer Factory Ltd.","Unit 15 Bankhead Industrial Estate","Edinburgh, United Kingdom",,,,"+44 131 442 4562",micro,http://edinburghbeerfactory.co.uk/
"Elland Brewery Ltd","3-5 Heathfield Industrial Estate Heathfield Street","Elland, United Kingdom",,,,"+44 1422 377677",micro,https://www.ellandbrewery.co.uk
"Elmtree Beers","Unit 10 Oakwood Industrial Estate Harling Rd","Snetterton, United Kingdom",,,,"+44 1953 887065",micro,
"Empire Brewing","The Old Boiler House Unit 33 Upper Mills","Huddersfield, United Kingdom",,,,"01484 847343",micro,http://empirebrewing.com/
"Ennerdale Brewery Ltd","Chapel Row","Rowrah, United Kingdom",,,,"01946 862977",micro,
"Errant Brewery","Arch 19 Forth Street","Newcastle-Upon-Tyne, United Kingdom",,,,"+44 7736 333303",micro,http://www.errantbrewery.com
Evan-Evans,"2 abbey terrace, Llandeilo","Llandeilo, United Kingdom",,,,"(797) 047-8539",contract,
"Evans-Evans Brewery","1 Rhosmaen Street","Llandeilo, United Kingdom",,,,"+44 1558 824455",micro,
"Fallen Acorn Brewing Co","Unit 7 Clarence Wharf Industrial Estate Mumby Road","Gosport, United Kingdom",,,,"+44 23 9307 9927",micro,
"Fallen Angel Brewery Ltd","12c Reeds Farm Ind Est Roxwell Road","Writtle, United Kingdom",,,,7639256,micro,
"Farr Brew","7 The Courtyard--Samuels Farm Coleman Green Lane","St Albans, United Kingdom",,,,"+44 7967 998820",micro,
"Firebird Brewing Company Ltd","The Old Brickworks Lynwick Street","Rudgwick, United Kingdom",,,,"+44 1403 823180",micro,
"Firebrand Brewery","Inner Trenarrett Altarnun","Launceston, United Kingdom",,,,"(015) 668-6069",micro,
"Firebrick Brewery Ltd.","Units 10-11 Blaydon Business Centre Cowen Road","Blaydon On Tyne, United Kingdom",,,,"+44 191 447 6543",micro,
"Five Points Brewing","3 Institute Place Hackney","London, United Kingdom",,,,"+44 20 8533 7746",micro,http://www.fivepointsbrewing.co.uk
"Fixed Wheel Brewery Limited","9 Long Lane Trading Estate Long Lane","Blackheath, United Kingdom",,,,,micro,
"Flack Manor Brewery","Romsey Industrial Estate 8 Greatbridge Rd","Romsey, United Kingdom",,,,"+44 1794 518520",micro,
"Flipside Brewery Ltd","Private Road 2 Colwick Industrial Estate","Colwick, United Kingdom",,,,"+44 115 987 7500",micro,
"Flowerpots Brewery","Brandy Mount","Cheriton, United Kingdom",,,,"+44 1962 771318",micro,
"Flying Monk Brewery Limited","Unit 1 Bradfield Manor Farm Hullavington","Malmesbury, United Kingdom",,,,,micro,
"Fool Hardy Ales","The Hope Inn 118 Wellington Road North","Stockport, United Kingdom",,,,"+44 161 637 6191",micro,
"Forest Road Brewing Company","Arch 355 Westgate Street","London, United Kingdom",,,,"+44 20 7249 7033",micro,http://www.forestroad.co.uk
"Four Candles Alehouse","1 Sowell Street St Peter's","Broadstairs, United Kingdom",,,,"+44 7947 062063",micro,
"Fourpure Brewing Co","Bermondsey Trading Estate Rotherhithe New Rd","London, United Kingdom",,,,"44 20 3744 2141",micro,http://www.fourpure.com
"Foxfield Brewery - Prince of Wales","Foxfield Road","Cumbria, United Kingdom",,,,"+44 1229 716238",micro,http://www.princeofwalesfoxfield.co.uk
"Front Row Brewing","1 Greenfield Farm Industrial Estate","Congleton, United Kingdom",,,,"+44 7973 764298",micro,
"Froth Blowers Brewing Company","Unit W34 Hastingwood Industrial Park Wood Lane","Erdington, United Kingdom",,,,,micro,
"Fuggle Bunny Brew House Ltd.","Unit 1 Meadowbrook Park Ind. Est. Meadowbrook Park","Halfway, United Kingdom",,,,"+44 7776 368502",micro,
"Full Mash Brewery","17 Lower Park Street","Stapleford, United Kingdom",,,,"+44 115 949 9262",micro,
"Fuller, Smith & Turner P.L.C.","Griffin Brewery Chiswick Lane South","Chiswick, London, United Kingdom",,,,"+44 20 8996 2000",large,http://www.fullers.co.uk
"Fuzzy Duck Brewery","18 Wood St","Poulton-le-Fylde, United Kingdom",,,,"+44 7904 343729",micro,
"Fyne Ales Ltd","Achadunan Bungalow A83","Cairndow, United Kingdom",,,,"+44 1499 600120",micro,http://www.fyneales.com
"G2 Brewing Ltd","Unit 5 Ashford Works Brunswick Road","Ashford, United Kingdom",,,,,micro,
"Geeves Brewery Ltd","26 Carrwood Rd","Barnsley, United Kingdom",,,,"+44 7859 039259",micro,
"Geipel Brewing Ltd","Pant Glas Llangwm","Corwen, United Kingdom",,,,"(149) 042-0838",micro,
"George Gale & Co Ltd",Horndean,"Hants, United Kingdom",,,,705571212,regional,
"George Wright Brewing Company","11 Diamond Business Park Sandwash Close","Rainford, United Kingdom",,,,"+44 844 414 5886",micro,
"George's Brewery","Common Road","Great Wakering, United Kingdom",,,,"+44 1702 826755",micro,
"Glastonbury Ales","Wessex Park Somerton Business Park Bancombe Rd","Somerton, United Kingdom",,,,"+44 1458 272244",micro,
"Glen Affric Brewery",,"Birkenhead, United Kingdom",,,,,planning,http://www.glenaffricbrewery.com
"Golden Duck Brewery","Unit 2 Red Hill Farm","Appleby Magna, United Kingdom",,,,"07427 403328 ",micro,
"Golden Triangle Brewery","Watton Rd","Barford, United Kingdom",,,,"+44 1603 757763",micro,
"Goldmark Craft Beers","23 The Vinery Poling","Arundel, United Kingdom",,,,"+44 1903 297838",micro,
"Goldstone Brewery Ltd","The Forge, Ditchling Common Ind Est Streat Lane","Ditchling, United Kingdom",,,,"01444 257053",micro,
"Goody Ales","Braggs Ln","Herne Bay, United Kingdom",,,,"+44 1227 361555",micro,
"Goose Eye Brewery","S Castlefields Industrial Estate","Bingley, United Kingdom",,,,"+44 1535 605807",micro,
"Goosnargh Brewing Co.","Ye Horns Inn Horns Lane","Preston, United Kingdom",,,,"01772 864382",micro,
"Gower Brewery","Crofty Industrial Estate Pen-clawdd","Crofty, United Kingdom",,,,"+44 1792 850681",micro,
"Grafters Brewery","The Half Moon Public House 23 High Street","Willingham By Stow, United Kingdom",,,,"44 01427 788 340",micro,
"Grafton Brewing Co","Walters Yard Dukeries Way","Worksop, United Kingdom",,,," 01909 476121",micro,
"Grain Brewery Ltd","South Farm Alburgh","Harleston, United Kingdom",,,,,micro,
"Great Heck Brewing Co Ltd","Harwinn House, Main Street","Goole, United Kingdom",,,,"+44 1977 661430",micro,
"Great Newsome Brewery Ltd","Great Newsome Farm South Frodingham","Hull, United Kingdom",,,,"+44 1964 612201",micro,
"Great North Eastern Brewing Company Ltd","Contract House Wellington Road","Dunston, United Kingdom",,,,"(751) 478-7483",micro,
"Great Oakley Brewery","Ark Farm High Street South","Tiffield, United Kingdom",,,,"+44 1327 351759",micro,http://greatoakleybrewery.co.uk/contact-us/
"Greene King PLC","Westgate Brewery Bury St Edmunds","Suffolk, United Kingdom",,,,284763222,regional,
"Greenmill Brewery","Greenmill Brewery Harewood Arms","Hyde, United Kingdom",,,,"07967 656 887",micro,
"Grey Trees Brewery","5 Gasworks Rd","Aberdare, United Kingdom",,,,"+44 1685 267077",micro,
"Greyhound Brewery","Watershed Smock Alley","West Chiltington, United Kingdom",,,,"(179) 881-5822",micro,http://www.greyhoundbrewery.co.uk/
"Gun Dog Ales Ltd","Unit 5b Great Central Way","Daventry, United Kingdom",,,,"+44 1327 264095",micro,
"Gyle 59","The Brewery Sadborow Estate Yard","Chard, United Kingdom",,,,"+44 1297 678990",micro,
"Hackney Brewery","358 Laburnum St","London, United Kingdom",,,,"+44 20 3489 9595",micro,http://www.hackneybrewery.co.uk
"Hadham Brewing Co Ltd","Hadham Industrial Estate Hadham Industrial Estate","Little Hadham, United Kingdom",,,,,micro,
"Half Moon Brewery","Forge House","Ellerton, United Kingdom",,,,"01757 288977",micro,
"Hall And Woodhouse Ltd","The Brewery Blandford St. Mary","Dorset, United Kingdom",,,,"+44 1258 486004",regional,http://www.hall-woodhouse.co.uk
"Hammerpot Brewery Ltd","Unit 30 The Vinery Poling","Angmering, United Kingdom",,,,"+44 1903 883338",micro,
"Hammerton Brewery","8-9 Roman Way Industrial Estate 149 Roman Way","London, United Kingdom",,,,"+44 20 3302 5880",micro,
"Handmade Beer Co.","Capel Dewi","Saron, United Kingdom",,,,"+44 7896 690020",micro,
"Happy Valley Brewery","8 Hazelhurst Drive Bollington","Macclesfield, United Kingdom",,,," 07758 512080",micro,
"Harbour Brewing Company","Trekillick Farm Kirland","Bodmin, United Kingdom",,,,"+44 1208 832131",micro,http://www.harbourbrewing.com
"Hardknott Brewery","Unit 10 Devonshire Road Industrial Estate","Millom, United Kingdom",,,,"+44 1229 779309",micro,
"Haresfoot Brewery","Global Infusion Court Nashleigh Hill","Chesham, United Kingdom",,,,"01494 790 783",micro,
"Harp Lager Co. (Guiness)","8 Henrietta Place Marylebone","London, United Kingdom",,,,,large,
"Harrogate Brewing Co.","Unit 40, Claro Court Business Centre Harrogate","N Yorkshire, United Kingdom",,,,"+44 7774 891 664",micro,
"Harviestoun Brewery","Alva Industrial Estate","Alva, United Kingdom",,,,"44 (259) 769-100",regional,http://www.harviestoun.com
"Hawkshead Brewery Ltd","Staveley Mill Yard Unit 22/28, Back Lane","Kendal, United Kingdom",,,,"+44 1539 822644",micro,
"Heavy Industry Brewery","The Old Slaughter House Bryn Llyfanen","Henllan, United Kingdom",,,,"01745 814655   ",micro,
"Hedgedog Brewing Ltd","Unit 5 Stroude Farm Stroude Road","Virginia Water, United Kingdom",,,,"+44 7500 808090",micro,
"Helmsley Brewing Company","18 Bridge Street","Helmsley, United Kingdom",,,,"+44 1439 771 014",micro,
"Hereford Brewery","88 St Owen Street","Hereford, United Kingdom",,,,"+44 1432 274998",micro,http://www.herefordbrewery.co.uk/
"Hesket Newmarket Brewery","2 Beech Cottages Hesket Newmarket","Wigton, United Kingdom",,,,"+44 16974 78288",micro,
"Hexhamshire Brewery","Dipton Mill Road","Hexham, United Kingdom",,,,"01434 606 577",brewpub,
"High House Farm Brewery",Matfen,"Newcastle Upon Tyne, United Kingdom",,,,"+44 1661 886192",micro,
"High Peak Brew Co","41a Market Street","Chapel-en-le-Frith, United Kingdom",,,,"(793) 617-4364",micro,
"High Weald Brewery","Unit 8 Bulrushes Business Park Coombe Hill Road","East Grinstead, United Kingdom",,,,"+44 7836 291430",micro,
"Hillfire Brewing Company","23 Edison Road","Aylesbury, United Kingdom",,,,"+44 1296 338521",micro,
"Hooded Ram Brewery","The Hooded Ram Brewing Company Hills Meadow","Douglas, United Kingdom",,,,"+44 1624 612464",micro,http://www.hoodedram.com/
"Hop and Stagger Brewery","The Old Cow Shed Astol Farm","Norton, United Kingdom",,,,"+44 1952 730737",micro,
"Hop Art Ltd","The Brewery Blacknest Industrial Park","Bentley, United Kingdom",,,,"01252 36 44 36",micro,
"Hop Kettle Brewery","The Red Lion 74 High Street","Swindon, United Kingdom",,,,"+44 1793 750776",micro,http://hopkettlebrewery.co.uk/
"Hop Stuff Brewery Ltd","Gunnery House Cornwallis Rd","London, United Kingdom",,,," +44 20 8854 9509",micro,
"Hopdaemon Brewery Co Ltd","Parsonage Farm Oast/Seed Rd","Sittingbourne, United Kingdom",,,,"01795 892078",micro,
"Hophurst Brewery Ltd","Unit 8 Hindley Business Centre Platt Lane","Hindley, United Kingdom",,,,"01942 522 333 ",micro,
"Hopstar Brewery Ltd","Unit 9 Rinus Business Park Grimshaw Street","Darwen, United Kingdom",,,,"+44 7933 590159",micro,
"Hornes Brewery Ltd","19B Station Road","Bow Brickhill, United Kingdom",,,,"01908 647724",micro,
"Houston Brewing Co","South St Houston","Johnstone, United Kingdom",,,,"+44 1505 612620",brewpub,http://www.houston-brewing.co.uk/
"Hoxne Brewery Ltd","Larch House Heckfield Green","Hoxne, United Kingdom",,,,"+44 7515 003503",micro,
"Humpty Dumpty Brewery","Church Road Reedham","Norwich, United Kingdom",,,,"+44 1493 701818",micro,http://humptydumptybrewery.com/contact/
"Hunters Brewery","Bulleigh Barton Farm Ipplepen Road","Newton Abbot, United Kingdom",,,," +44 1803 873509",micro,
"Ilkley Brewery Ltd","40 Ashlands Rd","Ilkley, United Kingdom",,,,"+44 1943 604604",micro,
"Incredible Brewing Co.","214 Broomhill Rd","Brislington, United Kingdom",,,,"+44 7780 977073",micro,http://www.incrediblebrewingcompany.com/
"Indigenous Brewery Ltd","Peacock Cottage Main Street","Newbury, United Kingdom",,,,"+44 1488 505060",micro,http://www.indigenousbrewery.co.uk/
"Intrepid Brewing Co. Ltd.","Vincent Works Stretfield Rd","Hope Valley, United Kingdom",,,,"+44 7936 174364",micro,
"Irving and Co Brewers Ltd","Unit G1 Walton Road","Portsmouth, United Kingdom",,,,"+44 23 9238 9988",micro,
"Isfield Brewing Company","Imperial Cottage Station Road","Isfield, United Kingdom",,,,,micro,
"Islay Ales","Islay House Square Bridgend","Argyll, United Kingdom",,,,"+44 1496 810014",micro,http://www.islayales.co.uk/
"Isle of Purbeck Brewery","Manor Road","Studland, United Kingdom",,,,"+44 1929 450227",micro,
"Jacobi Brewery of Caio","Penlan Wen","Llanwrda, United Kingdom",,,,"+44 1558 650605",micro,
"Jaw Brew","67B Hillington Park Montrose Ave","Glasgow, United Kingdom",,,,"+44 141 237 5840",micro,https://www.jawbrew.co.uk/
"Jo C's Norfolk Ale","The Old Store Walsingham Road","Fakenham, United Kingdom",,,,"+44 1328 863854",micro,
"Jolly Sailor Brewery","Olympia Hotel 77 Barlby Road","Selby, United Kingdom",,,,"01757 707564",micro,
"Joule's Brewery Limited","The Brewery Great Hales Street","Shropshire, United Kingdom",,,,"07496 097 883",micro,
"Kelham Island Brewery","23 Alma St","Sheffield, United Kingdom",,,,"+44 114 249 4804",micro,
"Kendrick's Brewing","Coalpit Lane","Willey, United Kingdom",,,,"(794) 781-2147",micro,
"Kent Brewery","Birling Place Farm Stangate Road","Birling, United Kingdom",,,,"01634 780037",micro,
"Keswick Brewing Co","The Old Brewery Brewery Lane","Cumbria, United Kingdom",,,,"+44 17687 80700",micro,
"Keystone Brewery","Old Carpenters Workshop","Salisbury, United Kingdom",,,,"+44 1747 820426",micro,
"Kingstone Brewery","Meadow Farm","Tintern, United Kingdom",,,,"01291 680 111",micro,
"Kinver Brewery","Unit 1 Britch Farm Rocky Wall","Compton, United Kingdom",,,,"+44 7715 842679",micro,
"Kirkby Lonsdale Brewery","Kirby Lonsdale Brewery","Camforth, United Kingdom",,,,"015242 72221",micro,
"Kirkstall Brewery Company Ltd","100 Kirkstall Road","Leeds, United Kingdom",,,,"0113 8980280",micro,
"Knops Beer Company","Dirleton Archerfield Estate","North Berwick, United Kingdom",,,,"+44 1620 388588",micro,http://www.knopsbeer.co.uk/
"Krafty Brew Ltd.","The Star and Garter 1 High Port","Linlithgow, United Kingdom",,,,07763873596,micro,http://kraftybrew.com
"Kubla Brewery","The Source Building Tower Farm","Lydeard St Lawrence, United Kingdom",,,,,micro,
"Lancaster Brewery","Lancaster Leisure Park Wyresdale Rd","Lancaster, United Kingdom",,,,"44 1524 848537",micro,
"Langham Brewery","The Granary Langham Lane","Lodsworth, United Kingdom",,,,"+44 1798 860861",micro,
"Langton Brewery","Grange Farm Welham Road","Market Harborough, United Kingdom",,,,"44 01858 540 116",micro,
"Lawman Brewing Company","31 Kelvin Road North","Cumbernauld, United Kingdom",,,,"0141 2129570",micro,http://www.lawmanbrew.co.uk/
"Leamside Brewery","Pithouse Lane","Leamside, United Kingdom",,,,"+44 191 584 2394",micro,
"Ledbury Real Ales","Gazerdine House Hereford Road","Ledbury, United Kingdom",,,,"01531 671 184",micro,
"Leeds Brewery","3 Sydenham Road","Leeds, United Kingdom",,,,"+44 113 244 5866",micro,
"Leighton Buzzard Brewing Co Ltd","Unit 23 Harmill Industrial Estate Grovebury Road","Leighton Buzzard, United Kingdom",,,,"+44 7538 903753",micro,
"Leila Cottage Brewery","Countryman Inn Chapel Road","Ingoldmells, United Kingdom",,,,"01754 872 268",micro,
"Lerwick Brewery","Staneyhill North Road","Shetland, United Kingdom",,,,"+44 1595 694552",micro,http://www.lerwickbrewery.co.uk/
"Lincoln Green Brew Co Ltd","Unit E5 Enterprise Park Wigwam Lane","Hucknall, United Kingdom",,,,"+44 115 963 4233",micro,http://lincolngreenbrewing.co.uk/
"Lincolnshire Brewing Company","Unit 3 15 Main Rd","Lincoln, United Kingdom",,,,"44 0845 094 5784",micro,
"Lister's Brewery","The Old Dairy Ford Lane","Arundel , United Kingdom",,,,"+44 1903 885950",micro,
"Little Beer Corporation Ltd","Bldg 3 14-15 Midleton Road","Guildford, United Kingdom",,,,"01483 497201",micro,
"Little Dragon Brewery","Unit 3 Havens Head Business Park","Milford Haven, United Kingdom",,,,"+44 7402 005393",micro,http://www.littledragonbrewery.co.uk/contact/
"Little Valley Brewery","Turkey Lodge Farm New Road","Hebden Bridge, United Kingdom",,,,"+44 1422 883888",micro,
"Liverpool Organic Brewery","39 Brasenose Road","Liverpool, United Kingdom",,,,"+44 151 933 9660",micro,
"Llangollen Brewery","Horseshoe Pass Road","Llangollen, United Kingdom",,,,"+44 1978 861916",micro,
"Loch Lomond Brewery","Block 1 Unit 5 Lomond Industrial Estate","Alexandria, United Kingdom",,,,"+44 1389 755698",micro,http://www.lochlomondbrewery.com/
"Loddon Brewery","Dunsden Green Farm Church Lane","Reading , United Kingdom",,,,"+44 118 948 1111",micro,
"Long Man Brewery Ltd","Church Farm","Litlington, United Kingdom",,,,"+44 1323 871850",micro,
"Longden Brewing Company Ltd.","The Red Lion Longden Common","Shrewsbury, United Kingdom",,,,,micro,http://www.theshropshirebrewer.com/
"Longdog Brewery Ltd","Unit A1 Moniton Trading Estate West Ham Lane","Basingstoke, United Kingdom",,,,"+44 1256 324286",micro,
"Loose Cannon Brewing Co Ltd","Suffolk Way","Abingdon, United Kingdom",,,,"+44 1235 531141",micro,
"Lost and Grounded Brewers","91 Whitby Road","Bristol, United Kingdom",,,,"+44 117 332 7690",micro,http://www.lostandgrounded.co.uk
"Lovibonds Brewery Ltd","19-21 Market Pl","Henley-on-Thames, United Kingdom",,,,"+44 1491 576596",micro,http://www.lovibonds.com
"Lyme Regis Brewery","Mill Lane","Lyme Regis, United Kingdom",,,,"+44 1297 444354",micro,
"Lymestone Brewery Ltd","The Old Brewery Mount Road","Stone, United Kingdom",,,,,micro,
"Lytham Brewery","Cambells Court 6 7 8 Lord St","Lytham St. Annes, United Kingdom",,,,"+44 800 061 4626",micro,
"Mad Cat Brewery Ltd","Brogdale Farm Brogdale Road","Faversham, United Kingdom",,,,"+44 7960 263615",micro,
"Madcap Brewery",Annan,"Dumfries & Galloway, United Kingdom",,,,"07801 699161",micro,http://www.madcapbrewery.com/
"Magic Rock Brewing Co.","Willow Park Business Centre Willow Lane","Huddersfield, United Kingdom",,,,"+44 1484 649823",micro,http://www.magicrockbrewing.com
"Magpie Brewery","Unit 4 Ashling Court Iremonger Road","Nottingham, United Kingdom",,,,"+44 7419 991310",micro,
"Malt The Brewery","Collings Hanger Farm Wycombe Road","Prestwood, United Kingdom",,,,,micro,
"Mantle Brewery Ltd.","Unit 16 Pentood Industrial Estate","Cardigan, United Kingdom",,,,"+44 1239 623898",micro,
"Marston, Thompson and Evershed","Snobnall Brewery Snobnall Rd Burton-on-Trent","Staffs, United Kingdom",,,,028331131,regional,
"Marston's PLC","Marston's House Brewery Road","Wolverhampton, United Kingdom",,,,"+44 1902 711811",large,http://www.marstons.co.uk/contact/
"Martland Mill Brewery","Unit 5 Otterwood Square","Wigan, United Kingdom",,,," +44 1942 665656",micro,
"MASH Brewery Ltd","Middle Barn Burcot Farm","Winchester, United Kingdom",,,,"01962 795023",micro,
"Mauldons Brewery","The Black Adder Brewery 13 Church Field Road","Suffolk, United Kingdom",,,,"44 01787 311 055",micro,
"Maule Brewing Company","42 Rothersthorpe Ave",", United Kingdom",,,,,micro,
"McMullen & Sons Ltd","26 Old Cross","Hertfordshire, United Kingdom",,,,"+44 1992 584911",regional,
"Meantime Brewing Co","Lawrence Trading Estate Blackwall Lane","London, United Kingdom",,,,"+44 20 8293 1111",micro,http://www.meantimebrewing.com
"Merlin Brewing Company","3 Spring Bank Farm Congleton Road","Arclid, United Kingdom",,,,"+44 01477 500 893",micro,
"Merrimen Brewing Ltd","Unit 12 Northampton Road","Towcester, United Kingdom",,,,"+44 1327 831308",micro,
"Metcalfe & Metcalfe Co","Unit 3 Laurencekirk Business Park Aberdeen Rd","Laurencekirk, United Kingdom",,,,"+44 1561 377316",micro,http://www.burnsidebrewery.co.uk
"Mile Tree Brewery Ltd","The Secret Garden Touring Park Mile Tree Lane","Cambs, United Kingdom",,,,"(785) 893-0363",micro,
"Milltown Brewing Co Ltd","31 Haigh House Hill Lindley Moor Rd","Huddersfield, United Kingdom",,,,"+44 7946 589645",micro,
"Mitchells Of Lancaster","11 Moor Ln Lancaster","Lancashire, United Kingdom",,,,"01524 596000",regional,
"Mobberley Fine Ales Ltd.","Dairy Farm Church Lane","Mobberley, United Kingdom",,,,"01565 873601",micro,
"Moncada Brewery Ltd","Unit 1 Middle Row","London, United Kingdom",,,,"+44 7795 511505",micro,
"Mondo Brewing Company","86 Stewarts Road","London, United Kingdom",,,,"+44 20 7720 0782",micro,http://www.mondobrewingcompany.com
"Monty's Brewery","Unit 1 Castle Works Hen-Domen","Montgomery, United Kingdom",,,,"+44 1686 668933",micro,
"Moorstone Brewery","Axna Farm Horndon","Mary Tavy, United Kingdom",,,,"(773) 809-8572",micro,
"Mor Brewing Ltd.","Old Mill","Kelles, United Kingdom",,,,"07802 885 450",micro,http://www.morbrewing.co.uk
"Mordue Brewery","Tyne Tunnel Trading Estate D1/D2 Narvik Way","North Shields, United Kingdom",,,,"+44 191 296 1879",micro,
"Mr Grundy's Brewery","32-34 Ashbourne Rd","Derby, United Kingdom",,,,"+44 1332 340279",micro,http://www.mrgrundysbrewery.co.uk/
"Mumbles Brewery Limited","Unit 8 Clarion Court","Mumbles, United Kingdom",,,,"+44 1792 792612",micro,
"Musket Brewery Limited","Unit 7 Loddington Farm Loddington Lane","Maidstone, United Kingdom",,,,"079671 27 27 8",micro,
"Navigation Brewery Ltd","Trent Navigation Inn 17 Meadow Ln","Nottingham, United Kingdom",,,,"+44 115 986 9877",micro,
"Naylor's Brewery","Midland Mills Station Rd","Keighley, United Kingdom",,,,"+44 1535 637451",micro,
"Nene Valley Brewery Ltd","Oundle Wharf","Peterborough, United Kingdom",,,,01832272776,micro,http://www.nenevalleybrewery.com
"New Lion Brewery","Station Road","Totnes, United Kingdom",,,,"+44 1803 226277",micro,
"Newark Brewery Ltd","77 William Street","Newark, United Kingdom",,,,"+44 7804 609917",micro,
"Norfolk Brewhouse","Moon Gazer Barn Harvest Lane","Hindringham, United Kingdom",,,,"+44 1328 878495",micro,
"North Blythe","North Blyth Bar & BreweryWorsdell Instit","North Blyth , United Kingdom",,,,"01670 822012",micro,
"North Cotswold Brewery","Unit 3 Ditchford Farm","Stretton On Fosse, United Kingdom",,,,"+44 1608 663947",micro,
"North Star Brewing Co Ltd","Unit 6 Furnace Road","Ilkeston, United Kingdom",,,,"+44 7725 330783",micro,
"North Yorkshire Brewing Co",Pinchinthorpe,"Gulsborough, United Kingdom",,,,"+44 1287 630200",micro,
"Northbound Brewery","McLean Road Campsie Industrial Estate","Eglinton, United Kingdom",,,,"+44 7512 198686",micro,
"Northern Monk Brew Co","NORTHERN MONK BREWING CO LTD MARSHALL MILLS","MARSHALL STREET, United Kingdom",,,,"44 (113) 243-6430",micro,http://www.northernmonkbrewco.com
"Northern Monk Brew Co.","The Old Flax Store S Mills","Leed, United Kingdom",,,,"+44 113 243 6430",brewpub,
"Noss Beer Works Ltd","Unit 6 Ash Court Pennant Way","Lee Mill, United Kingdom",,,,"07977 479364",micro,
"Nottingham Brewery Limited","17 St. Peter's Street","Radford, United Kingdom",,,,"+44 115 942 2649",micro,
"Offbeat Brewery Ltd","Thomas St","Crewe, United Kingdom",,,,"+44 7502 096438",micro,
"Okell & Sons Ltd","Old Castletown Road","Kewaigue, United Kingdom",,,,"01624 699400",micro,http://www.okells.co.uk
"Old Pie Factory Brewery Ltd","Montague Road","Warwick, United Kingdom",,,,,micro,
"Old Sawley Brewing Company","352a Tamworth Road Sawley","Nottingham, United Kingdom",,,,"44 0115 837 0250",micro,http://www.oldsawley.com
"Old School Brewery","Holly Bank Barn Crag Road","Warton, United Kingdom",,,,"+44 1524 735005",micro,
"Olde Mill Ltd","Unit 1 Butterleigh Sawmill","Butterleigh, United Kingdom",,,,"+44 1884 308633",micro,
"Otley Brewing Company Ltd","Unit 39, Albion Industrial Estate","Pontypridd, United Kingdom",,,,,micro,
"Out There Brewing Company","4 Foundry Lane","Newcastle Upon Tyne, United Kingdom",,,,"+44 7946 579534",micro,
"Peak Ales","The Barn Brewery Chatsworth","Bakewell, United Kingdom",,,,"+44 1246 583737",micro,
"Peakstones Rock Brewing Co Ltd","Peakstones Rock Farm","Alton, United Kingdom",,,,,micro,
"Peerless Brewing Company","8 Pool Street","Birkenhead, United Kingdom",,,,"+44 151 647 7688",micro,
"Pennine Brewing Co.","Well Hall Farm Well","Bedale, United Kingdom",,,,"+44 1677 470111",micro,
"Pentrich Brewing Co","Unit B Asher Lane","Ripley, United Kingdom",,,,"+44 1773 741700",micro,
"Pershore Brewery","Unit 5 Lyttleton Rd","Pershore, United Kingdom",,,,"44 01386 561 578",micro,http://www.pershorebrewery.com/
"Pheasantry Brewery","High Brecks Farm Lincoln Road","Newark, United Kingdom",,,,"+44 1777 872728",micro,
"Phoenix Brewery","Green Lane","Heywood, United Kingdom",,,,"+44 7979 968655",micro,http://www.phoenixbrewery.co.uk
"Pickled Pig Brewers",,"Staunton In the Vale, United Kingdom",,,,,micro,
"Piddle Brewery","Unit 24 Enterprise Park","Piddlehinton, United Kingdom",,,,"+44 1305 849336",micro,
"Pig Iron Brewing","Venture Way Brierley Hill","West Midlands, United Kingdom",,,,"+44 7816 918777",micro,
"Pitfield Brewery","New House Farm Little Laver Road","Moreton, United Kingdom",,,,"44 01277 890 580",micro,
"Plain Ales","17 Deverill Road Trading Estate Sutton Veny","Warminster, United Kingdom",,,,"+44 1985 841481",micro,
"Platform 22","22 Station Road","Torphins, United Kingdom",,,,"+44 1339 882807",micro,
"Platform 5 Brewing Company Ltd","197 Queen Street","Newton Abbot, United Kingdom",,,,"01626 354166",micro,http://platform5brewing.co.uk/
"Potbelly Brewery","Potbelly Brewery Sydney Street","Kettering, United Kingdom",,,,,micro,
"Powderkeg Brewery","10 Hogsbrook Units","Woodbury, United Kingdom",,,,"+44 1395 488181",micro,
"Purity Brewing Co Ltd","The Brewery Upper Spernall Farm","Great Alne, United Kingdom",,,,"44 01789 488 007",micro,
"Purple Moose Brewery","Madoc Street","Gwynedd, United Kingdom",,,,"+44 1766 515571",micro,
"Quantock Brewery","Westridge Way Broadgauge Business Park","Taunton, United Kingdom",,,,"+44 1823 433812",micro,
"Quartz Brewing Ltd","Archer's Alrewas Road","Kings Bromley, United Kingdom",,,,"+44 1543 473965",micro,http://www.quartzbrewing.co.uk/contacts/
"Radnorshire Ales","Brookside Farm Park Road","New Radnor, United Kingdom",,,,"01544 350456",micro,
"Ramsbottom Craft Brewery","1 Heapworth Avenue","Ramsbottom, United Kingdom",,,," +44 7976 263344",micro,
"Ramsgate Brewery Ltd","7 Pysons Road Industrial Estate Hornet Cl","Broadstairs, United Kingdom",,,,"+44 1843 868453",micro,
"Ran Ales Ltd","Unit 8 Ormonde Street Fenton","Stoke-on-Trent, United Kingdom",,,,"+44 7843 092620",micro,
"Raw Brewing Co Ltd","Units 3 & 4 Silver House Adelphi Way","Chesterfield, United Kingdom",,,,"01246 475445",micro,http://www.rawbrew.com/contact/us
"Red Brewery Co Ltd","The Orchard Garden Farm","Great Staughton, United Kingdom",,,,"(755) 720-7013",micro,
"Red Cat Brewing","Unit 10 Sun Valley Business Park Winnall Close","Winchester, United Kingdom",,,,"+44 1962 863423",micro,
"Red Fox Brewery Ltd","The Chicken Sheds Upp Hall Farm","Coggeshall, United Kingdom",,,," +44 1376 563123",micro,
"Red Rock Brewery Ltd","Higher Humber Farm","Bishopsteignton, United Kingdom",,,,"+44 1626 879738",micro,
"Red Squirrel Brewery Ltd","104 High St","Berkhamsted, United Kingdom",,,,"+44 1442 920644",micro,
"Red Willow Brewery Ltd.","The Lodge Sutton Garrison","Macclesfield, United Kingdom",,,,"+44 1625 502315",micro,
"Redemption Brewing Company","Unit 16 Compass West Industrial Estate West Road","London, United Kingdom",,,,"+44 20 8885 5227",micro,
"Redscar Brewery","The Cleveland Hotel 9-11 High Street West","Cleveland, United Kingdom",,,,"01642 513727",micro,
"Redwell Brewing","7 The Arches Bracondale","Trowse Millgate, United Kingdom",,,,"44 01603 624 072",micro,
"Reedley Hallows Brewery","Unit B3 Farrington Court","Burnley, United Kingdom",,,,"07749 414 513",micro,
"Rhymney Brewery Ltd","Gilchrist Thomas Industrial Estate Blaenavon","Pontypool, United Kingdom",,,,"+44 1495 790456",micro,
"Richmond Brewing Company Ltd.","Richmond Brewing Company The Station","N Yorkshire, United Kingdom",,,,"44 01748 828 266",micro,
"Ridgeside Brewing Co.","Unit 24 Penraevon 2 Ind. Est. Jackson Rd","Leeds, United Kingdom",,,,"+44 7595 380568",micro,
"Ringwood Brewery","138 Christchurch Road","Ringwood, United Kingdom",,,,"+44 1425 470303",micro,http://www.hampshirebrewery.com
"Ripple Steam Brewery Ltd","Parsonage Farm Vale Road","Sutton-by-Dover, United Kingdom",,,,"07802 752260",micro,http://ripplesteambrewery.co.uk/
"Robin Hood Brewery Ltd","High Church Street","Basford, United Kingdom",,,,,micro,
"Roosters Brewing Co - York","Unit 3 Grimbald Park Wetherby Rd","Knaresborough, United Kingdom",,,,"44 (0) 1423 865 959",micro,http://www.roosters.co.uk
"Round Tower Brewery","Unit 11a Robjohns House","Chelmsford, United Kingdom",,,,"+44 1245 807343",micro,
"Rowton Brewery","Stone House Rowton","Telford, United Kingdom",,,,"(785) 488-5870",micro,
"Ruddles Brewery Ltd","Langham, Oakham","Rutland, United Kingdom",,,,"+44 572756911",regional,http://www.ruddles.co.uk
"Rudgate Brewery LTD","2 Centre Park Marston Business Park","Tockwith, United Kingdom",,,,"+44 1423 358382",micro,
"Ryedale Brewing Company","Hardings House Hardings Lane","Cross Hills, United Kingdom",,,,"+44 7850 510859",micro,
"S.A. Brain & Co. Ltd","Crawshay St","Cardiff, United Kingdom",,,," +44 29 2040 2060",regional,
"Salamander Brewing Company","22 Harry Street","Bradford, United Kingdom",,,,"+44 1274 652323",micro,
"Saltaire Brewery Ltd.","County Works Dockfield Road","Shipley, United Kingdom",,,,"01274 594959",micro,
"Samuel Smith Brewery","High St","Tadcaster, United Kingdom",,,,"+44 1937 832225",regional,
"Sawbridgeworth Brewery","81 London Road","Sawbridgeworth, United Kingdom",,,,,micro,
Scandibrew,"Sanderum House Oakley Rd Chinnor","Oxon, United Kingdom",,,,"+44 0844 354191",regional,
"Scarborough Brewery Ltd.","Unit 1B Stadium Works Barry's Lane","Scarborough, United Kingdom",,,,"+44 1723 367506",micro,
"Scottish Borders Brewery","Lanton Mill Cottage","Jedburgh, United Kingdom",,,,"+44 1835 830387",micro,http://www.chestersestate.com/brewery/
"Scribblers Ales","Room With A Brew 78 Derby Road","Nottingham, United Kingdom",,,,"07834 455420",micro,
"Seren Brewing Company","Syfnau House","Rosebush, United Kingdom",,,,"44 01437 532 098",micro,
"Settle Brewing Company","2B The Sidings","Settle, United Kingdom",,,,"+44 1729 824936",micro,
"Seven Bro7hers Brewery","33 Waybridge Enterprise Centre Daniel Adamson Road","Salford Quays, United Kingdom",,,,"44 (0)161 6379 929",micro,
"Shalford Brewery","PO Box 10411","Braintree, United Kingdom",,,,"44 07984210 818",micro,
"Sherfield Village Brewery Ltd","2 Goddards Ln Sherfield On Loddon","Hook, United Kingdom",,,,"+44 7906 060429",micro,
"Shiny Brewing Company Ltd","10 Old Hall Mill Business Park Alfreton Rd","Little Eaton, United Kingdom",,,,"+44 1332 902809",micro,
"Shortts Farm Brewery","Shortts Farm Thorndon","Eye, United Kingdom",,,,"+44 (0) 7900 268 100",micro,
"Silhill Brewery Ltd","Unit 1 Oak Farm Hampton Ln","Catherine-de-Barnes, United Kingdom",,,,"+44 7977 444564",micro,
"Siren Craft Brew","Unit 1 Weller Drive","Finchampstead, United Kingdom",,,,441189730929,micro,http://www.sirencraftbrew.com
"Slaughterhouse Brewery Ltd","Bridge Street","Warwick, United Kingdom",,,,,micro,
"Slightly Foxed Brewing Company","Asquith Bottom Mill","Sowerby Bridge, United Kingdom",,,,"+44 1422 835577",micro,
"Small World Beers Ltd.","Unit 10, Barncliffe Business Park Near Bank","Shelley, United Kingdom",,,,"44 01484 602 805",micro,
"Sonnet 43 Brew House","Durham Road","Coxhoe, United Kingdom",,,,"0191 377 3039",micro,
"Sperrin Brewery","The Lord Nelson Inn Birmingham Road","Nuneaton, United Kingdom",,,,"(781) 688-1313",micro,http://www.sperrinbrewery.co.uk/contact/
"Spire Brewing Company","Bull Paddock Farm Sutton Lane","Chesterfield, United Kingdom",,,,"44 01246 807 940",micro,
"Spitting Feathers","28 Common Farm Waverton","Chester, United Kingdom",,,,"+44 1244 332052",micro,
"Springhead Brewery","Robin Hood Site Main St","Laneham, United Kingdom",,,,"+44 1777 229020",micro,
"St Andrews Brewing Co.","St Andrews Brewing Co. Unit 7 Bassaguard Business Park","St Andrews, United Kingdom",,,,"44 01334 208 586",brewpub,http://www.standrewsbrewingcompany.com/
"St George's Brewery","The Old Bake House Bush Lane","Callow End, United Kingdom",,,,"+44 1905 831316",micro,
"St Peters Brewery Co PLC","St Peters Hall, South Elmham","Bungay, Suffolk, United Kingdom",,,,"+44 198-678-2322",micro,http://www.stpetersbrewery.co.uk
"Stag Brewery","Lower Richmond Rd","London, United Kingdom",,,,"(081) 876-3434",regional,
"Stamps Brewery","17 Boundary Street","Everton, United Kingdom",,,,"+44 7913 025319",micro,
"Stancill Brewery Ltd.","Unit 2, Oakham Drive","Sheffield, United Kingdom",,,,"+44 114 275 2788",micro,
"Star Brewing Company","Unit G-H Bentley Business Park Blenheim Way","Market Deeping, United Kingdom",,,,"+44 1778 380480",micro,
"Stewart Brewing","26a Dryden Road Bilston Glen Industrial Estate","LOANHEAD, United Kingdom",,,,"44 (131) 440-2442",micro,http://www.stewartbrewing.co.uk
"Stockport Brewing Company","Unit 16 The Gate Centre","Stockport, United Kingdom",,,,"+44 0161 637 0306",micro,
"Stod Fold Brewing Company","Stod Fold","Halifax, United Kingdom",,,,"+44 1422 245951",micro,
"Stonehouse Brewery Ltd",Weston,"Oswestry, United Kingdom",,,,"+44 (0) 1691 676457",micro,
"Storm Brewing Co","2 Waterside Macclesfield","Cheshire, United Kingdom",,,,"+44 1625 431234",micro,
"Strathaven Ales","Craigmill Brewery Sandford Road","Lanarkshire, United Kingdom",,,," +44 1357 520419",micro,http://www.strathavenales.com/
"Strathbraan Brewery","Deans Haugh Amulree","Dunkeld, United Kingdom",,,,"+44 7747 857908",micro,http://strathbraanbrewery.tel/
"Stringers Beer","Unit 3 Low Mill Business Park","Ulverston, United Kingdom",,,,"+44 1229 581387",micro,
"Stroud Brewery","Unit 11 Phoenix Works Hope Mill Lane","Stroud, United Kingdom",,,,"+44 1453 887122",micro,
"Sulwath Brewers","209 King Street","Castle Douglas, United Kingdom",,,,"+44 1556 504525",micro,http://www.sulwathbrewers.co.uk/
"Sunny Republic Brewing Company","The Old Grain Barns North West Farm","Winterborne Kingston, United Kingdom",,,,,micro,
"Surrey Hills Brewery Ltd","Denbies Wine Estate London Road","Dorking, United Kingdom",,,,"+44 1306 883603",micro,
"Swannay Brewery","Swannay Brewery","Evie, United Kingdom",,,,"+44 1856 721700",micro,http://www.swannaybrewery.com
"Tap East","7 International Square Montfichet Road","London, United Kingdom",,,,"+44 20 8555 4467",micro,
"Tarn Hows Brewery",Outgate,"Ambleside, United Kingdom",,,,"+44 (0) 7935 789581",micro,
"Tatton Brewery","Unit 7 Longridge Trading Estate","Knutsford, United Kingdom",,,,"01565 750 747",micro,
"Tavy Ales Ltd","9 Porsham Close","Plymouth, United Kingdom",,,,"+44 1752 396052",micro,
"Teme Valley Brewery","Bromyard Road","Knightwick, United Kingdom",,,,"44 01886 821 235",micro,
"Tempest Brewing Co.","1&2 Tweedbank Industrial Estate Block 11","Galashiels, United Kingdom",,,,"+44 1896 759500",micro,http://www.tempestbrewco.com/
"Tenby Brewing Co Ltd","Unit 15 The Salterns","Tenby, United Kingdom",,,,"+44 1834 218090",micro,
"The Backyard Brewhouse","Gatehouse Trading Estate Lichfield Rd","Brownhills, United Kingdom",,,,"+44 1543 360145",micro,
"The Belleville Brewing Co Ltd","Unit 36 Jaggard Way","London, United Kingdom",,,,"+44 7712 298273",micro,
"The Borough Brewery","3 Dalton Square","Lancaster, United Kingdom",,,,"+44 1524 64170",brewpub,
"The Bull Highgate","13 North Hill Highgate","London, United Kingdom",,,,"+44 20 8341 0510",micro,http://www.londonbrewing.com
"The Clun Brewery","The Square","Clun, United Kingdom",,,,"+44 1588 418149",micro,
"The Colonsay Brewery","Dunoran Scalasaig","Isle of Colonsay, United Kingdom",,,,"+44 1951 200190",micro,http://colonsaybrewery.co.uk
"The Consett Ale Works","115 Sherburn Terrace Consett","Co Durham, United Kingdom",,,,"01207 591540",micro,http://www.consettaleworks.co.uk/
"The Conway Brewery Ltd","Unit 2 Ty Mawr Enterprise Park","Llysfaen, United Kingdom",,,,"+44 1492 514305",micro,
"The Cotswold Brewing Co.","College Farm Stow Road","Cheltenham, United Kingdom",,,,"+44 1451 824488",micro,
"The Dartford Wobbler Brewery","St Margaret's Farm St Margaret's Road","Dartford, United Kingdom",,,,"+44 1322 866233",micro,
"The Durham Brewery Ltd","Bowburn North Industrial Estate","Bowburn, United Kingdom",,,,"+44 191 377 1991",micro,http://durhambrewery.com/
"The Gipsy Hill Brewing Co.","Unit 11 Hamilton Road Industrial Estate 160 Hamilton Road","London, United Kingdom",,,,"44 2087 619 061",micro,
"The Hop Studio","3 Handley Park","Elvington, United Kingdom",,,,"+44 1904 608029",micro,
"The Hop Vine","Liverpool Road North","Burscough, United Kingdom",,,," +44 1704 893799",micro,
"The Kelburn Brewing Co","10 Muriel Lane Barrhead","Glasgow, United Kingdom",,,,"+44 141 881 2138",micro,http://www.kelburnbrewery.com/
"The Liverpool Craft Beer Co.","10 Love Lane","Liverpool, United Kingdom",,,,"+44 151 236 9400",micro,
"The Millstone Brewery Limited","Unit 4, Vale Mill Micklehurst Road","Mossley, United Kingdom",,,,"44 01457 835 835",micro,
"The Nook Brewhouse","3a Victoria Square","W Yorkshire, United Kingdom",,,,"01484 682 373",micro,
"The Park Brewery","95 Elm Road","Kingston-upon-Thames, United Kingdom",,,,"+44 7949 574618",micro,
"The Rebel Brewing Co.","Kernick Industrial Estate Parkengue","Kernick, United Kingdom",,,,"+44 1326 379362",micro,
"The Revolutions Brewing Co.","Unit B7 Whitwood Enterprise Park Speedwell Road","Castleford, United Kingdom",,,,"+44 1977 552649",micro,http://www.revolutionsbrewing.co.uk/
"The Sheffield Brewery Co Ltd.","81 Burton Rd","Sheffield, United Kingdom",,,,"+44 114 272 7256",micro,
"The Shotover Brewing Co Ltd","Manor Farm Road","Horspath, United Kingdom",,,,"+44 1865 604620",micro,
"The South Hams Brewery Ltd","Stokeley Barton Farm Stokenham","Kingsbridge, United Kingdom",,,,"+44 1548 581151",micro,
"The Tapped Brew Co","Sheaf St","Sheffield, United Kingdom",,,,"+44 114 273 7558",micro,
"The Vale of Glamorgan Brewery Ltd","Atlantic Trading Estate Barry","Wales, United Kingdom",,,,"+44 1446 730757",micro,
"The Watermill Inn & Brewery","The Watermill Inn & Brewery Ings, Nr Staveley","Cumbria, United Kingdom",,,,"44 01539 821 309",brewpub,
"The Weighbridge Brewhouse","Penzance Drive","Swindon, United Kingdom",,,,,micro,
"The Wild Beer Co","Lower Westcombe Farm Evercreech","Somerset, United Kingdom",,,,"44 01749 838 742",micro,http://www.wildbeerco.com
"The Wild Boar","Crook Road","Windermere, United Kingdom",,,,"015394 45225",micro,
"Thomas Hardy","Bold Lane Burtonwood","Warrington, United Kingdom",,,,"+44 1925 220022",regional,
"Three B's Brewery","The Black Bull Brokenstone Road","Darwen, United Kingdom",,,,"01254 581381",micro,http://www.threebsbrewery.co.uk/
"Three Daggers Brewery","47 Westbury Road Edington","Westbury, United Kingdom",,,,"+44 1380 830940",micro,
"Three Fiends Brewhouse","Brookfield Farm Mill Moor Road","Holmfirth, United Kingdom",,,,,micro,http://www.threefiends.co.uk/
"Three Kings Brewery","14 Prospect Terrace","North Shields, United Kingdom",,,,"+44 7580 004565",micro,
"Three Sods Brewery Ltd","Pollard Row","London, United Kingdom",,,,"+44 7544 422236",micro,
"Thurstons Brewery","102c High Street","Woking, United Kingdom",,,,"+44 1483 729555",micro,
"Timothy Taylor & Co Ltd - Knowle Spring Brewery","Knowle Spring Brewery Queen's Rd","Keighley, United Kingdom",,,,"+44 1535 603139",large,
"Tintagel Brewery Ltd","Condolden Farm","Tintagel, United Kingdom",,,,"01840 213371",micro,
"Tirril Brewery","Red House Cottage High Wiend","Appleby-in-Westmorland, United Kingdom",,,,"+44 17683 61846",micro,
"Tollgate Brewery","Unit 1 Southwood House Farm Staunton Lane","Derbyshire, United Kingdom",,,,"+44 1283 229194",micro,
"Tom Wood Beers Ltd","Melton High Wood Farm","Barnetby, United Kingdom",,,,"+44 1652 680001",micro,
"Tombstone Brewery","6 St George's Rd","Great Yarmouth, United Kingdom",,,,"+44 7584 504444",micro,
"Tonbridge Brewery","19 Brandbridges Rd","East Peckham, United Kingdom",,,,"+44 1622 871239",micro,
"Top Out Brewery","Unit 3 6 Dryden Road","Loanhead, United Kingdom",,,,"+44 131 440 0270",micro,http://www.topoutbrewery.com/
"Topsham Ales","34 Fore St","Topsham, United Kingdom",,,,"+44 1392 873471",micro,
"Towcester Mill Brewery Limited","Towcester Mill Chantry Lane","Towcester, United Kingdom",,,,"+44 1327 437060",micro,
"Tower Brewery Ltd","Glensyl Way","Burton-on-Trent, United Kingdom",,,," +44 1283 562888",micro,
"Tractor Shed Brewing","Calva Brow","Workington, United Kingdom",,,,"(019) 006-8860",micro,
"Tractor Shed Brewing","Calva Brow","Workington, United Kingdom",,,,"(019) 006-8860",micro,
"Traquair House Brewery","Traquair House","Innerleithen, United Kingdom",,,,"+44 1896 830323",micro,http://www.traquair.co.uk/
"Treboom Brewery","Millstone Yard Main Street","Shipton-by-Beningbrough, United Kingdom",,,,"+44 1904 471569",micro,
"Tryst Brewery","Lorne Rd. Falkirk","Larbert, United Kingdom",,,,"+44 1324 554000",micro,http://www.trystbrewery.co.uk/eden.html
"Tudor Brewery","1 Llanhilleth Industrial Estate","Llanhilleth, United Kingdom",,,,"+44 1873 851696",micro,
"Tweed Brewing Co.","Unit D1 C Newton Business Park Talbot Road","Hyde, United Kingdom",,,,"+44 161 368 8608",micro,
"Twickenham Fine Ales Ltd","18 Mereway Road","Twickenham, United Kingdom",,,,"+44 20 8241 1825",micro,
"Twisted Brewing Company Ltd","Unit 8 Commercial Business Centre Commerce Close","Westbury, United Kingdom",,,,"01373 864441",micro,
"Twisted Oak Brewery Ltd","Yeowood Farm Iwood Lane","Wrington, United Kingdom",,,," 01934 310515",micro,
"Two By Two Brewing","Unit 19 Point Pleasant Ind. Est.","Wallsend, United Kingdom",,,,,micro,
"Two Cocks Brewery","Church Lane Crockham Heath","Newbury, United Kingdom",,,,"+44 1635 37777",micro,
"Two Rivers Brewery","2 Sluice Bank","Denver, United Kingdom",,,,"+44 1366 380131",micro,http://denverbrewery.co.uk/
"Two Roses Brewery","Unit 9, Darton Business Park Barnsley Road","Darton, United Kingdom",,,,"07780 701254",micro,
"Tydd Steam Brewery","Manor Barn Kirkgate","Cambridgeshire, United Kingdom",,,,"44 01945 871 020",micro,
"Untapped Brewing Company Ltd","Unit 6 Little Castle Business Park","Raglan, United Kingdom",,,,"+44 1291 690074",micro,
"Urban Island Brewing","28 Limberline Spur","Portsmouth, United Kingdom",,,,"+44 23 9266 8726",micro,
"Vaux Breweries","Breweries: Sheffield The Brewery","Sunderland, United Kingdom",,,,0783-76277,large,
"Vibrant Forest Brewery","Unit 3 Gordleton Business Park Hannah Way","Lymington, United Kingdom",,,,"+44 1590 681094",micro,
"VIP Brewery","Unit E Hawkhill Industrial Estate Lesbury","Alnwick, United Kingdom",,,,"01665 830617",micro,http://vipbrewery.co.uk
"Vocation Brewery","Unit 8, Craggs Country Business Park New Road","Hebden Bridge, United Kingdom",,,,"01422 410 810",micro,
"Wantsum Brewery","St Nicholas At Wade","Birchington, United Kingdom",,,,"+44 1227 910135",micro,
"Warwickshire Beer Co Ltd","The Brewery Queen Street","Warwickshire, United Kingdom",,,,"+44 1926 450747",micro,
"Weal Ales Brewery Ltd","Unit 6 Newpark Business Park London Road","Newcastle, United Kingdom",,,,"+44 1782 565635",micro,
"Weatheroak Brewery","33 Redditch Road","Studley, United Kingdom",,,,"+44 1527 854433",micro,
"Weatheroak Hill Brewery Ltd","Weatheroak Hill","Alvechurch, United Kingdom",,,,"+44 1564 823386",micro,
"Weetwood Ales Limited","The Brewery Common Lane","Kelsall, United Kingdom",,,,"+44 1829 752377",micro,
"Wensleydale Brewery","Manor Farm Bellerby","Leyburn, United Kingdom",,,,"+44 1969 622463",micro,
"West Brewing Co","Templeton Building Glasgow Green","Glasgow, United Kingdom",,,,"+44 141 550 0135",brewpub,https://www.westbeer.com/
"West Coast Brands","2 Abbey Terrace","Llandeilo, United Kingdom",,,,441558824455,micro,
"Westerham Brewery Co.","Pootings Road Crockham Hill","Edenbridge, United Kingdom",,,,"+44 1732 864427",micro,http://www.westerhambrewery.co.uk
"Wharfe Bank Brewery","Unit 4 Pool Business Park Pool Road","Pool, United Kingdom",,,,"+44 113 284 2392",micro,
"Wharfedale Brewery","The Back Barn 16 Church Street","Ilkley, United Kingdom",,,,"01943 609587",micro,
"Whippet Brewing Co.","Unit 9 Brown Place","Leeds, United Kingdom",,,,"+44 7928 101783",micro,
"Whitbread And Co. PLC","Whitbread Court Houghton Hall Business Park","Dunstable, United Kingdom",,,,"01582 424200",large,
"Whitby Brewing Company","East Cliff","Whitby, United Kingdom",,,,"+44 1947 228871",micro,
"White Rock Brewery","Unit 6 Dysons Complex Southside","St Sampsons, United Kingdom",,,," 01481 249920",micro,http://whiterockbrewery.gg/
"White Rose Brewery","119 Chapel Road Burncross","Sheffield, United Kingdom",,,,"0114 297 6150",micro,
"Wibblers Brewery Ltd","Goldsands Road","Southminster, United Kingdom",,,," +44 1621 772044",micro,
"Wild Horse Brewing Company Ltd","Unit 4, Cae Bach Builder Street","Llandudno, United Kingdom",,,,,micro,
"Wild Weather Ales Ltd","15 Benyon Rd","Reading, United Kingdom",,,,"+44 118 970 1837",micro,
"Williams Bros. Brewing Co.","New Alloa Brewery Kelliebank","Alloa, United Kingdom",,,,"44 01259 725 511",micro,
"Wilson Potter Brewery Ltd","Unit E2 Hanson Close","Middleton, United Kingdom",,,,"0161 654 6446",micro,
"Wincle Beer Company","Tolls Farm Barn Dane Bridge","Wincle, United Kingdom",,,,"+44 1260 227777",micro,
"Windswept Brewing Co","Unit B 13 Coulardbank Ind Est","Lossiemouth, United Kingdom",,,,"+44 1343 814310",micro,http://windsweptbrewing.com/
"Windy Brewery","Volunteer Inn New Road","Michael, United Kingdom",,,,,micro,
"Wiper And True","2-8 York St St Werburghs","Bristol, United Kingdom",,,,"+44 117 941 2501",micro,http://www.wiperandtrue.com
"Wishbone Brewery","2A Worth Bridge Industrial Estate Chesham Street","Keighley, United Kingdom",,,,"+44 1535 600412",micro,
"Wobbly Brewing Company Limited","22c Beech Business Park Tillington Road","Hereford, United Kingdom",,,,"+44 1432 355496",micro,
"Wold Top Brewery","Hunmanby Grange","Driffield, United Kingdom",,,,"+44 1723 892222",micro,
"Woodlands Brewing Co","Unit 3 Meadow Lane Farm","Nantwich, United Kingdom",,,,,micro,
"WooHa Brewing Company","Upper Hempriggs Farm","Kinloss, United Kingdom",,,,"+44 1667 459929",micro,http://www.woohabrewing.com
"Worsthorne Brewing Co Ltd","Unit 4, Oxford Mill Holgate Sreet","Burnley, United Kingdom",,,,"07815 708289",micro,
"Wriggle Valley Brewery","Unit 4 The Sidings Station Road","Stalbridge, United Kingdom",,,,"01963 363343",micro,
"Wylam Brewery","Palace of Arts Exhibition Park","Newcastle Upon Tyne, United Kingdom",,,,"0191 650 0651",micro,
"Yeovil Ales Ltd","Bofors Park Artillery Road","Yeovil, United Kingdom",,,,"+44 1935 414888",micro,
"York Brewery Co LTD","12 Toft Green","Micklegate, York, United Kingdom",,,,"(190) 462-1162",micro,
"Yorkshire Heart Brewery","Yorkshire Heart Vineyard and Brewery Pool Lane","York, United Kingdom",,,,"01423 330 716",micro,
"Zerodegrees - Blackheath","29/31 Montpelier Vale","Blackheath, United Kingdom",,,,011442088525619,brewpub,http://www.zerodegrees.co.uk
