name,address1,address2,city,state,zip,phone,type,url
"12 Bar Brewing","Unit 7 Crest Industrial Estate Pattenden Lane","Marden, United Kingdom",,,,,micro,
"1648 Brewing Co. Ltd.","Mill Lane East Hoathly","Nr. Lewes, United Kingdom",,,,"+44 1825 840830",,
"360 Degree Brewing Company","Bluebell Business Estate Sheffield Park","Uckfield, United Kingdom",,,,"+44 1825 722375",micro,
"8 Sail Brewery","4 Hale Rd","Heckington, United Kingdom",,,,"+44 1529 469308",micro,
"Abbey Ales","The Abbey Brewery Camden Row","Bath, United Kingdom",,,,"01225 444437",,
"Abbey Ales LTD","The Abbey Brewery","Camden Row, United Kingdom",,,,"(122) 544-4437",,
"Abbeydale Brewery","Unit 8 Aizlewood Rd","Sheffield, United Kingdom",,,,"+44 114 281 2712",micro,http://www.abbeydalebrewery.co.uk/
"Acorn Brewery of Barnsley Ltd.","Unit 3 Mitchell Rd Wombwell","Barnsley, United Kingdom",,,,"+44 1226 270734",micro,http://acorn-brewery.co.uk/
"Acton Ales","2 Castle Island Way North Seaton","Northumberland, United Kingdom",,,,"077 0770 3182",micro,http://www.actonales.com
"Adnams PLC-Sole Bay Brewery","Sole Bay Brewery","Southwold, United Kingdom",,,,,regional,http://www.adnams.co.uk
"Adnams Southwold","Sole Bay Brewery E Green","Southwold, United Kingdom",,,,"+44 1502 727200",regional,
"Aid Pac","Eltric Rd","Worcester, United Kingdom",,,,"(090) 575-5666",,
"Ainsty Ales Brewery","Manor Farm Buildings Intake Lane","Acaster Malbis, United Kingdom",,,,"+44 7983 604989",micro,
"Alcazar Brewery/Fox & Crown Brewpub","33 Church St","Nottingham, United Kingdom",,,,"+44 115 942 2002",micro,
"Ales of Scilly","2B Porthmellon Business Park","St. Mary's, United Kingdom",,,,"+44 7737 721599",micro,
"Alfred's Brewery","5b Scylla Industrial Estate Winnall Valley Road","Winchester, United Kingdom",,,,"+44 1962 859999",micro,
"Allanwater Brewhouse","The Brew House, Queens Ln","Bridge of Allan, United Kingdom",,,," +44 1786 834555",,
"Allendale Brew Company Ltd.","Allen Mill Allendale","Hexham , United Kingdom",,,,"+44 1434 618686",micro,http://www.allendalebrewery.com/
"Allied Breweries Overseas","126 Station St","Burton-On-Trent, Staffs, United Kingdom",,,,,,
"Allied Leisure PLC","Charnwood Mill, Sileby Rd Barrow upon Soar","Leics, United Kingdom",,,,"01509 414 422",,
"Allied-lyons Plc","24 Portland Pl","London, United Kingdom",,,,"020 7323 9000",large,
"Amber Ales Ltd.","Unit 7 Benjamin Outram Business Centre Whiteley Road","Ripley, United Kingdom",,,,"44 01773 512 864",micro,http://www.amberales.co.uk/
"Ambridge Brewery","Priory Piece Piggery 2A Priory Farm Lane","Inkberrow, United Kingdom",,,,"+44 7500 046391",,
"Ampthill Brewery Limited","Unit D The Sidings Station Rd Industrial Estate","Ampthill, United Kingdom",,,,"+44 7508 305754",micro,
"Anarchy Brew Co.","Whitehouse Farm Centre Stannington","Northumberland, United Kingdom",,,,"44 01670 789 755",micro,http://anarchybrewco.com/
"Arbor Ales","181 Easton Rd","Bristol, United Kingdom",,,,"+44 117 329 2711",micro,
"Archers Ales LTD","Penzance Dr","Swindon, Wilts, United Kingdom",,,,"(179) 387-9929",micro,
"Arkells Brewery Ltd","Kingsdown Upper Stratton","Swindon, United Kingdom",,,," +44 1793 823026",,http://www.arkells.com
"Arran Brewery","Cladach Isle of Arran","Brodick, United Kingdom",,,,"+44 1770 302353",micro,http://www.arranbrewery.com
"Art Brew Barn","North End Farm Venn Lane","Chideock, United Kingdom",,,,"+44 7881 783626",,
"Arundel Brewery","Unit C7 Ford Airfield Industrial Estate Rollaston Park","Ford, United Kingdom",,,,"+44 1903 733111",,
"Ascot Ales Ltd","Unit 5 Compton Place Business Centre Surrey Avenue","Camberley, United Kingdom",,,,"+44 1276 686696",micro,
"Ash Vine Brewery","Unit F, Vallis Trading Estate Robins Ln","Frome, Somerset, United Kingdom",,,,"(137) 330-0041",,
"Ashleyhay Brewery","New Buildings Farm Lane End","Ashleyhay, United Kingdom",,,,,micro,https://www.facebook.com/ashleyhaybrewery.co.uk
"Ashover Brewery","Unit 1 Kershaw Buildings Derby Road Business Park","Clay Cross, United Kingdom",,,,"+44 1246 251859",micro,
"Aston Manor Brewery Co Ltd","173 Thimble Mill Lane","Birmingham, United Kingdom",,,,"+44 121 328 4336",,http://www.astonmanor.co.uk
"Atom Brewing Co.","Malmo Rd","Hull, United Kingdom",,,," +44 1482 820572",micro,http://www.atombeers.com/
"Aviemorw Brewery Co LTD","Unit 12 Dalfaber Industrial Estate","Aviemore, Scotland, United Kingdom",,,,"(147) 981-2060",,
"Avon Brewing Company","Unit 4 Russelltown Avenue Industrial Ce","Bristol, United Kingdom",,,,"+44 117 955 3353",,
"Axholme Brewing Company","7 Lakes Country Side Park Wharf Road","Scunthorpe, United Kingdom",,,,"+44 1724 781804",micro,
"B & T Brewery LTD","The Brewery","Shefford, United Kingdom",,,,"(146) 281-5080",,
"B&T Brewery","3e-3f St Francis Way Unit 2A","Shefford, United Kingdom",,,,"+44 1462 815080",,
"Baa Brewing Ltd.","Unit 4, Station Yard Industrial Estate","Chepstow, United Kingdom",,,,,micro,
"BAD Co. Brewing","3 Dishforth Airfield North Hill Road","Dishforth, United Kingdom",,,,"+44 1423 324005",micro,http://wearebad.co
"Bad Seed Brewery","7 Rye Close Malton","North Yorkshire, United Kingdom",,,,"01653 695 783",micro,http://www.badseedbrewery.com/
"Baildon Brewing Company","Unit D Tong Park Business Centre Otley Road","Baildon, United Kingdom",,,,"07914 025 148",micro,http://baildonbrewing.co.uk/
"Ballards Brewery LTD","Unit C The Old Sawmill Nyewood","Nyewood, United Kingdom",,,,"+44 1730 821362",,
"Baltic Fleet","33 Wapping","Liverpool, United Kingdom",,,,"+44 151 709 3116",,
"Bank Top Brewery","The Pavilion Ashworth Lane","Bolton, United Kingdom",,,,"+44 1204 595800",micro,
"Bar Box (Bass)","4th Ave, Centrum 100 Business Park Burton upon Trent",", United Kingdom",,,,"01283 492 677",,
"Barge and Barrel Brewery Co","10-20 Park Rd","Elland, United Kingdom",,,,"01422 254604",,
"Barham Brewery","2 Murray Street","Barham, United Kingdom",,,,,,
"Barney's Beer","1 Summerhall Place","Edinburgh, United Kingdom",,,,"+44 7512 253660",micro,http://barneysbeer.co.uk/
"Barngates Brewery-The Drunken Duck Inn",Barngates,"Ambleside, United Kingdom",,,," +44 15394 36347",micro,http://www.drunkenduckinn.co.uk
"Barnsley Brewing Co","Wath Rd, Elsecar","Barnsley, S Yorks, United Kingdom",,,,"(122) 674-1010",,
"Barracuda Group","Support Ctr., Henley Rd","Medmenham, United Kingdom",,,,"08453 452 258",,
"Barrell & Sellers","Spring Farm St Cross South Elmham","Harleston, United Kingdom",,,,"07788 561455",micro,
"Bartrams Brewery","Rougham Estate Ipswich Rd.","Rougham, Bury St. Edmunds, United Kingdom",,,,44(0)1449737655,,
"Barum Brewery","Reform St","Barnstaple, United Kingdom",,,," +44 1271 329994",micro,
"Bass Brewers","Manor Park","Alton, United Kingdom",,,,04520541177,regional,
"Bass Leisure Retail","PO Box 27 Cape Hill","Birmingham, United Kingdom",,,,"0121 558 1481",,
Bass/Interbrew,"Bass Brewers Manor Park, Turk St","Alton Hampshire, United Kingdom",,,,,,
"Batemans Brewery","Salem Bridge Brewery Wainfleet","Lincolnshire, United Kingdom",,,,,,
"Bath Ales","Hare House Southway Drive","Warmley, United Kingdom",,,,"+44 0117 947 4797",,
"Bath Ales LTD","Hare House Southway Drive","Warmley, United Kingdom",,,,"(117) 947-4797",,
"Battledown Brewing Co","London Road Dowdeswell","Charlton Kings, United Kingdom",,,,"+44 7734 834104",micro,http://www.battledownbrewery.com
"Battlefield Brewery Ltd","Harlescott Lane","Shrewsbury, United Kingdom",,,,"+44 1743 465000",micro,
"Bays Brewery","Aspen Way","Paignton, United Kingdom",,,,"+44 1803 555004",micro,
"BC Brewing & Pub Company Ltd","Six Bells Pub & Brewery Church Street","Shropshire, United Kingdom",,,,,,
"Beachy Head Brewing","Gilberts Dr East Dean","Eastbourne, United Kingdom",,,,"+44 1323 423313",,
"Beartown Brewery","Bromley House Spindle St.","Congleton, United Kingdom",,,,"+44 1260 299964",,
"Beartown Brewery","Bromley House Spindle Street","Congleton, United Kingdom",,,,"44 1260 299964",micro,
"Beat Ales","Old Coach House Church Road","North Curry, United Kingdom",,,,"+44(0)7821 132 297",micro,
"Beath Brewing Ltd.","54 Foulford Rd.","Cowdenbeath, United Kingdom",,,,"+44 7792 369678",micro,http://www.beathbrewing.com/
"Beavertown Brewery","2 Lockwood Industrial Park","Tottenham Hale, United Kingdom",,,,"+44 20 8525 9884",,
"Becketts Brewery LTD","Unit 8 Enterprise Court Hampshire","Basingstoke, United Kingdom",,,,4401256472986,,
"Beckstones Brewery","Upper Beckstones Mill The Green","Millom, United Kingdom",,,,"+44 1229 314900",,
"Bedlam Brewery Limited","Albourne Farm Estate Shaves Wood Lane","Albourne, United Kingdom",,,,"+44 1273 978015",,
"Beehive Brae","3/3 Etna Estate Clamp Road","Wishaw, United Kingdom",,,,"01698 580 572",micro,http://beehivebrae.uk
"Beer Engine","Newton St Cyres","Exeter, United Kingdom",,,,"+44 1392 851282",,
"Beer Engine Limited","Newton St Cyres","Devon, United Kingdom",,,,"+44 01392 851282",,
"Beeston Brewery","Fransham Road Farm Beeston","Kings Lynn, United Kingdom",,,,"+44 1328 700844",micro,
"Belhaven Pubs","1 Logie Rd, Causeway Head","Stirling, United Kingdom",,,,"01786 464 446",,
"Bellingers Brewery","Station Road","Grove, United Kingdom",,,,"+44 1235 772255",micro,
"Belvoir Brewery","Crown Park Station Road","Old Dalby, United Kingdom",,,,"+44 1664 823455",,
"Beowulf Brewing Co","Forest of Mercia Chasewater County Park Pool Road","Straffordshire, United Kingdom",,,,"+44 1543 454067",,
"Berrow Brewery","Coast Rd Berrow","Burnham On Sea, United Kingdom",,,,"+44 1278 751345",,
"Bespoke Brewing Company","The Mews Brook Street","Mitcheldean, United Kingdom",,,,"+44 1594 546426",micro,
"Bewdley Brewery Limited","Unit 7, Bewdley Craft Centre Lax Lane","Bewdley, United Kingdom",,,,"01299 405148",micro,
"Bexley Brewery Ltd","18 Manford Industrial Estate Manor Road","Erith, United Kingdom",,,,"+44 1322 337368",micro,
"Big Beer Co TA Left Handed Giant Brewing","Unit 8 & 9 Wadehurst Industrial Park","Bristol, United Kingdom",,,,,micro,
"Big Bog Brewing Company","74 Venture Point West Evans Road","Speke, United Kingdom",,,,"+44 151 558 0290",micro,
"Big Clock Brewery","1 Manchester Road","Accrington, United Kingdom",,,,"+44 1254 393938",micro,
"Big Hand Brewing Company Ltd","Unit A1 Abbey Close Redwither Business Park","Wrexham, United Kingdom",,,,"+44 1978 660709",micro,https://www.facebook.com/bighandbrewing/
"Big Lamp Brewers","Grange Rd","Newcastle Upon Tyne, United Kingdom",,,,"+44 191 267 7766",,
"Big Smoke Brew Co","87 Maple Road","Surbiton, United Kingdom",,,," +44 20 8339 9721",micro,
"Billericay Brewing Company","54c Chapel Street","Billericay, United Kingdom",,,,"44 01277 500 121",micro,
"Binghams Brewery Ltd","Ruscombe Twyford","Readin, United Kingdom",,,,"+44 118 934 4376",micro,
"Bingley Brewery","Unit 2 Old Mill Yard Shay Lane","Bradford, United Kingdom",,,,"+44 1535 274285",micro,http://www.bingleybrewery.co.uk/
"Bishop Nick Ltd","33 East Street","Braintree, United Kingdom",,,,"+44 1376 349605",,
"Bishop's Crook Brewery","Woodcroft Close Penwortham","Preston, United Kingdom",,,,"07977 220742",micro,
"Bitter End Brewing Co","15 Kirkgate","Cockermouth, United Kingdom",,,,"+44 1900 828993",micro,
"Black Country Ales","69 Third Avenue Pensnett Trading Estate","Kingswinford, United Kingdom",,,," 01384 401820",micro,
"Black Dog Brewery LTD","St Hildas Business Centre","Whitby, N Yorkshire, United Kingdom",,,,"+44 194-782-1467",contract,http://www.synthesys.co.uk/black_dog/index.htm
"Black Hole Brewery","Unit 63GF, Imex Business Park Shobnail Road","Burton-upon-Trent, United Kingdom",,,,,micro,http://www.blackholebrewery.co.uk/
"Black Horse Brewing","26 Nottingham Court Nottingham Road","Louth, United Kingdom",,,,"+44 1507 354330",,
"Black Iris Brewery","Unit 1 Shipstone Street","Nottingham, United Kingdom",,,,"+44 115 979 1936",micro,https://www.facebook.com/blackiris.brewery
"Black Isle Brewery","Old Allangrange","Munlochy, United Kingdom",,,,"+44 1463 811871",micro,http://www.blackislebrewery.com
"Black Paw Brewery Ltd.","Westgate Road","Bishop Auckland, United Kingdom",,,,"+44 1388 602144",micro,http://www.blackpawbrewery.co.uk/
"Black Rock Brewing","6C Empire Way","Falmouth, United Kingdom",,,,"+44 1326 379477",micro,
"Black Sheep Brewery","Wellgarth House Crosshills","Wellgarth Court, United Kingdom",,,,"+44 1765 689227",micro,http://www.blacksheepbrewery.co.uk
"Black Sheep Brewery","Wellgarth Masham","North Yorkshire, United Kingdom",,,,,,
"Black Sheep Brewery PLC","""Welgarth, Masham""","Ripon, United Kingdom",,,,,,http://www.blacksheep.co.uk
"Black Tor Brewery","Unit 5 Gidleys Meadow Christow","Exeter, United Kingdom",,,,"+44 1647 252120",micro,
"Black Wolf Brewery","7c Bandeath Industrial Estate","Throsk, United Kingdom",,,,"+44 1786 817000",micro,http://blackwolfbrewery.com/
"Blackawton Brewery","Forge Lane Saltash","Cornwall , United Kingdom",,,,,,
"Blackawton Brewery","Barnlee Lodge Ilsington","Devon, United Kingdom",,,,01364661524,,
"Blackdown Brewery",Dunkeswell,"Devon, United Kingdom",,,,,,
"Blackedge Brewing Company Ltd","Moreton Mill Hampson Street","Horwich, United Kingdom",,,,"+44 1204 692976",micro,
Blackfriars,"36 Bell Street Glasgow","Glasgow, United Kingdom",,,,"+44 141 552 5924",,
"Blackhill Brewery","Unit 1a Pontop Centre Hare Law Industrial Estate","Stanley, United Kingdom",,,,"+44 1207 230632",micro,http://www.blackhillbrewery.com/
"Blackjack Beers Ltd","Irk St","Manchester, United Kingdom",,,,"+44 161 819 2767",micro,
"Blakemere Brewery","Blakemere Village Chester Road","Sandiway, United Kingdom",,,,"+44 1606 301000",,
"Blanchfields Brewery","Wibblers Brewery Ltd. Joyces Farm","Essex, United Kingdom",,,,01621772044,,
"Blencowe Brewing","28 Main Street Barrowden","Rutland, United Kingdom",,,,,,
"Blindmans Brewery","Talbot Farm Leighton","Frome, United Kingdom",,,," +44 1749 880038",micro,
"Blue Anchor","50 Coinagehall Street Helston","Cornwall, United Kingdom",,,,"44 01326 562 821",,
"Blue Bee Brewery Ltd.","Unit 29-30 Hoyland Road Industrial Estate","Sheffield, United Kingdom",,,,"+44 7375 659349",micro,http://bluebeebrewery.co.uk
"Blue Monkey Brewing Ltd","10 Pentrich Road Giltbrook Industrial Park","Nottingham, United Kingdom",,,,"+44 115 938 5899",micro,
"Bluestone Brewing Co.","Tyriet Cilgwyn","Newport, United Kingdom",,,,"01239 820 833",micro,
"Blythe Brewery","Blythe House Farm Lichfield Road","Rugeley, United Kingdom",,,,"+44 7773 747724",micro,
"Bobage Brewing Co.","P.O. Box 96 Leeds","West Yorkshire, United Kingdom",,,,"+44 7582 409682",micro,http://www.bobagebrewing.co.uk/
"Boddingtons Brewery","1 Ashworth Park","Knutsford, Cheshire, United Kingdom",,,,+44.1618.282355,,
"Bodicote Brewery","Plough Inn - Bodicote","Banbury, United Kingdom",,,,,,
"Bollington Brewing Company","Adlington Road Bollington","Cheshire, United Kingdom",,,,"+44 1625 575380",micro,
"Border Brewery Co","The Old Kiln Brewery Ln","Berwick on Tweed, United Kingdom",,,,"+44 (0128) 930-3303",,
"Borough Arms Brewery","33 Earle Street Crewe","Chesire, United Kingdom",,,,"+44 1270 254999",,
"Borough Brewery (Neath)","2 New Henry Street","Neath, United Kingdom",,,,"+44 1639 644902",micro,
"Boss Brewing Company","14 Worcester Court Mannesmann Close","Swansea, United Kingdom",,,,"07825 525 735",micro,
"Bosun's Brewing Company","Unit C2 Wakefield Commercial Park Bridge Road","Wakefield, United Kingdom",,,,"+44 1924 671881",micro,http://www.bosunsbrewery.co.uk/
"Botley Brewery","Botley Flour Mills Mill Hill","Botley, United Kingdom",,,," +44 7909 337212",micro,
"Bottle Brook Brewery","10 Church Street Kilburn","Belper, United Kingdom",,,,"(797) 118-9915",,
"Bowland Brewery","Holmes Mill Greenacre Street","Clitheroe, United Kingdom",,,,"+44 1200 443592",micro,
"Bowman Ales Ltd","Wallops Wood Sheardley Lane","Droxford, United Kingdom",,,,"+44 1489 878110",micro,
"Box Social Brewing","Units 1-3 Winnings Courtyard Newburn","Newcastle Upon Tyne, United Kingdom",,,,"+44 191 267 1295",micro,http://www.boxsocial.pub/
"Box Steam Brewery","15 The Midlands Holt","Trowbridge, United Kingdom",,,,"+44 1225 782700",micro,
"Bradfield Brewery Ltd","Watt House Farm High Bradfield","Sheffield, United Kingdom",,,,"+44 114 285 1118",micro,
"Bradford Brewery","West 3SH 22 Rawson Road","Bradford, United Kingdom",,,,"+44 1274 397054",micro,
"Bragdy Credigion Brewery","Wervil Grange Farm -Unit 2","Pentregat, United Kingdom",,,,,,
"Bragdy Nant Brewery","The Outbuildings Penrhwylfa","Maenan, United Kingdom",,,,"07723 036862",micro,
"Bragdy Twt Lol","Unit B27","Trefforest, United Kingdom",,,,,micro,
"Brampton Brewery","Unit 5 Chatsworth Business Park Chatsworth Road","Chesterfield, United Kingdom",,,,"+44 1246 221680",micro,
"Brandon Brewery","76 High Street","Brandon, United Kingdom",,,,"44 07876 234 689",micro,
"Brandy Cask Brewery","25 Bridge St","Pershore, United Kingdom",,,,,,
"Branscombe Vale Brewery","Great Seaside Farm","Branscombe, United Kingdom",,,,"01297 680511",,
"Brass Castle Brewery Ltd","10A Yorkersgate","Malton, United Kingdom",,,,"01653 698683",micro,
"Braunton Brewery","Unit 9 Chivenor Business Park","North Devon, United Kingdom",,,,,micro,
"Brecon Brewing","Brecon Enterprise Park","Brecon, United Kingdom",,,,"+44 1874 620800",micro,
"Brekeley Brewing Co","372 Old Street ECIV 9LT","London, United Kingdom",,,,"(145) 351-1799",,
"Brentwood Brewing Co Ltd","Calcott Hall Farm Ongar Road","Brentwood, United Kingdom",,,,"01277 200483",micro,
BrewDog,"Balmacassie Commercial Park","Ellon, United Kingdom",,,,"44 1358 727884",regional,http://www.brewdog.com
"BrewDog PLC","Balmacassie Industrial Estate Balmacassie Dr","Ellon, United Kingdom",,,,"+44 1358 724924",regional,
"Brewery in Planning - London",,"London, United Kingdom",,,,"44 (0)7426837459",planning,
"Brewery On Sea LTD","24 Winston Business Centre Chatwell Rd","Lancing, United Kingdom",,,,"+44 (0190) 385-1482",,
Brewmeister,"Isla Bank Mills","Keith, United Kingdom",,,,"+44 1542 488006",micro,http://keithbrewery.co.uk/
"Brewshed Brewery"," 3 The St Ingham","Bury St Edmunds, United Kingdom",,,,"01284 848066",micro,
"Brewsters Brewing Co Ltd","Unit 5 Burnside Turnpike Close","Grantham, United Kingdom",,,," 01476 566000",,http://www.brewsters.co.uk
"Briarbank Brewing Company Ipswich","70 Fore Street","Ipswich, United Kingdom",,,,"+44 1473 284000",micro,http://briarbank.org
"Brick Brewery","Blenheim Grove","London, United Kingdom",,,,"+44 7747 787636",micro,
"Bridestones Brewing","Smithy Farm Blackshaw Head","Hebden Bridge, United Kingdom",,,,"+44 1422 847104",micro,
"Bridgehouse Brewery Ltd.","Aireworth Rd","Keighley, United Kingdom",,,,"01535 642893",micro,
Brigantes,"144 Micklegate York","England, United Kingdom",,,,,,
"Brighton Bier","Unit 10 Bell Tower Industrial Estate Roedean Rd","Brighton, United Kingdom",,,,"+44 1273 567374",,
"Brightside Brewing Company","Dale Industrial Estate Radcliffe","Manchester, United Kingdom",,,," +44 161 725 9644",micro,
"Brightwater Brewery Ltd","Platform 3 The Parade","Claygate, United Kingdom",,,,"+44 1372 462334",,
"Brimstage Brewing Company Ltd","Home Farm Brimstage Lane","Wirral, United Kingdom",,,,"0151 342 1181",micro,
"Brinkburn Street Brewery Ltd.","Quayside I4 Ouseburn Building","Newcastle Upon Tyne, United Kingdom",,,,"0191 2600688",micro,http://www.brinkburnbrewery.co.uk/
"Briscoes Brewery","16 Ash Grove Otley","West Yorkshire, United Kingdom",,,,"44 01943 466515",,
"Bristol Beer Factory","291 North Street Southville","Bristol, United Kingdom",,,,"44 0117 902 6317",,
"Brixton Brewery","Arch 547 Brixton Station Road","London, United Kingdom",,,,"+44 20 3609 8880",micro,
"Broadstone Brewing","Lodge 12 Wharf Road Retford","Nottingham, United Kingdom",,,,"01777 719797",,
"Brodie's Beers","816 High Road Leyton","London, United Kingdom",,,,,,
"Broughton Ales Ltd","Main Street","Broughton Village, United Kingdom",,,,"+44 1899 830345",micro,http://www.broughtonales.co.uk
"Brown Cow Brewery","Brown Cow Road","Barlow, United Kingdom",,,,"+44 1757 618947",,
"Brunning and Price Ltd","Yew Tree Farn Buildings Saighton","Chester, United Kingdom",,,,"01244 333 100",,
"Brunswick Brewing Co LTD","1 Railway Terrace","Derby, United Kingdom",,,,"+44 1332 410055",,
"Bryncelyn Brewery","Wern Fawr Inn","Ystalyfera, United Kingdom",,,,"+44 1639 843625",,
"Buccaneer Holdings Ltd","23 Rodney Rd Cheltenham","Glous, United Kingdom",,,,"01242 239 383",,
"Bude Brewery","14c Kings Hill Industrial Estate","Bude, United Kingdom",,,,"+44 1288 359937",micro,
"Buffeys Brewery","Mardie Hall, Rectory Rd","Tivetshall St Mary, Norwich, United Kingdom",,,,"(137) 967-6523",,
"Buffy's Brewery Ltd","Mardle Hall Rectory Road Tivetshall St Mary","Norwich, United Kingdom",,,,"+44 1379 676523",,http://www.buffys.co.uk
"Bullmastiff Brewery","14 Bessemer Close Hadfield Rd, Leckwith","Cardiff, South Glamorgan, United Kingdom",,,,"(292) 066-5292",,
"Bullmastiff Brewery","Bessemer Cl","Cardiff, United Kingdom",,,,"+44 29 2066 5292",,
"Buntingford Brewery Co Ltd","The Brewhouse Greys Therfield Rd","Royston, United Kingdom",,,,"+44 1763 250749",,
"Burham Brewery","Unit 5A Bowburn North Industrial Estate","Bowburn, United Kingdom",,,,"+44 (0191) 377-1991",,
"Burning Sky Brewery Ltd","Place Barn The St","Firle, United Kingdom",,,,"+44 1273 858080",micro,http://burningskybeer.com
"Burns Leisure","Archers Brewery, Penzance Dr Swindon","Wilts, United Kingdom",,,,"01793 881 408",,
"Burton Bridge Brewery","24 Bridge St","Burton upon Trent, Staffs, United Kingdom",,,,"(128) 351-0573",micro,
"Burton Bridge Brewery","24 Bridge Street","Burton-on-Trent, United Kingdom",,,,"+44 1283 510573",micro,
"Burton Old Cottage Beer Co","""U3, Eccleshall Business Park "" Hawkins Lane","Burton-on-Trent, United Kingdom",,,,,,
"Burton Town Brewery","Unit 8 Falcon Close","Burton Upon Trent, United Kingdom",,,,"44 1283 510839",micro,
"Bushy's Brewery Ltd","Mount Murray","Braddan, United Kingdom",,,,"+44 1624 661244",,
"Butcombe Brewery LTD","Cox's Green","Wrington, United Kingdom",,,,"+44 1934 863963",,
"Butts Brewery LTD","Northfield Farm Industrial Estate Wantage Rd","Great Shefford, United Kingdom",,,,"+44 1488 648133",,
"Butts Brewery Ltd","Northfield Farm Wantage Road","Hungerford, United Kingdom",,,,,,
"Buxton Brewery Co Ltd","4A-4B Staden Business Park Staden Ln","Staden , United Kingdom",,,,"+44 1298 24420",micro,
"By The Horns Ltd","25 Summerstown","London, United Kingdom",,,,"+44 20 3417 7338",micro,
"Byatt's Brewery Ltd","Unit 10, Lythalls Lane Lythalls Lane Industrial Estate","Coventry, United Kingdom",,,,,micro,
"C C Taverns Ltd","76 Mitcham Rd","London, United Kingdom",,,,"020 8767 8967",,
"Cader Ales Limited T/A CWRW Cader","Unit 4 Marian Mawr Enterprise Park","Dolgellau, United Kingdom",,,,"07931 734655",micro,
"Cains Brewery Village - Liverpool","Stanhope Street Liverpool","England, United Kingdom",,,,"+44 7831 377795",,http://www.cainsbeers.com
"Cairngorm Brewery Co Ltd","Dalfaber Industrial Estate","Aviemore, United Kingdom",,,,"+44 1479 812222",micro,
"Caledonian Brewery","42 Slateford Road","Edinburgh, United Kingdom",,,,"+44 131 337 1286",,http://www.caledonianbeer.com
"Caledonian Heritable Ltd","4 Hope St","Edinburgh, United Kingdom",,,,"0131 220 5511",,
"Calverley's Brewery","23A Hooper Street","Cambridge, United Kingdom",,,,"+44 1223 312370",micro,
"Calvors Brewery","Home Farm Coddenham Green","Ipswich, United Kingdom",,,,"+44 1449 711055",micro,
"Cambridge Moonshine Brewery","Hill Farm Shelford Road","Cambridgeshire, United Kingdom",,,,"07906 066794",,
"Cambrinus Brewery","Home Farm Knowsley Park","Knowsley, United Kingdom",,,,,,
"Camden Town Brewery","55-59 Wilkin St Mews","London, United Kingdom",,,,"+44 20 7485 1671",regional,
"Cannon Royall Brewery","Fruiter`s Arms Uphampton","Droitwich , United Kingdom",,,," +44 1905 621161",,
"Canopy Beer Co","Arch 1127 Bath Factory Estate 41 Norwood Road","London, United Kingdom",,,,"+44 20 8671 9496",micro,
"Canterbury Ales","Unit 7, Stour Valley Business Park Ashford Road","Canterbury, United Kingdom",,,,"01227 732541",,
"Captain Cook Brewery","The White Swan 1 West End","Stokesley, United Kingdom",,,,01642710263,micro,
"Carlisle Brewing Company","12A Kingstown Broadway Unit 2","Carlisle, United Kingdom",,,,"+44 1228 594959",micro,
"Carlsberg-Tetley Brewing Ltd.","Jacobsen House 140 Bridge Street","Northampton, United Kingdom",,,,"(+44) 1604 668866",large,http://www.carlsberg.co.uk
"Castle Brewery","Unit 9A 7 Restormel Ind Est Liddlecoat Road","Lostwithiel, United Kingdom",,,,"+44 07880 349032",,
"Castle Combe Brewery Ltd","Preston West Farm","Preston, United Kingdom",,,,"+44 1249 892900",,
"Castle Rock Brewery","Castle Rock Brewery Queensbridge Road","Nottingham, United Kingdom",,,,"44 0115 985 1615",,
"Castle Rock Brewery LTD","Queens Bridge Rd","Nottingham, United Kingdom",,,,"+44 115 985 1615",,
"Castles Brewery","Unit 51B Symondscliffe Way Portskewett","Caldicot, United Kingdom",,,,"+44 1291 422032",,
"Castor Ales","30 Peterborough Road","Castor, United Kingdom",,,,"44 07828 048 664",,
"Catmere Ltd","Bridge House Hotel Station Rd","Scunthorpe, United Kingdom",,,,"01724 861 703",,
"Cayo Arms","36 Cathedral Road Pontcanna","Cardiff, United Kingdom",,,,"44 029 2039 1910",,
"Caythorpe Brewery","C/o The Black Horse 29 Main Street","Caythorpe, United Kingdom",,,,"01159 664933",micro,
"Celt Experience Brewery","Unit 2E Pontygwindy Road","Caerphilly, United Kingdom",,,,"+44 870 803 3876",,
"Cerddin Brewery","Maesteg Road","Maesteg, United Kingdom",,,,"+44 1656 732476",micro,
"Cerne Abbas Brewery","2 Mill Ln","Cerne Abbas, United Kingdom",,,,"+44 7506 303407",micro,
"Chalk Hill Brewery","Rosary Road Norwich","Norfolk, United Kingdom",,,," 01603 477078",,
"Chalk Hill Brewery","Rosary Rd","Norwich, Norfolk, United Kingdom",,,,"(160) 347-7078",,
"Chambers Cox PR Ltd","192-198 Vauxhall Bridge Road","London, United Kingdom",,,,"44 (0)20 7592 3100",,
"Chantry Brewery","Unit 1 Callum Court Gateway Industrial Estate","Rotherham, United Kingdom",,,,"+44 1709 711866",micro,
"Charles Wells Brewery","77 Wentworth Dr Bedford","Bedfordshire, United Kingdom",,,,,,
"Charles Wells LTd","Havelock Street","Bedford, United Kingdom",,,,"+44 1234 272766",,
"Charnwood Brewery","22 Jubilee Drive","Loughborough, United Kingdom",,,,"+44 1509 218666",micro,
"Cheddar Ales Ltd","Winchester Farm Draycott Road","Cheddar, United Kingdom",,,,"+44 1934 744193",micro,
"Cheriton Brewhouse","Cheriton, Alresford","Hampshire, United Kingdom",,,,"(196) 277-1166",,
"Cheshire Brew Brothers","6 Stanney Mill Ind. Est. Dutton Green","Chester, United Kingdom",,,,"+44 7890 567582",micro,
"Cheshire Brewhouse","Unit 5, Daneside Business Park Riverdane Road","Cheshire, United Kingdom",,,,"01260 274788",micro,http://www.cheshirebrewhouse.co.uk/contact/
"Chiltern Brewery","Nash Lee Road Terrick","Buckinghamshire, United Kingdom",,,,"+44 1296 613647",,
"Church End Brewery","Church Rd, Shustoke","Warwickshire, United Kingdom",,,,"(167) 548-1567",,
"Church End Brewery","109 Ridge Lane","Nuneaton, United Kingdom",,,,"+44 1827 713080",,
"Church Farm Brewery","Church Farm","Budbrooke, United Kingdom",,,,,micro,
"City of Cambridge Brewery","Ely Rd","Cambridge, United Kingdom",,,,"(122) 335-3939",,
"City of Cambridge Brewery Co. Ltd","Norwich Road Decoy Farm","Norfolk, United Kingdom",,,,"44 01953 457 775",,
"Clearwater Brewery","1 Little Court Manteo Way","Bideford, United Kingdom",,,,"+44 1237 420492",,
"Clockwork Beer Company","1153-55 Cathcart Road","Glasgow, United Kingdom",,,,"(141) 649-0184",,
"Cloudwater Brew Co.","7-8 Piccadilly Trading Estate","Manchester, United Kingdom",,,,"+44 161 661 5943",micro,
"Coach House Brewing Co","Wharf St","Warrington, Cheshire, United Kingdom",,,,"(192) 523-2800",,
"Coach House Brewing Company","Wharf Street Howley","Warrington, United Kingdom",,,,"+44 1925 232800",,
"Coastal Brewery","Unit 10B Cardrew Industrial Estate","Cornwall, United Kingdom",,,,"44 01209 212613",micro,
"Cobra Beer","137 High Street","Burton-on-Trent, United Kingdom",,,,"+44 1283 511000",micro,http://www.cobrabeer.com
"Colchester Brewery Ltd","Wakes Hall Business Centre Colchester Rd","Colchester, United Kingdom",,,,"+44 1787 829422",micro,
"Collingham Ales","Leeds Road","Collingham, United Kingdom",,,,"01937 573 096",micro,
"Comer Group Ltd","Comer House, Station Rd Tadcaster","N Yorkshire, United Kingdom",,,,"01937 833 311",,
"Compact Breweries Ltd","Hearthcolt Rd, Swadlincote Boardmans Industrial Estate #3","Burton On Trent, United Kingdom",,,,,,
"Company Value Ltd.","14 Kerwin Road","Sheffield, United Kingdom",,,,+44-114-262-0810,micro,
"Compass Brewery Limited","Clare Terrace","Carterton, United Kingdom",,,,"+44 1993 846846",micro,http://compassbrewery.com/
"Concertina Brewery","Dolcliffe Rd","Mexborough, United Kingdom",,,,"+44 1709 580841",micro,
"Concrete Cow Brewery","59 Alston Drive Milton Keynes","Buckinghamshire, United Kingdom",,,,"44 0788 966 5745",,
"Coniston Brewing Co","Coppermines Rd","Coniston, United Kingdom",,,,"+44 15394 41133",micro,
"Conquest Inns Ltd","14 Theobald St Boremwood","Herts, United Kingdom",,,,"020 8207 5656",,
"Consett Ale Works","115 Sherburn Terrace Consett","Durham, United Kingdom",,,,"+44 1207 591540",,
"Copper Dragon Brewery Ltd","Enterprise Way Airedale Business Centre","Skipton, United Kingdom",,,,"+44 1756 701289",,
"Cornish Chough Brewery","Trethvas Farm The Lizard","Helston, United Kingdom",,,,"+44 1326 290908",micro,
"Cornish Crown Ltd","Badgers Cross","Penzance, United Kingdom",,,,"+44 1736 449029",,
"Corporate Catering Co Ltd","135 Petersham Rd Richmond","Surrey, United Kingdom",,,,"020 8332 0675",,
"Corvedale Brewery","The Sun Inn  B4368","Shropshire, United Kingdom",,,,"+44 1584 861239",brewpub,
"Cotleigh Brewery","Ford Rd Wiveliscombe","Taunton, United Kingdom",,,,"+44 1984 624086",,
"Cotswold Lion Brewery","Grain Store 5 Dowmans Farm","Coberley, United Kingdom",,,,,micro,
"Cotswold Spring Brewing Co","Tortworth Business Park","Tortworth, United Kingdom",,,,,micro,
"Cottage Brewing Co LTD","Old Cheese Dairy, Hornblotton Rd","Lovington, Somerset, United Kingdom",,,,"+44 196324-0551",,
"Country Life Brewery"," Abbotsham Rd Abbotsham","Bideford, United Kingdom",,,,"+44 1237 420808",micro,
"County Estates Public House","9 Harley St","London, United Kingdom",,,,"020 7436 2080",,
"Courage LTD","1 Bridge St Staines","Middlesex, United Kingdom",,,,,large,
"CrackleRock Brewing Company","The Old Cooperage The High Street","Botley, United Kingdom",,,,"+44 7733 232806",,
"Crafty Brewing Company Ltd","Thatched House Farm Loxhill","Surrey, United Kingdom",,,,"+44 1483 276300",micro,
"Crate Brewery","7 The White Building Queen's Yard","London, United Kingdom",,,,"+44 20 8533 3331",,
"Croft Inns","3 Marshall Rd Castle Reagh","Belfast, United Kingdom",,,,"028 9040 4619",,
"Cromarty Brewing Co.",Glencora,"Davidston, United Kingdom",,,,"+44 1381 600440",micro,http://www.cromartybrewing.co.uk
"Cronx Brewery Ltd","Unit 6 Vulcan Business Centre Vulcan Way","New Addington, United Kingdom",,,,"+44 20 3475 8848",micro,
"Cropton Brewery","Cropton Ln","Pickering, United Kingdom",,,,"+44 1751 417330",,
"Crouch Vale Brewery","23 Haltwhistle Road","South Woodham Ferrers, United Kingdom",,,,"+44 1245 322744",,
"Cryptic Ales Ltd","3 Carrington Field Street","Stockport, United Kingdom",,,,"0161 222 8840",micro,
C-Side,"9 Cranbourne St Brighton","East Sussex, United Kingdom",,,,"01273 772 208",,
"Cuckmere Haven Brewery","Exceat Bridge Cuckmere Haven","Seaford, United Kingdom",,,,"+44 1323 892247",,
"Cuckoo Ales","Tackleway Hastings","East Sussex, United Kingdom",,,,,,
"Cullercoats Brewery Ltd.","17 St Oswins Avenue Cullercoats","Tyne and Wear, United Kingdom",,,,"44 07895 692 881",micro,
"Cumberland Breweries Ltd","The Green","Wetheral, United Kingdom",,,,"01228 560899",,
"Cumbrian Legendary Ales","Old Hall Brewery Hawkshead","Cumbria, United Kingdom",,,,"01539 436 436",micro,
"Cwrw Ial Community Brewing Company","Pant Du Road","Eryrys, United Kingdom",,,,"01352 810343",,
"Daleside Brewery","Camwal Rd","Harrogate, United Kingdom",,,,"+44 1423 880022",micro,
"Dancing Cows Ltd","Sadlers Farm Workshops Lower Pennington Lane","Lymington, United Kingdom",,,,"+44 1590 676071",micro,
"Dancing Duck Brewery","John Cooper Buildings Payne Street","Derby, United Kingdom",,,,"+44 1332 205582",micro,
"Daniel Batham & Son Ltd.-Delph Brewery","Delph Road","Brierly Hill, United Kingdom",,,,,,http://www.bathams.co.uk
"Daniel Batham and Son Ltd","Delph Lane Dudley","West Midlands, United Kingdom",,,,,,
"Daniel Thwaites PLC","Daniel Thwaites PLC Penny Street","Lancashire, United Kingdom",,,,"01254 686868",regional,
"Dark Horse Brewing Co","Coonlands Laithe Hetton","North Yorkshire, United Kingdom",,,,"(199) 250-9800",micro,
"Dark Revolution","Unit 9 Lancaster Road","Salisbury, United Kingdom",,,,"01722 411179",micro,
"Dark Star Brewing Co LTD","Star Road Industrial Estate","Partridge Green, United Kingdom",,,,"+44 1403 713085",,
"Darktribe Brewery","High Street East Butterwick","Scunthorpe, United Kingdom",,,,"01724 782324",,
"Dartmoor Brewery Ltd","Station Road","Yelverton, United Kingdom",,,,"+44 1822 890789",,
"Darwin Brewery LTD","Unit 1 West Quay Court Sunderland Enterprise Park","Sunderland, United Kingdom",,,,"+44 191 549 9450",micro,
"Davenports Highgate Brewery Ltd","11 New Street","Birmingham, United Kingdom",,,," 0121 555 4867",,http://www.highgatebrewery.co.uk
"Davy and Co Ltd","59-63 Bermondsey St","London, United Kingdom",,,,"020 7407 9670",,
"Dawkins Ales","Timsbury Workshop Estate Hayeswood Road","Timsbury, United Kingdom",,,,"+44 1761 472242",micro,
"Decent Brewery Ltd","Unit 1, LHS Gate House 16 Hamm Moor Lane","Addlestone, United Kingdom",,,,,micro,
"Dent Brewery",Cowgill,"Dent, United Kingdom",,,,"+44 15396 25326",,
"Dent Brewery","Hollins Cowgill","Cumbria, United Kingdom",,,,"44 01539 625 326",,
"Derby Brewing Company Ltd","Masons Place Business Park Nottingham Road","Derby, United Kingdom",,,,,micro,
"Derventio Brewery Ltd","The Brew Shed Darley Abbey Mills","Darley Abbey, United Kingdom",,,," +44 1332 380199",micro,
"Derwent Brewery","Units 2a-2c Solway Industrial Estate Silloth","Cumbria, United Kingdom",,,,,,
"Derwent Brewery","Units 2a-2c Solway Industrial Etsate","Silloth, United Kingdom",,,,"016973 31522",,
"Devil's Dyke Brewery","8 Fair Green Reach","Cambridge, United Kingdom",,,,"+44 1638 743816",,
"Devon Earth Brewery","7 Fernham Terrace Torquay Road","Paignton, United Kingdom",,,,,,
"Devonshire Arms","86 Station Street","Burton Upon Trent, United Kingdom",,,,"+44 1283 562392",,
"Devonshire Pub Co Ltd","39 Balham High Rd","London, United Kingdom",,,,"+44 20 8673 1363",,
"Dhillons Brewery","14a Hales Industrial Estate Rowleys Green","Coventry, United Kingdom",,,,"+44 24 7666 7413",,
"Diageo GB-Park Royal Brewery",,"London, United Kingdom",,,,,,http://www.diageo.com
"Digfield Ales","Lilford Lodge Farm","Peterborough, United Kingdom",,,,"+44 1832 273954",micro,
"Donnington Brewery","Stow on the Wold","Cheltenham, United Kingdom",,,,"+44 1451 830603",,
"Dorking Brewery","The Engine Shed Dorking West Station Yard","Dorking, United Kingdom",,,,"+44 1306 877988",micro,
"Dorset Brewing Co Ltd","Jurassic Brewhouse Hybris Business Park","Crossways, United Kingdom",,,,"+44 1305 777515",,
"Dorset Brewing Company","The Jurassic Brewhouse Hybris Business Park","Dorset, United Kingdom",,,,"044 01305 777 515",,
"Double Maxim Beer Company Ltd","Maxim Brewery 1 Gadwall Road","Houghton Le Spring, United Kingdom",,,,"+44 (0)191 584 8844",micro,http://www.maximbrewery.co.uk
"Double Top Brewery","Unit 4 Kilton Terrace Bracebridge","Notts, United Kingdom",,,,"+44 7973 521824",micro,
"Dove Street Brewery","82 St Helens Street","Ipswich, United Kingdom",,,,"+44 1473 211270",micro,http://www.dovestreetbrewery.co.uk/pages/contact.php
"Dow Bridge Brewery","2-3 Rugby Rd","Lutterworth, United Kingdom",,,,"+44 1788 869121",micro,
"Downlands Brewery","Unit Z2a Mackley Industrial Estate Henfield Road","Henfield, United Kingdom",,,,"+44 1273 495596",micro,
"Downton Brewery Co Ltd","Unit 11 Batten Road Downton Industrial Estate","Salisbury, United Kingdom",,,,"+44 1725 513313",micro,
"Dragonfly Brewery","183 High Street Acton","London, United Kingdom",,,,"+44 20 8992 3712",micro,
"Druid Inn","Ruthin Road Llanferres","Denbighshire, United Kingdom",,,,"44 1352 810 225",,
"Drygate Brewing Co.","85 Drygate","Glasgow, United Kingdom",,,,"+44 141 212 8815",brewpub,http://drygate.com
"Dublin Brewing Co Ltd","141/146 North King St","Smithfield, Dublin 7, United Kingdom",,,,"353-1 872-8622",,
"Dukeries Brewery","Carlton Forest Distribution Centre","Worksop, United Kingdom",,,,"+44 1909 731171",micro,
"Dunscar Bridge Brewery","Unit 12, Dunscar Business Park Blackburn Road","Bolton, United Kingdom",,,,"01204 563 517",micro,
"Earl Soham Brewery","Unit 1A Meadow Works","Debenham, United Kingdom",,,,"44 1728 861213",,
"East London Brewing Co Ltd","Fairways Business Park Lammas Road","London, United Kingdom",,,,"+44 20 8539 0805",micro,
"Eccleshall Brewery","Castle St","Eccleshall, Stafs, United Kingdom",,,,"+44 178-585-0300",,
"Edale Brewery Co","Ruskin Villa Hope Road","Edale, United Kingdom",,,,,,http://www.edalebrewey.co.uk
"Eden Brewery Ltd","Unit 3 Hartness Road","Penrith, United Kingdom",,,,"+44 1768 210565",,
"Eden Mill","Main Street Guardbridge","St Andrews, United Kingdom",,,,"+44 (0) 1334 834 038",,http://www.edenmill.com
Edinbrew,"Unit 5 Knightsridge East Industrial Est","Livingston, United Kingdom",,,,"+44 1506 442136",micro,http://www.edinbrew.beer
"Edinburgh Beer Factory Ltd.","Unit 15 Bankhead Industrial Estate","Edinburgh, United Kingdom",,,,"+44 131 442 4562",micro,http://edinburghbeerfactory.co.uk/
"Eldridge, Pope and Co PLC","Weymouth Ave Dorchester","Dorchester, Dorset, United Kingdom",,,,"+44 1305 251 251",,
"Elgood & Sons Ltd","72 N Brink","Wisbech, United Kingdom",,,,"+44 1945 583160",,http://www.elgoods-brewery.co.uk
"Elizabeth Holdings","Ryan Precinct 33 Fore St Ipswich","Suffolk, United Kingdom",,,,"01473 217 458",,
"Elland Brewery","Units 3-5 Heathfield Ind. Est Heathfield Street","Elland, United Kingdom",,,,"+44 (0) 1422 377677",,
"Elland Brewery Ltd","3-5 Heathfield Industrial Estate Heathfield Street","Elland, United Kingdom",,,,"+44 1422 377677",micro,https://www.ellandbrewery.co.uk
"Elmtree Beers","Unit 10 Oakwood Industrial Estate Harling Rd","Snetterton, United Kingdom",,,,"+44 1953 887065",micro,
"Ember Inns","27 Fleet Street","Birmingham, United Kingdom",,,,"+44 121 498 4000",,
"Empire Brewing","The Old Boiler House Unit 33 Upper Mills","Huddersfield, United Kingdom",,,,"01484 847343",micro,http://empirebrewing.com/
"Engineers Arms Brewery Company","66 High Street HENLOW","BEDFORDSHIRE, United Kingdom",,,,"44 01462 812 284",,
"Ennerdale Brewery Ltd","Chapel Row","Rowrah, United Kingdom",,,,"01946 862977",micro,
"Enterprise Inns PLC","Friars Gate Stratford Rd Solihull","West Midlands, United Kingdom",,,,"0121 733 7700",,
"Enville Ales","Hollies Lane Cox Green","Stourbridge, United Kingdom",,,," +44 1384 873728",,
"Errant Brewery","Arch 19 Forth Street","Newcastle-Upon-Tyne, United Kingdom",,,,"+44 7736 333303",micro,http://www.errantbrewery.com
Evan-Evans,"2 abbey terrace, Llandeilo","Llandeilo, United Kingdom",,,,"(797) 047-8539",contract,
"Evans-Evans Brewery","1 Rhosmaen Street","Llandeilo, United Kingdom",,,,"+44 1558 824455",micro,
"Everards Brewery Ltd","Devana Avenue","Glenfield, United Kingdom",,,,"0116 201 4100",,http://www.everards.co.uk
"Evesham Brewery","17 Oat St","Evesham, United Kingdom",,,,"+44 1386 443462",,
"Exe Valley Brewery","Land Farm","Silverton, United Kingdom",,,,"+44 1392 860406",,
"Exmoor Ales LTD","Old Brewery Rd","Wiveliscombe, United Kingdom",,,,"+44 1984 623798",,http://www.exmoorales.co.uk/
"Facer's Flintshire Brewery","Flint Mountian","Flintshire, United Kingdom",,,,"44 0771 356 6370",,
"Falkland Arms","19-21 The Green","Chipping Norton, United Kingdom",,,,"+44 1608 683653",,
"Fallen Acorn Brewing Co","Unit 7 Clarence Wharf Industrial Estate Mumby Road","Gosport, United Kingdom",,,,"+44 23 9307 9927",micro,
"Fallen Angel Brewery Ltd","12c Reeds Farm Ind Est Roxwell Road","Writtle, United Kingdom",,,,7639256,micro,
"Falstaff Brewery","74 Silverhill Road","Derby, United Kingdom",,,,"+44 1332 342902",,
"Farr Brew","7 The Courtyard--Samuels Farm Coleman Green Lane","St Albans, United Kingdom",,,,"+44 7967 998820",micro,
"Fat Pig Limited","2 John Street","Exeter, United Kingdom",,,,"+44 1392 437217",,
"Featherstone Brewery","Unit 3, King St Buildings","King Street, Enderby, Leics, United Kingdom",,,,"(116) 275-0952",,
"Felinfoel Brewery Co Ltd","Farmers Row","Felinfoel, United Kingdom",,,,"+44 1554 773357",,
"Fenland Brewery","Cowbridge Hall Drove Little Downham","Cambridgeshire, United Kingdom",,,,,,
"Fenland Brewery","Cowbridge Hall Road","Little Downham, United Kingdom",,,,"+44 1353 699966",,
"Fernandes Brewery","5 Avison Yard","Wakefield, United Kingdom",,,,"+44 1924 386348",,
"Fiddlers Ales LTD","The Fox & Crown, Church St","Old Basford, Notts, United Kingdom",,,,"(115) 942-2002",,
"Firebird Brewing Company Ltd","The Old Brickworks Lynwick Street","Rudgwick, United Kingdom",,,,"+44 1403 823180",micro,
"Firebrand Brewery","Inner Trenarrett Altarnun","Launceston, United Kingdom",,,,"(015) 668-6069",micro,
"Firebrick Brewery Ltd.","Units 10-11 Blaydon Business Centre Cowen Road","Blaydon On Tyne, United Kingdom",,,,"+44 191 447 6543",micro,
"First Chop Brewing Arm","B2 Barton Hall Business Park Hardy Street","Eccles, United Kingdom",,,,"44 (0)7970 241398",,http://www.firstchop.co.uk/en/contact
"First In Last Ot","14 High Street Old Town","East Sussex, United Kingdom",,,,,,
"Five Points Brewing","3 Institute Place Hackney","London, United Kingdom",,,,"+44 20 8533 7746",micro,http://www.fivepointsbrewing.co.uk
"Fixed Wheel Brewery Limited","9 Long Lane Trading Estate Long Lane","Blackheath, United Kingdom",,,,,micro,
"Flack Manor Brewery","Romsey Industrial Estate 8 Greatbridge Rd","Romsey, United Kingdom",,,,"+44 1794 518520",micro,
"Flipside Brewery Ltd","Private Road 2 Colwick Industrial Estate","Colwick, United Kingdom",,,,"+44 115 987 7500",micro,
"Flowerpots Brewery","Brandy Mount","Cheriton, United Kingdom",,,,"+44 1962 771318",micro,
"Fly In the Loaf","13 Hardman St","Liverpool, United Kingdom",,,,"+44 151 708 0817",,
"Flying Monk Brewery Limited","Unit 1 Bradfield Manor Farm Hullavington","Malmesbury, United Kingdom",,,,,micro,
"Fool Hardy Ales","The Hope Inn 118 Wellington Road North","Stockport, United Kingdom",,,,"+44 161 637 6191",micro,
"Forest Road Brewing Company","355 Westgate Street","London, United Kingdom",,,,"+44 20 7249 7033",contract,http://www.forestroad.co.uk
"Forge Brewery","Ford Hill Forge Hartland","Bideford, United Kingdom",,,,"+44 1237 440015",,
"Four Candles Alehouse","1 Sowell Street St Peter's","Broadstairs, United Kingdom",,,,"+44 7947 062063",micro,
"Four Rivers Brewery","Unit 10, Hawick Crescent Industrial Esta Newcastle upon Tyne","Tyne & Wear, United Kingdom",,,,"(191) 276-5302",,
"Fourpure Brewing Co","Bermondsey Trading Estate Rotherhithe New Rd","London, United Kingdom",,,,"+44 20 3744 2141",micro,http://www.fourpure.com
"Foxfield Brewery - Prince of Wales","Foxfield Road","Cumbria, United Kingdom",,,,"+44 1229 716238",micro,http://www.princeofwalesfoxfield.co.uk
"Franklins Brewery","Bilton Ln, Bilton","Harrogate, N Yorks, United Kingdom",,,,"(142) 332-2345",,
"Frederic Robinson Ltd","Unicorn Brewery Lower Hillgate","Stockport, United Kingdom",,,,"0161 612 4061",,https://www.robinsonsbrewery.com
"Freedom Brewing Co LTD","Bagots Park Abbots Bromley","Rugeley, United Kingdom",,,,"+44 1283 840721",,
"Freeminer Brewery","Whimsey Road, Steam Mills Cinderford Gloucestershire","Cinderford Gloucestershire, United Kingdom",,,,01594827989,,
"Freshfield Hotel","Massams Lane","Formby, United Kingdom",,,,"+44 1704 874871",,
"Frog and Parrot","94 Division St","Sheffield, United Kingdom",,,,"+44 114 272 1280",,
"Frog Island Brewery","The Maltings St James Rd","Northampton, United Kingdom",,,,"+44 1604 587772",,
"Front Row Brewing","1 Greenfield Farm Industrial Estate","Congleton, United Kingdom",,,,"+44 7973 764298",micro,
"Froth Blowers Brewing Company","Unit W34 Hastingwood Industrial Park Wood Lane","Erdington, United Kingdom",,,,,micro,
"Fuggle Bunny Brew House Ltd.","Unit 1 Meadowbrook Park Ind. Est. Meadowbrook Park","Halfway, United Kingdom",,,,"+44 7776 368502",micro,
"Full Mash Brewery","17 Lower Park Street","Stapleford, United Kingdom",,,,"+44 115 949 9262",micro,
"Full Moon Brewery","Henley Down Catsfiels","East Sussex, United Kingdom",,,,,,
"Fuller, Smith & Turner P.L.C.","Griffin Brewery Chiswick Lane South","Chiswick, London, United Kingdom",,,,"+44 20 8996 2000",large,http://www.fullers.co.uk
"Fuller's Griffin Brewery","The Griffin Brewery Chiswick Lane South","London, United Kingdom",,,,"44 20 8996 2000",,
"Fuzzy Duck Brewery","18 Wood St","Poulton-le-Fylde, United Kingdom",,,,"+44 7904 343729",micro,
"Fyfe Brewing Co","469 High Street","Kirkaldy, United Kingdom",,,,,,http://www.e-fife.com/harbourbar
"Fyne Ales Ltd","Achadunan Bungalow A83","Cairndow, United Kingdom",,,,"+44 1499 600120",micro,http://www.fyneales.com
"G2 Brewing Ltd","Unit 5 Ashford Works Brunswick Road","Ashford, United Kingdom",,,,,micro,
"Gadd's Brewery","7 Hornet Close Pyson's Road Ind Est","Kent, United Kingdom",,,,,,
"Gavan ODoherty Group","7 Northland Rd Derry","N Ireland, United Kingdom",,,,"01504 266 676",,
"Geeves Brewery Ltd","26 Carrwood Rd","Barnsley, United Kingdom",,,,"+44 7859 039259",micro,
"Geipel Brewing Ltd","Pant Glas Llangwm","Corwen, United Kingdom",,,,"(149) 042-0838",micro,
"Geo. Bateman & Son Ltd-Salem Bridge Brewery",,"Wainfleet, United Kingdom",,,,,,http://www.bateman.co.uk
"George and Dragon","Station Rd Stoke Golding","Nuneaton, United Kingdom",,,,,,
"George Gale & Co Ltd",Horndean,"Hants, United Kingdom",,,,705571212,regional,
"George Wright Brewing Company","11 Diamond Business Park Sandwash Close","Rainford, United Kingdom",,,,"+44 844 414 5886",micro,
"George's Brewery","Common Road","Great Wakering, United Kingdom",,,,"+44 1702 826755",micro,
"Glastonbury Ales","Wessex Park Somerton Business Park Bancombe Rd","Somerton, United Kingdom",,,,"+44 1458 272244",micro,
"Glen Affric Brewery",,"Birkenhead, United Kingdom",,,,,planning,http://www.glenaffricbrewery.com
"Glendola Leisure Ltd","364 High Street","Harlington, United Kingdom",,,,"+44 20 8607 5100",,
"Glentworth Brewery","Glenworth House, Crossfield Ln","Skellow, Donacaster, United Kingdom",,,,"(130) 272-5555",,
"Gloucester Brewery Ltd","Fox's Kiln West Quay","Gloucester, United Kingdom",,,,"+44 1452 668043",,http://gloucesterbrewery.co.uk
"Goacher's Brewery","""unit 8, Tovil Green Bus. Park""","Maidstone, United Kingdom",,,,,,
"Goddards Brewery","Barnsley Farm Bullen Rd","Ryde, United Kingdom",,,,"+44 1983 611011",,
"Goffs Brewery","9 Isbourne Way","Winchcombe, United Kingdom",,,,"+44 1242 603383",,
"Golden Duck Brewery","Unit 2 Red Hill Farm","Appleby Magna, United Kingdom",,,,"07427 403328 ",micro,
"Golden Fleece","16 Pavement","York, United Kingdom",,,,"+44 1904 625171",,
"Golden Triangle Brewery","Watton Rd","Barford, United Kingdom",,,,"+44 1603 757763",micro,
"Goldmark Craft Beers","23 The Vinery Poling","Arundel, United Kingdom",,,,"+44 1903 297838",micro,
"Goldstone Brewery Ltd","The Forge, Ditchling Common Ind Est Streat Lane","Ditchling, United Kingdom",,,,"01444 257053",micro,
"Goody Ales","Braggs Ln","Herne Bay, United Kingdom",,,,"+44 1227 361555",micro,
"Goose Eye Brewery","S Castlefields Industrial Estate","Bingley, United Kingdom",,,,"+44 1535 605807",micro,
"Goosnargh Brewing Co.","Ye Horns Inn Horns Lane","Preston, United Kingdom",,,,"01772 864382",micro,
"Gower Brewery","Crofty Industrial Estate Pen-clawdd","Crofty, United Kingdom",,,,"+44 1792 850681",micro,
"Grafters Brewery","The Half Moon Public House 23 High Street","Willingham By Stow, United Kingdom",,,,"44 01427 788 340",micro,
"Grafton Brewing Co","Walters Yard Dukeries Way","Worksop, United Kingdom",,,," 01909 476121",micro,
"Grain Brewery Ltd","South Farm Alburgh","Harleston, United Kingdom",,,,,micro,
"Grainstore Brewery Ltd.","Station Approach","Oakham, United Kingdom",,,,,,
"Gray and Sons (Chelmsford) Ltd","Rignals Ln","Chelmsford, United Kingdom",,,,"+44 1245 475181",,
"Great Heck Brewing Co Ltd","Harwinn House, Main Street","Goole, United Kingdom",,,,"+44 1977 661430",micro,
"Great Newsome Brewery Ltd","Great Newsome Farm South Frodingham","Hull, United Kingdom",,,,"+44 1964 612201",micro,
"Great North Eastern Brewing Company Ltd","Contract House Wellington Road","Dunston, United Kingdom",,,,"(751) 478-7483",micro,
"Great Oakley Brewery","Ark Farm High Street South","Tiffield, United Kingdom",,,,"+44 1327 351759",micro,http://greatoakleybrewery.co.uk/contact-us/
"Great Orme Brewery","Builder Street","Llandudno, United Kingdom",,,,,,
"Great Western Brewing Company Ltd","The Stream Bakery Bristol Road","Hambrook, United Kingdom",,,,"+44 117 957 2842",,
"Green Dragon Free House & Brewery","29 Broad Street Bungay","Suffolk, United Kingdom",,,,"44 01986 892 681",,
"Green Jack Brewing Co","Love Road","Lowestoft, United Kingdom",,,,"+44 1502 562863",,
"Greene King PLC","Westgate Brewery Bury St Edmunds","Suffolk, United Kingdom",,,,284763222,regional,
"Greene King Pub Partners","Westgate Brewery Bury St Edmunds","Suffolk, United Kingdom",,,,"+44 1284 714497",,
"Greenfield Brewery","Unit 8-10 Waterside Mills Chew Valley Road","Greenfield, United Kingdom",,,,,,
"Greenmill Brewery","Greenmill Brewery Harewood Arms","Hyde, United Kingdom",,,,"07967 656 887",micro,
"Grey Friars Brewery","Featherstone Hall Farm New Road","Featherstone, United Kingdom",,,,,,
"Grey Trees Brewery","5 Gasworks Rd","Aberdare, United Kingdom",,,,"+44 1685 267077",micro,
"Greyhound Brewery","Watershed Smock Alley","West Chiltington, United Kingdom",,,,"(179) 881-5822",micro,http://www.greyhoundbrewery.co.uk/
"Gun Dog Ales Ltd","Unit 5b Great Central Way","Daventry, United Kingdom",,,,"+44 1327 264095",micro,
"Gyle 59","The Brewery Sadborow Estate Yard","Chard, United Kingdom",,,,"+44 1297 678990",micro,
"H B Clark & Co (Successors) LTD","136 Wesgate","Wakefield, United Kingdom",,,,"01924 373328",,
"Hackney Brewery","358 Laburnum St","London, United Kingdom",,,,"+44 20 3489 9595",micro,http://www.hackneybrewery.co.uk
"Hadham Brewing Co Ltd","Hadham Industrial Estate Hadham Industrial Estate","Little Hadham, United Kingdom",,,,,micro,
"Hadrian & Border Brewery","Unit 5 The Preserving Works Shelley Road","Newcastle on Tyne, United Kingdom",,,,"+44 191 264 9000",,
"Haggards Brewery","557 Kings Road Fulham","London, United Kingdom",,,,,,
"Half Moon Brewery","Forge House","Ellerton, United Kingdom",,,,"01757 288977",micro,
"Hall And Woodhouse Ltd","The Brewery Blandford St. Mary","Dorset, United Kingdom",,,,"+44 1258 486004",regional,http://www.hall-woodhouse.co.uk
"Hambleton Ales","Melmerby Green Rd","Melmerby, United Kingdom",,,,"+44 1765 640108",,
"Hambleton Ales","Melmerby Green Road Melmerby","Yorkshire, United Kingdom",,,,"44 01765 640 108",,
"Hammerpot Brewery Ltd","Unit 30 The Vinery Poling","Angmering, United Kingdom",,,,"+44 1903 883338",micro,
"Hammerton Brewery","8-9 Roman Way Industrial Estate 149 Roman Way","London, United Kingdom",,,,"+44 20 3302 5880",micro,
"Hanby Ales LTD","Unit C9 Wem Industrial Estate","Wem, Shropshire, United Kingdom",,,,"(193) 923-2432",,
"Hand In Hand","33 Upper St James St","Brighton, United Kingdom",,,,"+44 1273 699595",,
"Handmade Beer Co.","Capel Dewi","Saron, United Kingdom",,,,"+44 7896 690020",micro,
"Hanlons Brewery","Hill Farm Half Moon Village","Devon, United Kingdom",,,,"+44 1392 851160",,
"Happy Valley Brewery","8 Hazelhurst Drive Bollington","Macclesfield, United Kingdom",,,," 07758 512080",micro,
"Harbour Brewing Company","Trekillick Farm Kirland","Bodmin, United Kingdom",,,,"+44 1208 832131",micro,http://www.harbourbrewing.com
"Hardknott Brewery","Unit 10 Devonshire Road Industrial Estate","Millom, United Kingdom",,,,"+44 1229 779309",micro,
"Hardys & Hansons PLC","Kimerberly Brewery","Nottinghamshire, United Kingdom",,,,01159383611,,
"Hardys and Hansons","Westgate Brewery Bury St Edmunds","Suffolk, United Kingdom",,,,"01284 763222",,
"Haresfoot Brewery","Global Infusion Court Nashleigh Hill","Chesham, United Kingdom",,,,"01494 790 783",micro,
"Harp Lager Co. (Guiness)","8 Henrietta Place Marylebone","London, United Kingdom",,,,,large,
"Harrogate Brewing Co.","Unit 40, Claro Court Business Centre Harrogate","N Yorkshire, United Kingdom",,,,"+44 7774 891 664",micro,
"Hart Brewery","Oxhey Trading Estate","Greenbank Ave, United Kingdom",,,,"+44 1772 437651",,
"Hart of Preston Brewery Ltd.","Unit 5 Oxheys Industrial Estate","Preston, United Kingdom",,,,,,
"Harvey & Son Ltd","The Bridge Wharf Brewery 4 Cliffe High Street","Lewes, United Kingdom",,,,"+44 1273 480209",,http://www.harveys.org.uk
"Harviestoun Brewery LTD","Hillfoots Business Village Alva Industrial Estate","Alva, United Kingdom",,,,"+44 1259 769100",,http://harviestoun.com/
"Hastings Brewery Ltd","12 Moorhurst Road Hastings","St Leonards-on-Sea, United Kingdom",,,,"+44 1424 572050",,
"Hawkshead Brewery Ltd","Staveley Mill Yard Unit 22/28, Back Lane","Kendal, United Kingdom",,,,"+44 1539 822644",micro,
"Haywood ""Bad Ram"" Brewery","Callow Top Park Buxton Road","Ashbourne, United Kingdom",,,,,,
"Heavitree Brewery PLC","Trood Ln","Exeter, United Kingdom",,,,"+44 1392 217733",,
"Heavy Industry Brewery","The Old Slaughter House Bryn Llyfanen","Henllan, United Kingdom",,,,"01745 814655   ",micro,
"Hedgedog Brewing Ltd","Unit 5 Stroude Farm Stroude Road","Virginia Water, United Kingdom",,,,"+44 7500 808090",micro,
"Helmsley Brewing Company","18 Bridge Street","Helmsley, United Kingdom",,,,"+44 1439 771 014",micro,
"Hepworth and Co Brewers Ltd","Stane St Adversane","West Chiltington, United Kingdom",,,,"+44 1403 269696",,
"Hereford Brewery","88 St Owen Street","Hereford, United Kingdom",,,,"+44 1432 274998",micro,http://www.herefordbrewery.co.uk/
"Heritage Brewing Company","The National Brewery Centre Horninglow Street","Burton Upon Trent, United Kingdom",,,,"01283 777 006",,
"Heritage Pub Co","Donnington House Riverside Rd","Derby, United Kingdom",,,,"01332 386335",,
"Hesket Newmarket Brewery","2 Beech Cottages Hesket Newmarket","Wigton, United Kingdom",,,,"+44 16974 78288",micro,
"Hexhamshire Brewery","Dipton Mill Road","Hexham, United Kingdom",,,,"01434 606 577",brewpub,
"High House Farm Brewery",Matfen,"Newcastle Upon Tyne, United Kingdom",,,,"+44 1661 886192",micro,
"High Peak Brew Co","41a Market Street","Chapel-en-le-Frith, United Kingdom",,,,"(793) 617-4364",micro,
"High Weald Brewery","Unit 8 Bulrushes Business Park Coombe Hill Road","East Grinstead, United Kingdom",,,,"+44 7836 291430",micro,
"Highwood Brewery LTD","Melton Highwood","Barnetby, Humberside, United Kingdom",,,,"(165) 268-0020",,
"Hilden Brewing Co","Hilden House Grand Street","Hilden, United Kingdom",,,,"+44 28 9266 3863",,
"Hillfire Brewing Company","23 Edison Road","Aylesbury, United Kingdom",,,,"+44 1296 338521",micro,
"Hobgoblinns Ltd","10-12 Eagle Maltings Eagle Industrial Estate","The Crofts, United Kingdom",,,,"+44 1993 890800",,
"Hobsons Brewery & Co","New House Farm Tenbury Rd","Cleobury Mortimer, United Kingdom",,,,"+44 1299 270837",,
"Hogs Back Brewery","Manor Farm, The St","Tongham, Surrey, United Kingdom",,,,"(125) 278-3000",,
"Hogs Back Brewery Ltd","Manor Farm The Street","Tongham, United Kingdom",,,,"+44 1252 784495",,
"Holden's Brewery Ltd Co - Hopden Brewery","George Street","Dudley, United Kingdom",,,,"+44 1902 880051",,http://www.holdensbrewery.co.uk
"Home County Brewers","The Old Brewery, Station Rd","Wickwar, Glos, United Kingdom",,,,"(145) 429-4045",,
"Honeycombe Leisure PLC","50 Water Ln, Ashton Preston","Lancs, United Kingdom",,,,"01772 723 764",,
"Hooded Ram Brewery","The Hooded Ram Brewing Company Hills Meadow","Douglas, United Kingdom",,,,"+44 1624 612464",micro,http://www.hoodedram.com/
"Hook Norton Brewery Co Ltd","Brewery Lane Hook Norton","Banbury, United Kingdom",,,,"+44 1608 737210",,http://www.hook-norton-brewery.co.uk
"Hop and Stagger Brewery","The Old Cow Shed Astol Farm","Norton, United Kingdom",,,,"+44 1952 730737",micro,
"Hop Art Ltd","The Brewery Blacknest Industrial Park","Bentley, United Kingdom",,,,"01252 36 44 36",micro,
"Hop Back Brewery PLC","Batten Rd Downton Industrial Estate","Salisbury, United Kingdom",,,,"+44 1725 510986",,
"Hop Fuzz Brewery Ltd","Riverside Industrial Estate W Hythe Rd","Hythe, United Kingdom",,,,"+44 7858 562878",,
"Hop Kettle Brewery","The Red Lion 74 High Street","Swindon, United Kingdom",,,,"+44 1793 750776",micro,http://hopkettlebrewery.co.uk/
"Hop Stuff Brewery Ltd","Gunnery House Cornwallis Rd","London, United Kingdom",,,," +44 20 8854 9509",micro,
"Hopdaemon Brewery Co Ltd","Parsonage Farm Oast/Seed Rd","Sittingbourne, United Kingdom",,,,"01795 892078",micro,
"Hophurst Brewery Ltd","Unit 8 Hindley Business Centre Platt Lane","Hindley, United Kingdom",,,,"01942 522 333 ",micro,
"Hopstar Brewery Ltd","Unit 9 Rinus Business Park Grimshaw Street","Darwen, United Kingdom",,,,"+44 7933 590159",micro,
"Hornes Brewery Ltd","19B Station Road","Bow Brickhill, United Kingdom",,,,"01908 647724",micro,
"Houston Brewing Co","South St Houston","Johnstone, United Kingdom",,,,"+44 1505 612620",brewpub,http://www.houston-brewing.co.uk/
"Howard Town Brewery Ltd","Hawkshead Mill Hope Street","Glossop, United Kingdom",,,,"01457 869800",,
"Hoxne Brewery Ltd","Larch House Heckfield Green","Hoxne, United Kingdom",,,,"+44 7515 003503",micro,
"Huddersfield Brewing Co","Unit J Shaw Park Industrial Estate","Aspley, Huddersfield, West Yorks, United Kingdom",,,,"(148) 430-0028",,
"Hull Brweery Co LTD","144-148 English St","Hull, United Kingdom",,,,"(148) 258-6364",,
"Humpty Dumpty Brewery","Church Road Reedham","Norwich, United Kingdom",,,,"+44 1493 701818",micro,http://humptydumptybrewery.com/contact/
"Hunt and McCormick","3 Duncrue Pl Belfast","N Ireland, United Kingdom",,,,"02890 746 274",,
"Hunters Brewery","Bulleigh Barton Farm Ipplepen Road","Newton Abbot, United Kingdom",,,," +44 1803 873509",micro,
"Hurstpierpoint Brewing Co Ltd","Western Road","Hurstpierpoint, United Kingdom",,,,"+44 7866 438953",,
"Hydes Brewery Ltd","The Beer Studio 30 Kansas Ave","Salford, United Kingdom",,,,"+44 161 226 1317",,http://www.hydesbrewery.com
"Iceni Brewery","3 Foulden Rd","Ickburgh, United Kingdom",,,,"+44 1842 878922",,
"Ilkley Brewery Ltd","40 Ashlands Rd","Ilkley, United Kingdom",,,,"+44 1943 604604",micro,
"Incredible Brewing Co.","214 Broomhill Rd","Brislington, United Kingdom",,,,"+44 7780 977073",micro,http://www.incrediblebrewingcompany.com/
"Ind Coope Burton Brewery Ltd","107 Station St BURTON-ON-TRENT","Staffs, United Kingdom",,,,"+44 283 5311 11",,
"Indigenous Brewery Ltd","Peacock Cottage Main Street","Newbury, United Kingdom",,,,"+44 1488 505060",micro,http://www.indigenousbrewery.co.uk/
"Inn Partnership Ltd","Axis House, Tudor Rd Manor Park","Runcorn, Cheshire, United Kingdom",,,,"0870 241 2003",,
"Innis and Gunn Brewing Company Ltd","Phoenix Crescent - Strathclyde Business Bellshill","Scottland, United Kingdom",,,,"+44 131 220 7230",,
"Inns and Leisure Ltd","20-24 Leicester Rd","Preston, United Kingdom",,,,"+44 1772 252917",,
InnspiredGroup,"Directors House 68 Fore St Trowbridge","Wilts, United Kingdom",,,,"01225 763 171",,
"Interpub Ltd","Overloard House 1d Colet Gardens","London, United Kingdom",,,,"+44 20 8600 7500",,
"Intrepid Brewing Co. Ltd.","Vincent Works Stretfield Rd","Hope Valley, United Kingdom",,,,"+44 7936 174364",micro,
"Inveralmond Brewery LTD","22 Inveralmond Place","Perth, United Kingdom",,,,"+44(0)1738 449 448",,http://www.inveralmond-brewery.co.uk/
"Ironbridge Brewery Ltd","The Pheasant 54 Market Street","Shropshire, United Kingdom",,,,,,
"Irving and Co Brewers Ltd","Unit G1 Walton Road","Portsmouth, United Kingdom",,,,"+44 23 9238 9988",micro,
"Isca Ales","Court Farm Holcombe Village","Dawlish, United Kingdom",,,,"07773 444 501",,
"Isfield Brewing Company","Imperial Cottage Station Road","Isfield, United Kingdom",,,,,micro,
"Islay Ales","Islay House Square Bridgend","Argyll, United Kingdom",,,,"+44 1496 810014",micro,http://www.islayales.co.uk/
"Isle of Purbeck Brewery","Manor Road","Studland, United Kingdom",,,,"+44 1929 450227",micro,
"Isle of Skye Brewing Co","The Pier Uig","Isle of Skye, United Kingdom",,,,"+44 1470 542477",,http://skyeale.com/
"Itchen Valley Brewery LTD","Unit D Prospect Commercial Park Prospect Road","New Alresford, United Kingdom",,,,"+44 1962 735111",,
"J D Wetherspoon PLC","Wetherspoon House Central Park","Reeds Cres, United Kingdom",,,,"+44 1923 477777",,
"J W Lees & Co (Brewers) Ltd","Greengate Brewery Middleton Junction","Manchester, United Kingdom",,,,"+44 161 643 2487",,
"Jacobi Brewery of Caio","Penlan Wen","Llanwrda, United Kingdom",,,,"+44 1558 650605",micro,
"James Williams (Narberth)","PO BOX The Cardiff Brewery Crawshay Street","Cardiff, United Kingdom",,,,01834860318,,
"Jaw Brew","67B Hillington Park Montrose Ave","Glasgow, United Kingdom",,,,"+44 141 237 5840",micro,https://www.jawbrew.co.uk/
"Jennings Brothers PLC - Castle Brewery","Brewery Ln","Cockermouth, United Kingdom",,,,"+44 1900 820362",,
"Jo C's Norfolk Ale","The Old Store Walsingham Road","Fakenham, United Kingdom",,,,"+44 1328 863854",micro,
"John Bull Chophouse","1 Coopers Row","Wigan, United Kingdom",,,,"+44 1942 242862",,
"John O'Gaunt Brewing Co Ltd","""Unit 2, Rural Industries"" John O'Gaunt","Melton Mowbray, United Kingdom",,,,,,http://www.john-o-gaunt-brewery.co.uk
"John Smiths Tadcaster Brewery","The Brewery TADCASTER","North Yorkshire, United Kingdom",,,,"(093) 783-2091",,
"John Thompson Brewery","Ingleby Lane Ingleby","Derby, United Kingdom",,,,"+44 1332 862469",,
"Jolly Brewer","21 Henblas St","Wrexham, United Kingdom",,,,"+44 1978 261884",,
"Jolly Sailor Brewery","Olympia Hotel 77 Barlby Road","Selby, United Kingdom",,,,"01757 707564",micro,
"Jollyboat Brewery LTD","4 Buttgarden St","Bideford, United Kingdom",,,,"+44 1237 424343",,
"Joseph Holt Ltd","Empire Street","Manchester, United Kingdom",,,,"+44 161 834 3285",,
"Joule's Brewery Limited","The Brewery Great Hales Street","Shropshire, United Kingdom",,,,"07496 097 883",micro,
"JT Davies and Sons","The Bull Courtyard Bell Street","Oxon, United Kingdom",,,,01491570200,,
"Judges Brewery","34 Ludgate Hill","Birmingham, United Kingdom",,,,"(783) 638-0700",,
"Juwards Brewery","c/o Fox Brothers Brewery","Wellington, Somerset, United Kingdom",,,,"(182) 366-7909",,
"Kaluga Brewing Co.","c/o TNT International Mail MOW/MOW/11460 PO Box 66","Hounslow Middlesex, United Kingdom",,,,097-095-937-33-50,,
"Kelham Island Brewery","23 Alma St","Sheffield, United Kingdom",,,,"+44 114 249 4804",micro,
"Keltek Brewing Co LTD","Candela House Cardew Way","Cornwall, United Kingdom",,,,01209313620,,
"Keltek Cornish Brewery","Unit 44 Cardrew Way","Cornwall, United Kingdom",,,,"01209 313620",,
"Kendrick's Brewing","Coalpit Lane","Willey, United Kingdom",,,,"(794) 781-2147",micro,
"Kent Brewery","Birling Place Farm Stangate Road","Birling, United Kingdom",,,,"01634 780037",micro,
"Keswick Brewing Co","The Old Brewery Brewery Lane","Cumbria, United Kingdom",,,,"+44 17687 80700",micro,
"Keystone Brewery","Old Carpenters Workshop","Salisbury, United Kingdom",,,,"+44 1747 820426",micro,
"Kilderkin Brewing Co","67 Canongate","Edinburgh, United Kingdom",,,,"0131 556 2101",,
"King & Smart Lincolnshire Brewery","Building 30, Binbrook technical Estate","Market Raison, Lincolnshire, United Kingdom",,,,"(152) 251-2919",,
"Kingdom Taverns","191 Nichol St","Kircaldy, United Kingdom",,,,"+44 1592 200033",,
"Kingstone Brewery","Meadow Farm","Tintern, United Kingdom",,,,"01291 680 111",micro,
"Kinver Brewery","Unit 1 Britch Farm Rocky Wall","Compton, United Kingdom",,,,"+44 7715 842679",micro,
"Kirkby Lonsdale Brewery","Kirby Lonsdale Brewery","Camforth, United Kingdom",,,,"015242 72221",micro,
"Kirkstall Brewery Company Ltd","100 Kirkstall Road","Leeds, United Kingdom",,,,"0113 8980280",micro,
"Kitchen Brewery","Unit J Shaw Park Silver Street","Huddersfield, United Kingdom",,,,"01484 300028",,
"Knops Beer Company","Dirleton Archerfield Estate","North Berwick, United Kingdom",,,,"+44 1620 388588",micro,http://www.knopsbeer.co.uk/
"Krafty Brew Ltd.","The Star and Garter 1 High Port","Linlithgow, United Kingdom",,,,07763873596,micro,http://kraftybrew.com
"Kubla Brewery","The Source Building Tower Farm","Lydeard St Lawrence, United Kingdom",,,,,micro,
"Lacons Brewery","The Courtyard Main Cross Road","Great Yarmouth, United Kingdom",,,,"+44 1493 850578",,
"Lakeland Brewing","Cartmel Fell","Cumbia, United Kingdom",,,,,,
"Lancaster Brewery","Lancaster Leisure Park Wyresdale Rd","Lancaster, United Kingdom",,,,"44 1524 848537",micro,
"Langham Brewery","The Granary Langham Lane","Lodsworth, United Kingdom",,,,"+44 1798 860861",micro,
"Langton Brewery","Grange Farm Welham Road","Market Harborough, United Kingdom",,,,"44 01858 540 116",micro,
"Lawman Brewing Company","31 Kelvin Road North","Cumbernauld, United Kingdom",,,,"0141 2129570",micro,http://www.lawmanbrew.co.uk/
"Leamside Brewery","Pithouse Lane","Leamside, United Kingdom",,,,"+44 191 584 2394",micro,
"Leatherbritches Brewery","Annwell Lane Smisby","Leicesterrshire, United Kingdom",,,,,,
"Leatherbritches Brewery","Annwell Lane Smisby","Ashby-De-La-Zouch, United Kingdom",,,,"07976 279 253",,
"Ledbury Real Ales","Gazerdine House Hereford Road","Ledbury, United Kingdom",,,,"01531 671 184",micro,
"Leeds Brewery","3 Sydenham Road","Leeds, United Kingdom",,,,"+44 113 244 5866",micro,
"Leek Brewing Co Ltd","12 Bridge End","Leek, United Kingdom",,,,,,
"Leggers Inn","66 Mill St E","Dewsbury, United Kingdom",,,,"+44 1924 502846",,
"Leighton Buzzard Brewing Co Ltd","Unit 23 Harmill Industrial Estate Grovebury Road","Leighton Buzzard, United Kingdom",,,,"+44 7538 903753",micro,
"Leila Cottage Brewery","Countryman Inn Chapel Road","Ingoldmells, United Kingdom",,,,"01754 872 268",micro,
"Leith Hill Brewery","Abinger Rd","Coldharbour, United Kingdom",,,,"+44 1306 711793",,http://www.ploughinn.com
"Lerwick Brewery","Staneyhill North Road","Shetland, United Kingdom",,,,"+44 1595 694552",micro,http://www.lerwickbrewery.co.uk/
"Lidstones Brewery","Coltsfoot Green, Wickhambrook","Newmarket, Suffolk, United Kingdom",,,,"(144) 082-0232",,
"Lincoln Green Brew Co Ltd","Unit E5 Enterprise Park Wigwam Lane","Hucknall, United Kingdom",,,,"+44 115 963 4233",micro,http://lincolngreenbrewing.co.uk/
"Lincolnshire Brewing Company","Unit 3 15 Main Rd","Lincoln, United Kingdom",,,,"44 0845 094 5784",micro,
"Linfit Brewery","139 Ln Top Lynthwaite","Huddersfield, United Kingdom",,,,"+44 1484 842370",,
"Lion Brewery","104 Guildford Road Ash","Aldershot, United Kingdom",,,,"+44 1865 792 013",,
"Lister's Brewery","The Old Dairy Ford Lane","Arundel , United Kingdom",,,,"+44 1903 885950",micro,
"Little Ale Cart Brewery Ltd","The Wellington 1 Henry Street","Sheffield, United Kingdom",,,,"0114 249 2295",,
"Little Beer Corporation Ltd","Bldg 3 14-15 Midleton Road","Guildford, United Kingdom",,,,"01483 497201",micro,
"Little Dragon Brewery","Unit 3 Havens Head Business Park","Milford Haven, United Kingdom",,,,"+44 7402 005393",micro,http://www.littledragonbrewery.co.uk/contact/
"Little Valley Brewery","Turkey Lodge Farm New Road","Hebden Bridge, United Kingdom",,,,"+44 1422 883888",micro,
"Littlehampton Brewery","Duke St","Littlehampton, United Kingdom",,,,,,
"Liverpool Organic Brewery","39 Brasenose Road","Liverpool, United Kingdom",,,,"+44 151 933 9660",micro,
"Lizard Ales","The Old Nuclear Bunker Coverack","Cornwall, United Kingdom",,,,"44 1326 281 135",,
"Llangollen Brewery","Horseshoe Pass Road","Llangollen, United Kingdom",,,,"+44 1978 861916",micro,
"Lloyds Country Beers","John Thompson Brewery","Ingleby, Derbyshire, United Kingdom",,,,"(133) 286-3426",,
"Loch Lomond Brewery","Block 1 Unit 5 Lomond Industrial Estate","Alexandria, United Kingdom",,,,"+44 1389 755698",micro,http://www.lochlomondbrewery.com/
"Loddon Brewery","Dunsden Green Farm Church Lane","Reading , United Kingdom",,,,"+44 118 948 1111",micro,
"London Beer Factory","4 160 Hamilton Road West Norwood","London, United Kingdom",,,,"+44 20 8670 7054",,
"Long Man Brewery Ltd","Church Farm","Litlington, United Kingdom",,,,"+44 1323 871850",micro,
"Longden Brewing Company Ltd.","The Red Lion Longden Common","Shrewsbury, United Kingdom",,,,,micro,http://www.theshropshirebrewer.com/
"Longdog Brewery Ltd","Unit A1 Moniton Trading Estate West Ham Lane","Basingstoke, United Kingdom",,,,"+44 1256 324286",micro,
"Loose Cannon Brewing Co Ltd","Suffolk Way","Abingdon, United Kingdom",,,,"+44 1235 531141",micro,
"Lost and Grounded Brewers","91 Whitby Road","Bristol, United Kingdom",,,,"+44 117 332 7690",micro,http://www.lostandgrounded.co.uk
"Lovebeer Brewery","95 High St","Milton, United Kingdom",,,,"+44 7889 455845",,
"Lovibonds Brewery Ltd","19-21 Market Pl","Henley-on-Thames, United Kingdom",,,,"+44 1491 576596",micro,http://www.lovibonds.com
"Ludlow Brewing Company Ltd","The Railway Shed Station Drive","Ludlow, United Kingdom",,,,"44 01584 873 291",,
"Luminar PLC","41 Kings St Luton","Beds, United Kingdom",,,,"01582 730 555",,
"Lyme Regis Brewery","Mill Lane","Lyme Regis, United Kingdom",,,,"+44 1297 444354",micro,
"Lymestone Brewery Ltd","The Old Brewery Mount Road","Stone, United Kingdom",,,,,micro,
"Lytham Brewery","Cambells Court 6 7 8 Lord St","Lytham St. Annes, United Kingdom",,,,"+44 800 061 4626",micro,
"MacLay Group","Thistle Brewery","Alloa, United Kingdom",,,,"01259 723 387",,
"MacLennan Inns Ltd","Unit 10 Morton Peto Rd Gapton Hall Indus. Est.","Gt.Yarmouth, Nor, United Kingdom",,,,"01493 382 400",,
"Mad Cat Brewery Ltd","Brogdale Farm Brogdale Road","Faversham, United Kingdom",,,,"+44 7960 263615",micro,
"Madcap Brewery",Annan,"Dumfries & Galloway, United Kingdom",,,,"07801 699161",micro,http://www.madcapbrewery.com/
"Magic Rock Brewing Co.","Willow Park Business Centre Willow Lane","Huddersfield, United Kingdom",,,,"+44 1484 649823",micro,http://www.magicrockbrewing.com
"Magpie Brewery","Unit 4 Ashling Court Iremonger Road","Nottingham, United Kingdom",,,,"+44 7419 991310",micro,
"Mallard Brewery","15 Hartington Ave","Carlton, United Kingdom",,,,,,http://www.mallard-brewery.co.uk
"Mallard Brewery","Unit A Maythorne","Nottinghamshire, United Kingdom",,,,,,
"Malt The Brewery","Collings Hanger Farm Wycombe Road","Prestwood, United Kingdom",,,,,micro,
"Malvern Hills Brewery","15 West Malvern Rd","Malvern, United Kingdom",,,,"+44 1684 560165",,http://www.malvernhillsbrewery.co.uk/
"Mantle Brewery Ltd.","Unit 16 Pentood Industrial Estate","Cardigan, United Kingdom",,,,"+44 1239 623898",micro,
"Marble Brewery","41 Williamson Street","Manchester, United Kingdom",,,,,,
"Marston Moor Brewery Co","2 Centre Park Marston Business Park","York, United Kingdom",,,,"01423 358382",,
"Marston, Thompson and Evershed","Snobnall Brewery Snobnall Rd Burton-on-Trent","Staffs, United Kingdom",,,,028331131,regional,
"Marston’s Brewery","Shobnall Rd","Burton-upon-Trent, United Kingdom",,,,"+44 1283 507391",,
"Marston's PLC","Marston's House Brewery Road","Wolverhampton, United Kingdom",,,,"+44 1902 711811",large,http://www.marstons.co.uk/contact/
"Martland Mill Brewery","Unit 5 Otterwood Square","Wigan, United Kingdom",,,," +44 1942 665656",micro,
"MASH Brewery Ltd","Middle Barn Burcot Farm","Winchester, United Kingdom",,,,"01962 795023",micro,
"Matthews Brewing Co. Ltd.","Hayeswood Road Timsbury","Summerset, United Kingdom",,,,"44 01761 472 242",,
"Mauldons Brewery","The Black Adder Brewery 13 Church Field Road","Suffolk, United Kingdom",,,,"44 01787 311 055",micro,
"Mauldons Brewery","13 Church Field Rd","Sudbury, United Kingdom",,,,"+44 1787 311055",,
"Maule Brewing Company","42 Rothersthorpe Ave",", United Kingdom",,,,,micro,
Mayfields,"Unit 8 Croft Business Park Southern Av","Leominster, United Kingdom",,,,"01568 611197",,
"Maypole Brewery","North Laithes Farm Wellow Road","Eakring, United Kingdom",,,,"07971 277598",,
"Maypole Inn","Maypole Lane","Arundel, United Kingdom",,,,"+44 1243 551417",,
"McMullen & Sons Ltd","26 Old Cross","Hertfordshire, United Kingdom",,,,"+44 1992 584911",regional,
"Meantime Brewing Co","Lawrence Trading Estate Blackwall Lane","London, United Kingdom",,,,"+44 20 8293 1111",micro,http://www.meantimebrewing.com
"Merlin Brewing Company","3 Spring Bank Farm Congleton Road","Arclid, United Kingdom",,,,"+44 01477 500 893",micro,
"Merlin Inns Ltd","84 Smithbrrok Kilns","Cranleigh, United Kingdom",,,,"+44 1483 278172",,
"Merrimen Brewing Ltd","Unit 12 Northampton Road","Towcester, United Kingdom",,,,"+44 1327 831308",micro,
"Metcalfe & Metcalfe Co","Unit 3 Laurencekirk Business Park Aberdeen Rd","Laurencekirk, United Kingdom",,,,"+44 1561 377316",micro,http://www.burnsidebrewery.co.uk
"Methergate Brewing","11213 High St","Clare,Suffolk, United Kingdom",,,,"+44 1787 278 541",,
"Mighty Oak Brewing Co","Unit 14b West Station Yard Spital Rd","Maldon, Essex, United Kingdom",,,,"+44 1621 843713",,
"Mile Tree Brewery Ltd","The Secret Garden Touring Park Mile Tree Lane","Cambs, United Kingdom",,,,"(785) 893-0363",micro,
"Milestone Brewing Co.","Great North Road Cromwell","Newark, United Kingdom",,,,"44 01636 822 255",,
"Milk Street Brewery","Commerce Park","Southgate, United Kingdom",,,,"+44 1373 467766",,
"Milltown Brewing Co Ltd","31 Haigh House Hill Lindley Moor Rd","Huddersfield, United Kingdom",,,,"+44 7946 589645",micro,
"Milton Brewery","Pegasus House Pembroke Avenue","Cambridge, United Kingdom",,,," +44 1223 862067",,
"Milton Brewery, Cambridge LTD","Pegasus House Pembroke Avenue","Waterbeach, Cambridge, United Kingdom",,,,"01223 862067",,
"Mitchells Of Lancaster","11 Moor Ln Lancaster","Lancashire, United Kingdom",,,,"01524 596000",regional,
"Mitchells of Lancaster Brewers Ltd","11 Moor Ln","Lancaster, United Kingdom",,,,"(015) 246-3773",,
"Mobberley Fine Ales Ltd.","Dairy Farm Church Lane","Mobberley, United Kingdom",,,,"01565 873601",micro,
"Moles Brewery (Cascade Drinks) LTD","5 Merlin Way","Bowerhill, United Kingdom",,,,"+44 1225 704734",,http://www.molesbrewery.com/site/contact-us/
"Moncada Brewery Ltd","Unit 1 Middle Row","London, United Kingdom",,,,"+44 7795 511505",micro,
"Mondo Brewing Company","86 Stewarts Road","London, United Kingdom",,,,"+44 20 7720 0782",micro,http://www.mondobrewingcompany.com
"Monty's Brewery","Unit 1 Castle Works Hen-Domen","Montgomery, United Kingdom",,,,"+44 1686 668933",micro,
"Moonstone Brewery","Ministry of Ale 9 Trafalgar Street","Burnley, United Kingdom",,,,"01282 830909",,
"Moor Beer Co","Days Road","Bristol, United Kingdom",,,,"+44 117 941 4460",,
"Moorhouses Brewery (Burnley) LTD","250 Accrington Road","Burnley, United Kingdom",,,," +44 1282 422864",,
"Moorstone Brewery","Axna Farm Horndon","Mary Tavy, United Kingdom",,,,"(773) 809-8572",micro,
"Mor Brewing Ltd.","Old Mill","Kelles, United Kingdom",,,,"07802 885 450",micro,http://www.morbrewing.co.uk
"Mordue Brewery","Tyne Tunnel Trading Estate D1/D2 Narvik Way","North Shields, United Kingdom",,,,"+44 191 296 1879",micro,
"Moulin Brewery - Moulin Hotel","11-13 Kirkmichael Road","Pitlochry, United Kingdom",,,,"+44 1796 472196",,http://www.moulin.u-net.com
"Mr Grundy's Brewery","32-34 Ashbourne Rd","Derby, United Kingdom",,,,"+44 1332 340279",micro,http://www.mrgrundysbrewery.co.uk/
"Mulberry Street","778 Pollokshaws Road Glasgow","Glasgow, United Kingdom",,,,,,
"Mumbles Brewery Limited","Unit 8 Clarion Court","Mumbles, United Kingdom",,,,"+44 1792 792612",micro,
"Museum Brewing Co.","The National Brewery Centre Horninglow Street","Burton Upon Trent, United Kingdom",,,,"01283 532 880",,
"Musket Brewery Limited","Unit 7 Loddington Farm Loddington Lane","Maidstone, United Kingdom",,,,"079671 27 27 8",micro,
"Mustard Entertainment Restaurants Ltd","204-209 Braod Street","Birmingham, United Kingdom",,,,"0121 643 7218",,
"Navigation Brewery Ltd","Trent Navigation Inn 17 Meadow Ln","Nottingham, United Kingdom",,,,"+44 115 986 9877",micro,
"Naylor's Brewery","Midland Mills Station Rd","Keighley, United Kingdom",,,,"+44 1535 637451",micro,
"Nelson Brewery","Unit 2 Building 64 The Hisotic Dockyard","Chatham, Kent, United Kingdom",,,,"01634 832828 ",,
"Nelson Brewing Co Ltd","Unit 2, Building 64 The Historic Dockyard","Chatham, United Kingdom",,,,,,
"Nene Valley Brewery Ltd","Oundle Wharf","Peterborough, United Kingdom",,,,01832272776,micro,http://www.nenevalleybrewery.com
"Nethergate Brewery Co Ltd","The Street Pentlow","Essex, United Kingdom",,,,,,
"New Lion Brewery","Station Road","Totnes, United Kingdom",,,,"+44 1803 226277",micro,
"Newark Brewery Ltd","77 William Street","Newark, United Kingdom",,,,"+44 7804 609917",micro,
"Newby Wyke Brewery","Unit 24, Limesquare Business Park Alma Park Road","Grantham, United Kingdom",,,,,,
"Nobby's Brewing Company Ltd","Unit 2 Cottingham Way","Thrapston, United Kingdom",,,,"+44 1832 730800",,
"Norfolk Brewhouse","Moon Gazer Barn Harvest Lane","Hindringham, United Kingdom",,,,"+44 1328 878495",micro,
"North Blythe","North Blyth Bar & BreweryWorsdell Instit","North Blyth , United Kingdom",,,,"01670 822012",micro,
"North Cotswold Brewery","Unit 3 Ditchford Farm","Stretton On Fosse, United Kingdom",,,,"+44 1608 663947",micro,
"North Star Brewing Co Ltd","Unit 6 Furnace Road","Ilkeston, United Kingdom",,,,"+44 7725 330783",micro,
"North Yorkshire Brewing Co",Pinchinthorpe,"Gulsborough, United Kingdom",,,,"+44 1287 630200",micro,
"Northbound Brewery","McLean Road Campsie Industrial Estate","Eglinton, United Kingdom",,,,"+44 7512 198686",micro,
"Northern Monk Brew Co.","The Old Flax Store S Mills","Leed, United Kingdom",,,,"+44 113 243 6430",brewpub,
"Noss Beer Works Ltd","Unit 6 Ash Court Pennant Way","Lee Mill, United Kingdom",,,,"07977 479364",micro,
"Nottingham Brewery Limited","17 St. Peter's Street","Radford, United Kingdom",,,,"+44 115 942 2649",micro,
"O`Hanlons Brewing Co Ltd","Great Barton Farm","Whimole, Devon, United Kingdom",,,,"+44 149-182-6466",,
"Oakham Ales","2 Maxwell Road","Peterborough, United Kingdom",,,,"+44 1733 370500",,
"Oakhill Brewery","The Old Maltings","Oakhill, United Kingdom",,,,"+44 1749 840451",,
"Offbeat Brewery Ltd","Thomas St","Crewe, United Kingdom",,,,"+44 7502 096438",micro,
"Okell & Sons Ltd","Old Castletown Road","Kewaigue, United Kingdom",,,,"01624 699400",micro,http://www.okells.co.uk
"Old Bear Brewery","Unit 1, Aireworth Mills Aireworth Road","Keighley, United Kingdom",,,,"+44 1535 601222",,
"Old Cannon Brewery","86 Cannon St","Bury St Edmonds, United Kingdom",,,,"+44 1284 768769",,
"Old Chimneys Brewery","Hopton End Farm Church Road","Diss, United Kingdom",,,,"+44 1359 221013",,
"Old English Inns PLC","Castle Home, 21 Station Rd","New Barnet, United Kingdom",,,,"020 8275 3333",,
"Old Luxters Farm Brewery",Hambledon,"Henley-on-Thames, United Kingdom",,,,"+44 1491 638985",,
"Old Pie Factory Brewery Ltd","Montague Road","Warwick, United Kingdom",,,,,micro,
"Old Sawley Brewing Company","352 Tamworth Road Sawley","Nottingham, United Kingdom",,,,"44 0115 837 0250",micro,
"Old School Brewery","Holly Bank Barn Crag Road","Warton, United Kingdom",,,,"+44 1524 735005",micro,
"Olde Mill Ltd","Unit 1 Butterleigh Sawmill","Butterleigh, United Kingdom",,,,"+44 1884 308633",micro,
"Oldershaw Brewery","Heath Lane Barkston Heath","Grantham, United Kingdom",,,,"+44 1476 572135",,
"Orkney Brewery",Quoyloo,"Stromness, United Kingdom",,,,"+44 1667 404555",,
"Ossett Brewing Co LTD","Low Mill Road","Ossett, United Kingdom",,,,"+44 1924 261333",,
"Otley Brewing Company Ltd","Unit 39, Albion Industrial Estate","Pontypridd, United Kingdom",,,,,micro,
"Otter Brewery","Mathayes, Luppit","Honiton, Devon, United Kingdom",,,,"(140) 489-1285",,
"Otter Brewery","Mathayes Luppitt",", United Kingdom",,,,"+44 (0)1404 891285",,
"Oulton Ales Ltd - Lake Lothing Brewery","Lake Lothing Brewery Unit 2 Harbour Road Industrial Estate","Suffolk, United Kingdom",,,,,,
"Out There Brewing Company","4 Foundry Lane","Newcastle Upon Tyne, United Kingdom",,,,"+44 7946 579534",micro,
"Oxforshire Ales","Unit 12 Peartree Farm Industrial Estate Marsh Gibbon","Oxfordshire, United Kingdom",,,,,,
"P & D J Goacher","Unit 8 Tovil Green Business Park Burial Ground Lane","Maidstone, United Kingdom",,,,"+44 1622 682112",,
"Palmers Brewery","Old Brewery West Bay Road","Bridport, United Kingdom",,,,"+44 1308 422396",,http://www.palmersbrewery.com
"Panther Brewery","1 Collers Way","Reepham, United Kingdom",,,,"+44 7766 558215",,
"Parish Old Brewery","The Old Brewery Inn High St","Somerby, Leicestershire, United Kingdom",,,,"(166) 445-4782",,
"Partizan Brewing Ltd","8 Almond Road","London, United Kingdom",,,,"+44 20 8127 5053",,
"Payn Breweries LTD","Unit 1 Eco Site, St Mary`s Rd","Ramsey, United Kingdom",,,,"(148) 771-0800",,
"Peak Ales","The Barn Brewery Chatsworth","Bakewell, United Kingdom",,,,"+44 1246 583737",micro,
"Peakstones Rock Brewing Co Ltd","Peakstones Rock Farm","Alton, United Kingdom",,,,,micro,
"Peerless Brewing Company","8 Pool Street","Birkenhead, United Kingdom",,,,"+44 151 647 7688",micro,
"Pembroke Brewery Co","108 Main St","Pamboke, United Kingdom",,,,"44 1646 683612",,
"Pennine Brewing Co.","Well Hall Farm Well","Bedale, United Kingdom",,,,"+44 1677 470111",micro,
"Pentrich Brewing Co","Unit B Asher Lane","Ripley, United Kingdom",,,,"+44 1773 741700",micro,
"Penzance Brewing Co","Crowlas Penzance","Cornwall, United Kingdom",,,,"01736 740375",,
"Pershore Brewery","Unit 5 Lyttleton Rd","Pershore, United Kingdom",,,,"44 01386 561 578",micro,http://www.pershorebrewery.com/
"Pheasantry Brewery","High Brecks Farm Lincoln Road","Newark, United Kingdom",,,,"+44 1777 872728",micro,
"Phillips Brewing Co - Hundred House Hotel","A442 Bridgnorth Rd","Norton, United Kingdom",,,,"+44 1952 580240",,http://www.hundredhouse.co.uk
"Phipps NBC","The Albion Brewery 54 Kingswell Street","Northampton, United Kingdom",,,,"+44 1604 946606",,
"Phoenix Brewery","Green Lane","Heywood, United Kingdom",,,,"+44 7979 968655",micro,http://www.phoenixbrewery.co.uk
"Phoenix Brewery LTD","Green Ln","Heywood, GTR Manchester, United Kingdom",,,,"(170) 662-7009",,
"Pickled Pig Brewers",,"Staunton In the Vale, United Kingdom",,,,,micro,
"Piddle Brewery","Unit 24 Enterprise Park","Piddlehinton, United Kingdom",,,,"+44 1305 849336",micro,
"Pig Iron Brewing","Venture Way Brierley Hill","West Midlands, United Kingdom",,,,"+44 7816 918777",micro,
"Pilgrim Brewery","11 West St","Reigate, United Kingdom",,,,"+44 1737 222651",,http://www.pilgrim.co.uk/
"Pin-Up Beers Ltd","Unit 3 Chalex Industrial Estate 214 Manor Hall Rd","Southwick, United Kingdom",,,,"+44 1273 411127",,
"Pitchfork Ales","West Hewish","Weston Super Mare, United Kingdom",,,,"+44 1934 384044",,http://www.rchbrew.com
"Pitfield Brewery","New House Farm Little Laver Road","Moreton, United Kingdom",,,,"44 01277 890 580",micro,
Pivni,"6 Patrick Pool York","England, United Kingdom",,,,,,
"Plain Ales","17 Deverill Road Trading Estate Sutton Veny","Warminster, United Kingdom",,,,"+44 1985 841481",micro,
"Plassey Brewery","The Plassey, Eyton","Wrexham, Clwyd, United Kingdom",,,,"(197) 878-0922",,
"Plassye Brewery","Eyton Wrexham","North Wales, United Kingdom",,,,"+44 7769 155874",,
"Platform 22","22 Station Road","Torphins, United Kingdom",,,,"+44 1339 882807",micro,
"Platform 5 Brewing Company Ltd","197 Queen Street","Newton Abbot, United Kingdom",,,,"01626 354166",micro,http://platform5brewing.co.uk/
"Poole Brewery","68 High St","Poole, United Kingdom",,,,"+44 1202 685288",,
"Porchester Brewery","6 Audret Close Fareham","Hampshire, United Kingdom",,,,,,
"Port Mahon Brewery, C/o Cask & Cutter","1 Henry Street","Sheffield, United Kingdom",,,,,,
"Porter Brewing Co LTD","84 Hud Rake","Haslingden, United Kingdom",,,,"01706 214021",,
"Potbelly Brewery","Potbelly Brewery Sydney Street","Kettering, United Kingdom",,,,,micro,
"Potton Brewery Co","10 Shannon Pl","Potton, Sandy, Beds, United Kingdom",,,,"(176) 726-1042",,
"Potton Brewery Co","10 Shannon Place Potton","Bedfordshire, United Kingdom",,,,,,
"Powderkeg Brewery","10 Hogsbrook Units","Woodbury, United Kingdom",,,,"+44 1395 488181",micro,
"Prescott Ales","Unit 1 The Bramery Business Park Alstone Lane","Cheltenham, United Kingdom",,,,"44 07526 934 866",,http://www.prescottales.co.uk/
"Princetown Breweries LTD","The Brewery, Tavistock Rd","Princetown, Devon, United Kingdom",,,,"(182) 289-0789",,
"Prospect Brewery","10a Great George St","Wigan, United Kingdom",,,,"+44 1257 421329",,
"Pub and Bar Co @ Whitbread","The Herculean, Houghton Hall Off Park Porz Ave","Dunstable, United Kingdom",,,,"01582 844 600",,
"Pub Estate Co","Blenheim House, Foxhole Rd Ackhurst Park","Chorley, Lancs, United Kingdom",,,,"01257 238 800",,
"Pubs N Bars","Standwood House 10-12 Weir Rd","London, United Kingdom",,,,"0208 228 4800",,
"Punch Group (Supply) Ltd","107 Station St Burton-upon-Trent","Staffs, United Kingdom",,,,"01283 545 320",,
"Punch Pub Co","Jubilee House Second Avenue","Burton Upon Trent, United Kingdom",,,,"+44 1283 501600",,
"Purity Brewing Co Ltd","The Brewery Upper Spernall Farm","Great Alne, United Kingdom",,,,"44 01789 488 007",micro,
"Purple Moose Brewery","Madoc Street","Gwynedd, United Kingdom",,,,"+44 1766 515571",micro,
"Pyramid Pub Management Co Ltd","Suite 3H Steam Mill Bus.Ctr. Steam Mill Rd","Chester, United Kingdom",,,,"01244 321171",,
"Quantock Brewery","Westridge Way Broadgauge Business Park","Taunton, United Kingdom",,,,"+44 1823 433812",micro,
"Quartz Brewing Ltd","Archer's Alrewas Road","Kings Bromley, United Kingdom",,,,"+44 1543 473965",micro,http://www.quartzbrewing.co.uk/contacts/
"Quay Brewery","Hope Square, Weymouth","Dorset, United Kingdom",,,,"44 1305 788724",,
"Quercus Devon Ales","Unit 2M/N South Hams Business Park","Kingsbridge, United Kingdom",,,,,,
"Radnorshire Ales","Brookside Farm Park Road","New Radnor, United Kingdom",,,,"01544 350456",micro,
"Ramsbottom Craft Brewery","1 Heapworth Avenue","Ramsbottom, United Kingdom",,,," +44 7976 263344",micro,
"Ramsbury Brewing & Distilling Co Ltd","Stockclose Farm Aldbourne","Marlborough, United Kingdom",,,,,,
"Ramsgate Brewery Ltd","7 Pysons Road Industrial Estate Hornet Cl","Broadstairs, United Kingdom",,,,"+44 1843 868453",micro,
"Ran Ales Ltd","Unit 8 Ormonde Street Fenton","Stoke-on-Trent, United Kingdom",,,,"+44 7843 092620",micro,
"Randalls Vautier Ltd","PO Box 43 Clare St St Helier","Jersey, United Kingdom",,,,"01534 887 788",,
"Raw Brewing Co Ltd","Units 3 & 4 Silver House Adelphi Way","Chesterfield, United Kingdom",,,,"01246 475445",micro,http://www.rawbrew.com/contact/us
"RCH Brewery","West Hewish","Weston-super-Mare, United Kingdom",,,,"(193) 483-4447",,
"Rebellion Beer Co","Bencombe Farm Marlow Bottom","Marlow, United Kingdom",,,,"+44 1628 476594",,
"Rectory Ales LTD","Streat Hill Farm Streat Hill","Hassocks, United Kingdom",,,,"+44 1273 891378",,
"Red Brewery Co Ltd","The Orchard Garden Farm","Great Staughton, United Kingdom",,,,"(755) 720-7013",micro,
"Red Cat Brewing","Unit 10 Sun Valley Business Park Winnall Close","Winchester, United Kingdom",,,,"+44 1962 863423",micro,
"Red Fox Brewery Ltd","The Chicken Sheds Upp Hall Farm","Coggeshall, United Kingdom",,,," +44 1376 563123",micro,
"Red Rock Brewery Ltd","Higher Humber Farm","Bishopsteignton, United Kingdom",,,,"+44 1626 879738",micro,
"Red Squirrel Brewery Ltd","104 High St","Berkhamsted, United Kingdom",,,,"+44 1442 920644",micro,
"Red Willow Brewery Ltd.","The Lodge Sutton Garrison","Macclesfield, United Kingdom",,,,"+44 1625 502315",micro,
"Redemption Brewing Company","Unit 16 Compass West Industrial Estate West Road","London, United Kingdom",,,,"+44 20 8885 5227",micro,
"Redscar Brewery","The Cleveland Hotel 9-11 High Street West","Cleveland, United Kingdom",,,,"01642 513727",micro,
"Redwell Brewing","7 The Arches Bracondale","Trowse Millgate, United Kingdom",,,,"44 01603 624 072",micro,
"Reedley Hallows Brewery","Unit B3 Farrington Court","Burnley, United Kingdom",,,,"07749 414 513",micro,
Revolution,"21 Old St","Ashton-under-Lyne, United Kingdom",,,,"+44 161 330 3876",,
"Rhymney Brewery Ltd","Gilchrist Thomas Industrial Estate Blaenavon","Pontypool, United Kingdom",,,,"+44 1495 790456",micro,
"Richmond Brewing Company Ltd.","Richmond Brewing Company The Station","N Yorkshire, United Kingdom",,,,"44 01748 828 266",micro,
"Ridgeside Brewing Co.","Unit 24 Penraevon 2 Ind. Est. Jackson Rd","Leeds, United Kingdom",,,,"+44 7595 380568",micro,
"Ringwood Brewery","138 Christchurch Road","Ringwood, United Kingdom",,,,"+44 1425 470303",micro,http://www.hampshirebrewery.com
"Ringwood Brewery Ltd","138 Christchurch Road Ringwood","Hants, United Kingdom",,,,,,http://www.ringwoodbrewery.co.uk
"Ripple Steam Brewery Ltd","Parsonage Farm Vale Road","Sutton-by-Dover, United Kingdom",,,,"07802 752260",micro,http://ripplesteambrewery.co.uk/
"Riverhead Brewery Ltd","2 Peel Street Marsden","Huddersfield, United Kingdom",,,,"+44 1484 841270",,
"Robin Hood Brewery Ltd","High Church Street","Basford, United Kingdom",,,,,micro,
"Robinsons Brewery","Lower Hilgate","Stockport, United Kingdom",,,,"+44 161 612 4061",,http://www.frederic-robinson.com
"Rockingham Ales","25 Wansford Road","Elton, United Kingdom",,,,,,
"Roosters Brewing Co - York","Unit 3 Grimbald Park Wetherby Rd","Knaresborough, United Kingdom",,,,"44 (0) 1423 865 959",micro,http://www.roosters.co.uk
"Rother Valley Brewing Co","Station Road Northiam","East Sussex, United Kingdom",,,,"44 01580 879 546",,
"Round Tower Brewery","Unit 11a Robjohns House","Chelmsford, United Kingdom",,,,"+44 1245 807343",micro,
"Rowton Brewery","Stone House Rowton","Telford, United Kingdom",,,,"(785) 488-5870",micro,
"Ruddles Brewery Ltd","Langham, Oakham","Rutland, United Kingdom",,,,"+44 572756911",regional,http://www.ruddles.co.uk
"Rudgate Brewery LTD","2 Centre Park Marston Business Park","Tockwith, United Kingdom",,,,"+44 1423 358382",micro,
"RW Randalls Ltd","PO Box 154 St Georges Esplanade","Guernsey, United Kingdom",,,,,,
"Ryburn Brewery c/o Ramshead Public House","Wakefield Road","Sowerby Bridge, United Kingdom",,,,,,http://www.ryburnbrewery.co.uk
"Ryedale Brewing Company","Hardings House Hardings Lane","Cross Hills, United Kingdom",,,,"+44 7850 510859",micro,
"S.A. Brain & Co. Ltd","Crawshay St","Cardiff, United Kingdom",,,," +44 29 2040 2060",regional,
"Sadler's Ales","Unit 2 Conyers Trading Estate Station Drive","Stourbridge, United Kingdom",,,,"01384 895 230",,
"Saffron Brewery","The Cartshed Parsonage Farm","Bishops Stortford, United Kingdom",,,,"+44 1279 850923",,
Sainsburys,"33 Holborn","London, United Kingdom",,,,44-207-695-6000,,
"Saint Peters Brewery Co LTD","Saint Peters Hall","Bungay, United Kingdom",,,,"+44 1986 782322",,
"Salamander Brewing Company","22 Harry Street","Bradford, United Kingdom",,,,"+44 1274 652323",micro,
"Salopian Brewing Co LTD","Old Station Road","Hadnall, United Kingdom",,,,"+44 1743 248414",,
"Saltaire Brewery Ltd.","County Works Dockfield Road","Shipley, United Kingdom",,,,"01274 594959",micro,
"Sambrook's Brewery Ltd","Unit 1 & 2 Yelverton Road Battersea","London, United Kingdom",,,,"+44 20 7228 0598",,
"Samuel Smith Brewery","High St","Tadcaster, United Kingdom",,,,"+44 1937 832225",regional,
"Sandstone Brewery","Unit 5A Wrexham Enterprise Park Preston Road","Wrexham, United Kingdom",,,,"+44 7851 001118",,
"Sarah Hughes Brewery","129 Bilston Rd","Dudley, United Kingdom",,,,"+44 1902 883380",,
"Sawbridgeworth Brewery","81 London Road","Sawbridgeworth, United Kingdom",,,,,micro,
Scandibrew,"Sanderum House Oakley Rd Chinnor","Oxon, United Kingdom",,,,"+44 0844 354191",regional,
"Scarborough Brewery Ltd.","Unit 1B Stadium Works Barry's Lane","Scarborough, United Kingdom",,,,"+44 1723 367506",micro,
"Scattor Rock Brewery","Unit 5, Gidleys Meadow","Christow, Exeter, United Kingdom",,,,"(167) 725-2120",,
"School House Brewery Ltd.","Unit 1 Cleveland Trading Estate Cleveland St","Darlington, United Kingdom",,,,"+44 1325 461812",,http://www.schoolhousebrewery.co.uk/
"Scottish & Newcastle PLC, Head Office","2-4 Broadway Pk S Gyle Broadway","Edinburgh, United Kingdom",,,,"+44 (131) 528 1000",,http://www.scottish-newcastle.com
"Scottish Borders Brewery","Lanton Mill Cottage","Jedburgh, United Kingdom",,,,"+44 1835 830387",micro,http://www.chestersestate.com/brewery/
"Scottish Courage Brewing Ltd - Royal Brewery","Denmark Road","Manchester, United Kingdom",,,,,,
"Scottish Courage Brewing Ltd - Tyne Brewery","Bath Lane","Newcastle on Tyne, United Kingdom",,,,,,
"Scottish Newcastle Beer Prod.","Tyne Brew. Gallowgate","Newcastle-upon-Tyne, United Kingdom",,,,,,
"Scotts Brewing Co","Crown St East","Lowestoft, Sufflok, United Kingdom",,,,"(150) 253-7237",,
"Scribblers Ales","Room With A Brew 78 Derby Road","Nottingham, United Kingdom",,,,"07834 455420",micro,
"Selby (Middleborough) Brewery Ltd","131 Milgate","Selby, United Kingdom",,,,"01757 702826",,
"Seren Brewing Company","Syfnau House","Rosebush, United Kingdom",,,,"44 01437 532 098",micro,
"Settle Brewing Company","2B The Sidings","Settle, United Kingdom",,,,"+44 1729 824936",micro,
"Seven Bro7hers Brewery","33 Waybridge Enterprise Centre Daniel Adamson Road","Salford Quays, United Kingdom",,,,"44 (0)161 6379 929",micro,
"SFI Group PLC","SFI House, 165 Church St East","Woking, United Kingdom",,,,"01483 227 900",,
"Shalford Brewery","PO Box 10411","Braintree, United Kingdom",,,,"44 07984210 818",micro,
"Shardlow Brewery","Cavendish House/Cavendish Bridge","Derby, United Kingdom",,,,"+44 1332 799188",,
"Sharps Brewery",Rock,"Cornwall, United Kingdom",,,,"+44 1208 862121",,
"Shepherd Neame Ltd","17 Court Street","Faversham, United Kingdom",,,,"+44 1795 532206",,
"Sherfield Village Brewery Ltd","2 Goddards Ln Sherfield On Loddon","Hook, United Kingdom",,,,"+44 7906 060429",micro,
"Shiny Brewing Company Ltd","10 Old Hall Mill Business Park Alfreton Rd","Little Eaton, United Kingdom",,,,"+44 1332 902809",micro,
"Ship and Mitre","133 Dale Street Liverpool","England, United Kingdom",,,,"+44 151 236 0859",,
"Shoes Brewery","Three Horseshoes Inn Norton Canon","Hereford, United Kingdom",,,,,,
"Shortts Farm Brewery","Shortts Farm Thorndon","Eye, United Kingdom",,,,"+44 (0) 7900 268 100",micro,
"Silhill Brewery Ltd","Unit 1 Oak Farm Hampton Ln","Catherine-de-Barnes, United Kingdom",,,,"+44 7977 444564",micro,
"Sir John Fitzgerald Ltd","8 Nelson St","Newcastle-upon-Tyne, United Kingdom",,,,"+44 191 231 3000",,
"Siren Craft Brew","Unit 1 Weller Drive","Finchampstead, United Kingdom",,,,441189730929,micro,http://www.sirencraftbrew.com
"Six Bells Brewery","Church St","Bishops Castle, United Kingdom",,,,"+44 1588 630144",,
"Skinners Brewery","Riverside Newham Road","Truro, United Kingdom",,,,,,
"Skinners Brewing Co","Newham Rd","Truro, United Kingdom",,,,"+44 1872 271885",,
"Slaters Brewery","St Albans Road Industrial Estate","Stafford, United Kingdom",,,,"+44 1785 257976",,
"Slaughterhouse Brewery Ltd","Bridge Street","Warwick, United Kingdom",,,,,micro,
"Slightly Foxed Brewing Company","Asquith Bottom Mill","Sowerby Bridge, United Kingdom",,,,"+44 1422 835577",micro,
"Slug and Lettuce Group","19-20 Hanover St Mayfair","London, United Kingdom",,,,"+44 20 7499 0077",,
"Small World Beers Ltd.","Unit 10, Barncliffe Business Park Near Bank","Shelley, United Kingdom",,,,"44 01484 602 805",micro,
"Smiles Holdings PLC","Colston Yard, Colston St","Bristol, Avon, United Kingdom",,,,"+7 929 7350",,
"Son of Sid Brewery","71 Main Street Little Gansden","Sandy, United Kingdom",,,,"+44 1767 677348",,
"Sonnet 43 Brew House","Durham Road","Coxhoe, United Kingdom",,,,"0191 377 3039",micro,
"Sperrin Brewery","The Lord Nelson Inn Birmingham Road","Nuneaton, United Kingdom",,,,"(781) 688-1313",micro,http://www.sperrinbrewery.co.uk/contact/
"Spire Brewing Company","Bull Paddock Farm Sutton Lane","Chesterfield, United Kingdom",,,,"44 01246 807 940",micro,
"Spitting Feathers","28 Common Farm Waverton","Chester, United Kingdom",,,,"+44 1244 332052",micro,
"Springhead Brewery","Robin Hood Site Main St","Laneham, United Kingdom",,,,"+44 1777 229020",micro,
"St Andrews Brewing Co.","St Andrews Brewing Co. Unit 7 Bassaguard Business Park","St Andrews, United Kingdom",,,,"44 01334 208 586",brewpub,http://www.standrewsbrewingcompany.com/
"St George's Brewery","The Old Bake House Bush Lane","Callow End, United Kingdom",,,,"+44 1905 831316",micro,
"St Peters Brewery Co PLC","St Peters Hall, South Elmham","Bungay, Suffolk, United Kingdom",,,,"+44 198-678-2322",micro,http://www.stpetersbrewery.co.uk
"Stag Brewery","Lower Richmond Rd","London, United Kingdom",,,,"(081) 876-3434",regional,
"Stamps Brewery","17 Boundary Street","Everton, United Kingdom",,,,"+44 7913 025319",micro,
"Stancill Brewery Ltd.","Unit 2, Oakham Drive","Sheffield, United Kingdom",,,,"+44 114 275 2788",micro,
"Standwood Taverns Ltd","10-12 Weir Rd","London, United Kingdom",,,,"020 8675 1381",,
"Stanway Brewery",Stanway,"Cheltenham, United Kingdom",,,,"01386 584 320",,
"Star Brewing Company","Unit G-H Bentley Business Park Blenheim Way","Market Deeping, United Kingdom",,,,"+44 1778 380480",micro,
"Stationhouse Brewery","Kigsley Road Frodsham","Cheshire, United Kingdom",,,,"44 01928 787 917",,
"Stewart Brewing","26a Dryden Road Bilston Glen Ind Estate","Loanhead, United Kingdom",,,,"44 0131 440 2442",micro,https://www.stewartbrewing.co.uk
"Stockport Brewing Company","Unit 16 The Gate Centre","Stockport, United Kingdom",,,,"+44 0161 637 0306",micro,
"Stod Fold Brewing Company","Stod Fold","Halifax, United Kingdom",,,,"+44 1422 245951",micro,
Stonegate,"Porter Tun House 500 Capability Green","Lufton, United Kingdom",,,,"44 1582 726797",,
"Stonehenge Ales","Mill Rd","Netheravon, United Kingdom",,,,"+44 1980 670631",,
"Stonehouse Brewery Ltd",Weston,"Oswestry, United Kingdom",,,,"+44 (0) 1691 676457",micro,
"Storm Brewing Co","2 Waterside Macclesfield","Cheshire, United Kingdom",,,,"+44 1625 431234",micro,
"Strands Brewery","Netherr Wasdale","Seascale, United Kingdom",,,,"+44 19467 26237",,
"Stratford Upon Avon Brewery Ltd","Cliffe Cottage Warwick Road","Stratford-upon-Avon, United Kingdom",,,,"+44 7866 495232",,
"Strathaven Ales","Craigmill Brewery Sandford Road","Lanarkshire, United Kingdom",,,," +44 1357 520419",micro,http://www.strathavenales.com/
"Strathbraan Brewery","Deans Haugh Amulree","Dunkeld, United Kingdom",,,,"+44 7747 857908",micro,http://strathbraanbrewery.tel/
"Stringers Beer","Unit 3 Low Mill Business Park","Ulverston, United Kingdom",,,,"+44 1229 581387",micro,
"Stroud Brewery","Unit 11 Phoenix Works Hope Mill Lane","Stroud, United Kingdom",,,,"+44 1453 887122",micro,
Suddabys,"12 Wheelgate","Malton, United Kingdom",,,,"01653 692038",,
"Sulwath Brewers","209 King Street","Castle Douglas, United Kingdom",,,,"+44 1556 504525",micro,http://www.sulwathbrewers.co.uk/
"Summerskills Brewery","15 Pomphlett Farm Industrial Estate Broxton Dr","Billacombe, United Kingdom",,,,"01752 481283",,
"Sunny Republic Brewing Company","The Old Grain Barns North West Farm","Winterborne Kingston, United Kingdom",,,,,micro,
"Surrey Hills Brewery Ltd","Denbies Wine Estate London Road","Dorking, United Kingdom",,,,"+44 1306 883603",micro,
"Sutton Brewing Co","31 Commercial Rd","Coxside, Plymouth, United Kingdom",,,,"(175) 220-5010",,
"Swale Brewery Co","Unit 1, D2 Trading Estate Castle Rd","Eurolink, Sittingbourne, Kent, United Kingdom",,,,"(179) 542-6871",,
"Swannay Brewery","Swannay Brewery","Evie, United Kingdom",,,,"+44 1856 721700",micro,http://www.swannaybrewery.com
"T & R Theakston Ltd - The Brewery",Masham,"Ripon, United Kingdom",,,,,,
"T&R Theakston LTd","Brewery Visitor Centre","Masham, United Kingdom",,,," +44 1765 680000",,
"T.D. Ridley & Sons Ltd - Hartford End Brewery","Greene King PLC Westgate Brewry","Suffolk, United Kingdom",,,,01284763222,,http://www.ridleys.co.uk
"Tally Ho! Brewery Ltd","14 Market Street","Hatherleigh, United Kingdom",,,,,,
"Tap East","7 International Square Montfichet Road","London, United Kingdom",,,,"+44 20 8555 4467",micro,
"Tarn Hows Brewery",Outgate,"Ambleside, United Kingdom",,,,"+44 (0) 7935 789581",micro,
"Tatton Brewery","Unit 7 Longridge Trading Estate","Knutsford, United Kingdom",,,,"01565 750 747",micro,
"Taverna Inns Ltd","East Riding of Yorkshire S Church Side","Hull, United Kingdom",,,,"+44 1964 650143",,
"Tavy Ales Ltd","9 Porsham Close","Plymouth, United Kingdom",,,,"+44 1752 396052",micro,
"Teignworthy Brewery","The Maltings/Teign Rd","Newton Abbott, United Kingdom",,,,"+44 1626 332066",,http://www.teignworthybrewery.com/
"Teme Valley Brewery","Bromyard Road","Knightwick, United Kingdom",,,,"44 01886 821 235",micro,
"Tempest Brewing Co.","1&2 Tweedbank Industrial Estate Block 11","Galashiels, United Kingdom",,,,"+44 1896 759500",micro,http://www.tempestbrewco.com/
"Tenby Brewing Co Ltd","Unit 15 The Salterns","Tenby, United Kingdom",,,,"+44 1834 218090",micro,
"The Backyard Brewhouse","Gatehouse Trading Estate Lichfield Rd","Brownhills, United Kingdom",,,,"+44 1543 360145",micro,
"The Belleville Brewing Co Ltd","Unit 36 Jaggard Way","London, United Kingdom",,,,"+44 7712 298273",micro,
"The Bitter End Brewery","15 Kirkgate Cockermouth","Cumbria, United Kingdom",,,,"44 1900 828993",,
"The Bon Accord","153 North Street","Glasgow, United Kingdom",,,,"+44 141 248 4427",,
"The Borough Brewery","3 Dalton Square","Lancaster, United Kingdom",,,,"+44 1524 64170",brewpub,
"The Breconshire Brewery Ltd","Ffwdgrech Industrial Estate","Brecon, United Kingdom",,,,"01874 623731",,http://www.breconshirebrewery.com
"The Budweiser Stag Brewing Co Ltd","Stag Brewery Lower Richmond Road- Mortlake","London, United Kingdom",,,,,,
"The Bull Highgate","13 North Hill Highgate","London, United Kingdom",,,,"+44 20 8341 0510",micro,http://www.londonbrewing.com
"The Caledonian Brewing Co Ltd","Caledonian Brewery 42 Slateford Rd","Edinburgh, United Kingdom",,,,,,
"The Camerons Brewery Ltd","The Lion Brewery","Hartlepool, United Kingdom",,,,"+44 1429 852000",,http://www.cameronsbrewery.com
"The Clun Brewery","The Square","Clun, United Kingdom",,,,"+44 1588 418149",micro,
"The Colonsay Brewery","Dunoran Scalasaig","Isle of Colonsay, United Kingdom",,,,"+44 1951 200190",micro,http://colonsaybrewery.co.uk
"The Coniston Brewing Co. Ltd","Coppermines Road","Coniston, United Kingdom",,,,,,
"The Consett Ale Works","115 Sherburn Terrace Consett","Co Durham, United Kingdom",,,,"01207 591540",micro,http://www.consettaleworks.co.uk/
"The Conway Brewery Ltd","Unit 2 Ty Mawr Enterprise Park","Llysfaen, United Kingdom",,,,"+44 1492 514305",micro,
"The Cotswold Brewing Co.","College Farm Stow Road","Cheltenham, United Kingdom",,,,"+44 1451 824488",micro,
"The Crown Inn","154 Heaton Lane","Stockport, United Kingdom",,,,"+44 161 429 6948",,
"The Dartford Wobbler Brewery","St Margaret's Farm St Margaret's Road","Dartford, United Kingdom",,,,"+44 1322 866233",micro,
"The Dog and Hedgehog","2 The Green Dadlington","Nuneaton, United Kingdom",,,,"+44 1455 213151",,
"The Driftwood Spars","Trevaunance Cove St. Agnes","Cornwall, United Kingdom",,,,"44 01872 552 428",,
"The Durham Brewery Ltd","Bowburn North Industrial Estate","Bowburn, United Kingdom",,,,"+44 191 377 1991",micro,http://durhambrewery.com/
"The Earl Soham Brewery","Unit 1A Bloomfields Works Kenton Rd","Stowmarket, United Kingdom",,,,"+44 1728 861213",,http://www.earlsohambrewery.co.uk
"The Exeter Brewery Ltd","Cowley Bridge Road","Exeter, United Kingdom",,,,"+44 1392 259059",,
"The Felstar Brewery","Felsted Vineyard Crix Green","Felsted, United Kingdom",,,,,,
"The Filo Brewery - First In, Last Out","14-15 High Street Old Town","Hastings, United Kingdom",,,,"+44 (0)1424 425079",,http://www.thefilo.co.uk
"The Foundry Brewpub","White Horse Lane","Canterbury, United Kingdom",,,,"+44 1227 455899",,
"The Gipsy Hill Brewing Co.","Unit 11 Hamilton Road Industrial Estate 160 Hamilton Road","London, United Kingdom",,,,"44 2087 619 061",micro,
"The Grainstore","Station Approach","Oakham, United Kingdom",,,,"+44 1572 770065",,
"The Grainstore Brewery-Davis Brewing Co Ltd","Station Approach","Oakham, United Kingdom",,,,,,
"The Gribble Brewery","The Gribble Inn Oving","Nr. Chichester, United Kingdom",,,,,,
"The Hampshire Bowman","Dundridge Bishops Waltham","Southhampton, United Kingdom",,,,,,
"The Hidden Brewery Ltd","Wyly Road, Dinton","Salisbury, United Kingdom",,,,4401722716440,,http://www.thehiddenbrewery.co.uk
"The Hop Studio","3 Handley Park","Elvington, United Kingdom",,,,"+44 1904 608029",micro,
"The Hop Vine","Liverpool Road North","Burscough, United Kingdom",,,," +44 1704 893799",micro,
"The John Thompson Inn & Brewer",Ingleby,"Melbourne, United Kingdom",,,,"01332 862469",,
"The Joiners Arms","50 Bishopston Road","Bishopston, United Kingdom",,,,"+44 1792 232658",,
"The Kelburn Brewing Co","10 Muriel Lane Barrhead","Glasgow, United Kingdom",,,,"+44 141 881 2138",micro,http://www.kelburnbrewery.com/
"The Kernel Brewery","Arch 11 Dockley Road Industrial Estate Dockley Rd","London, United Kingdom",,,,"+44 20 7231 4516",,
"The Liverpool Craft Beer Co.","10 Love Lane","Liverpool, United Kingdom",,,,"+44 151 236 9400",micro,
"The Millstone Brewery Limited","Unit 4, Vale Mill Micklehurst Road","Mossley, United Kingdom",,,,"44 01457 835 835",micro,
"The Mount Murray Brewing Co Ltd","Castletown Road","Braddan, United Kingdom",,,,,,http://www.bushys.com
"The Nook Brewhouse","3a Victoria Square","W Yorkshire, United Kingdom",,,,"01484 682 373",micro,
"The Northern Clubs Federation Brewery Ltd","Lancaster Road Dunston","Gateshead, United Kingdom",,,,,,http://www.federation-brewery.co.uk
"The Old Green Tree","12 Green Street","Bath, United Kingdom",,,,"+44 1225 448259",,
"The Outstanding Brewing Co Ltd","Britannia Mill Cobden Street","Bury, United Kingdom",,,,"+44 161 764 7723",,
"The Park Brewery","95 Elm Road","Kingston-upon-Thames, United Kingdom",,,,"+44 7949 574618",micro,
"The Portobello Brewing Company","Mitre Way White City","London, United Kingdom",,,,"+44 20 8969 2269",,
"The Rebel Brewing Co.","Kernick Industrial Estate Parkengue","Kernick, United Kingdom",,,,"+44 1326 379362",micro,
"The Revolutions Brewing Co.","Unit B7 Whitwood Enterprise Park Speedwell Road","Castleford, United Kingdom",,,,"+44 1977 552649",micro,http://www.revolutionsbrewing.co.uk/
"The Robert Cain Brewery","Stanhope Street","Liverpool, United Kingdom",,,,,,
"The Sheffield Brewery Co Ltd.","81 Burton Rd","Sheffield, United Kingdom",,,,"+44 114 272 7256",micro,
"The Shotover Brewing Co Ltd","Manor Farm Road","Horspath, United Kingdom",,,,"+44 1865 604620",micro,
"The South Hams Brewery Ltd","Stokeley Barton Farm Stokenham","Kingsbridge, United Kingdom",,,,"+44 1548 581151",micro,
"The State Bar","148 Holland Street Glasgow","Glasgow, United Kingdom",,,,,,
"The Station Bar","55 Port Dundas Road Glasgow","Glasgow, United Kingdom",,,,,,
"The Tapped Brew Co","Sheaf St","Sheffield, United Kingdom",,,,"+44 114 273 7558",micro,
"The Three Judges","141 Dumarton Road","Patrick, United Kingdom",,,,"+44 141 337 3055",,
"The Vale of Glamorgan Brewery Ltd","Atlantic Trading Estate Barry","Wales, United Kingdom",,,,"+44 1446 730757",micro,
"The Watchmaker's Arms","84 Goldstone Villas","Hove, United Kingdom",,,,"+44 1273 776307",,http://www.beercraftbrighton.co.uk
"The Watermill Inn & Brewery","The Watermill Inn & Brewery Ings, Nr Staveley","Cumbria, United Kingdom",,,,"44 01539 821 309",brewpub,
"The Weighbridge Brewhouse","Penzance Drive","Swindon, United Kingdom",,,,"+44 1793 881500",,
"The Weighbridge Brewhouse","Penzance Drive","Swindon, United Kingdom",,,,,micro,
"The Wellington Inn","55 Russell Street Hull","England, United Kingdom",,,,,,
"The West Berkshire Brewery","The Flour Barn Frilsham Home Farm","Yattendon, United Kingdom",,,,"+44 1635 202968",,
"The Whalebone","165 Wincolmlee Hull","England, United Kingdom",,,,,,
"The White Swan","High St Stoke Golding","Nuneaton, United Kingdom",,,,"+44 1455 212313",,
"The Wild Beer Co","Lower Westcombe Farm Evercreech","Somerset, United Kingdom",,,,"44 01749 838 742",micro,http://www.wildbeerco.com
"The Wild Boar","Crook Road","Windermere, United Kingdom",,,,"015394 45225",micro,
"The Wolverhampton & Dudley Breweries","PO Box 26 Park Brewery - Bath Road","Wolverhampton, United Kingdom",,,,,,
"Thomas Hardy","Bold Lane Burtonwood","Warrington, United Kingdom",,,,"+44 1925 220022",regional,
"Thomas Hardy Burtonwood","Bold Ln Burtonwood","Warrington, United Kingdom",,,,,,
"Thomas Hardy Holdings Ltd","Bold Lane Burtonwood","Warrington, Cheshire, United Kingdom",,,,"01925 220022",,http://www.thomashardybrewery.co.uk
"Thomas McGuinness Brewing Co","Cask & Feather Public House 1 Oldham Road","Rochdale, United Kingdom",,,,,,http://www.mcguinnessbrewery.com
"Thorley taverns Ltd","The Old Police Station 56-60 Gladstone","Broadstairs, United Kingdom",,,,"+44 1843 602010",,
"Thornbridge Brewery","Thornbridge Riverside Brewery Buxton Road","Bakewell, United Kingdom",,,,,,
"Three B's Brewery","The Black Bull Brokenstone Road","Darwen, United Kingdom",,,,"01254 581381",micro,http://www.threebsbrewery.co.uk/
"Three Daggers Brewery","47 Westbury Road Edington","Westbury, United Kingdom",,,,"+44 1380 830940",micro,
"Three Fiends Brewhouse","Brookfield Farm Mill Moor Road","Holmfirth, United Kingdom",,,,,micro,http://www.threefiends.co.uk/
"Three Horseshoes","3 High St Stoke Golding","Nuneaton, United Kingdom",,,,,,
"Three Kings Brewery","14 Prospect Terrace","North Shields, United Kingdom",,,,"+44 7580 004565",micro,
"Three Nuns Brewery","Salop St","Bishops Castle, United Kingdom",,,,"+44 1588 638797",,
"Three Shires Brewery","Unit 10 New Business Enterprise Center","Worcester, United Kingdom",,,,"(796) 419-6194",,
"Three Sods Brewery Ltd","Pollard Row","London, United Kingdom",,,,"+44 7544 422236",micro,
"Three Tuns Brewery","Office 8 Enterprise House Station Street","Bishop's Castle, United Kingdom",,,,"44 01588 638 392",,
"Thurstons Brewery","102c High Street","Woking, United Kingdom",,,,"+44 1483 729555",micro,
"Ticketybrew Ltd","Unit 16 Waterloo Court","Stalybridge, United Kingdom",,,,"+44 0161 258 8570",,
"Tiger Tops Brewery","22 Oakes Dtreet Flanshaw Lane","Wakefield, United Kingdom",,,,"+44 (0)1229 716238",,http://www.princeofwalesfoxfield.co.uk
"Timothy Taylor & Co Ltd - Knowle Spring Brewery","Knowle Spring Brewery Queen's Rd","Keighley, United Kingdom",,,,"+44 1535 603139",large,
"Tintagel Brewery Ltd","Condolden Farm","Tintagel, United Kingdom",,,,"01840 213371",micro,
"Tiny Rebel Brewing Co","Wern Industrial Estate Wern Terrace","Rogerstone, United Kingdom",,,,"+44 1633 547378",,
"Tirril Brewery","Red House Cottage High Wiend","Appleby-in-Westmorland, United Kingdom",,,,"+44 17683 61846",micro,
"Tisbury Brewery LTD","8 Newbury Street Andover","Hamshire, United Kingdom",,,,"(177) 271-6622",,
"Titanic Brewery","Unit 5 Callender Pl","Stoke-on-Trent, United Kingdom",,,," +44 1782 823447",,
"Tollgate Brewery","Unit 1 Southwood House Farm Staunton Lane","Derbyshire, United Kingdom",,,,"+44 1283 229194",micro,
"Tom Cobleigh PLC","Doncaster Road SCunthorpe","North Lincolnshire, United Kingdom",,,,08432717744,,
"Tom Wood Beers Ltd","Melton High Wood Farm","Barnetby, United Kingdom",,,,"+44 1652 680001",micro,
"Tombstone Brewery","6 St George's Rd","Great Yarmouth, United Kingdom",,,,"+44 7584 504444",micro,
"Tomos Watkin","Unit 3 Century Park","Swansea, United Kingdom",,,,"+44 01792 775333",,
"Tomos Watkin & Sons","Unit 3 Century Park Swansea Enterprise Park","Swansea, United Kingdom",,,,"01792 797280",,
"Tonbridge Brewery","19 Brandbridges Rd","East Peckham, United Kingdom",,,,"+44 1622 871239",micro,
"Toolmakers Brewery","6-8 Botsford Street","Sheffield, United Kingdom",,,,,,
"Top Out Brewery","Unit 3 6 Dryden Road","Loanhead, United Kingdom",,,,"+44 131 440 0270",micro,http://www.topoutbrewery.com/
"Topsham Ales","34 Fore St","Topsham, United Kingdom",,,,"+44 1392 873471",micro,
"Towcester Mill Brewery Limited","Towcester Mill Chantry Lane","Towcester, United Kingdom",,,,"+44 1327 437060",micro,
"Tower Brewery Ltd","Glensyl Way","Burton-on-Trent, United Kingdom",,,," +44 1283 562888",micro,
"Towles' Fine Ales Ltd","32 Easton Rd","Bristol, United Kingdom",,,,"+44 117 321 3188",,
"Townes Brewery - The Speedwell Inn","21 Lowgates Staveley","Chesterfield, United Kingdom",,,,"+44 1246 472252",,
"Tractor Shed Brewing","Calva Brow","Workington, United Kingdom",,,,"(019) 006-8860",micro,
"Tractor Shed Brewing","Calva Brow","Workington, United Kingdom",,,,"(019) 006-8860",micro,
"Tractor Shed Brewing","Calva Brow","Workington, United Kingdom",,,,"(019) 006-8860",,
"Traquair House Brewery","Traquair House","Innerleithen, United Kingdom",,,,"+44 1896 830323",micro,http://www.traquair.co.uk/
"Treboom Brewery","Millstone Yard Main Street","Shipton-by-Beningbrough, United Kingdom",,,,"+44 1904 471569",micro,
"Tring Brewery Co LTD","Dunsley Farm London Road","Tring, United Kingdom",,,,"+44 1442 890721",,
"Triple FFF Brewing Co.","Unit 3 Magpie Works Station Approach","North Alton, United Kingdom",,,,"01420 561422",,
"Tryst Brewery","Lorne Rd. Falkirk","Larbert, United Kingdom",,,,"+44 1324 554000",micro,http://www.trystbrewery.co.uk/eden.html
"Tudor Brewery","1 Llanhilleth Industrial Estate","Llanhilleth, United Kingdom",,,,"+44 1873 851696",micro,
"Tudor Inns and Taverns Ltd","Victoria Hotel, 141 Week St Maidstone","Kent, United Kingdom",,,,"01622 661 782",,
"Tweed Brewing Co.","Unit D1 C Newton Business Park Talbot Road","Hyde, United Kingdom",,,,"+44 161 368 8608",micro,
"Twickenham Fine Ales Ltd","18 Mereway Road","Twickenham, United Kingdom",,,,"+44 20 8241 1825",micro,
"Twisted Brewing Company Ltd","Unit 8 Commercial Business Centre Commerce Close","Westbury, United Kingdom",,,,"01373 864441",micro,
"Twisted Oak Brewery Ltd","Yeowood Farm Iwood Lane","Wrington, United Kingdom",,,," 01934 310515",micro,
"Two By Two Brewing","Unit 19 Point Pleasant Ind. Est.","Wallsend, United Kingdom",,,,,micro,
"Two Cocks Brewery","Church Lane Crockham Heath","Newbury, United Kingdom",,,,"+44 1635 37777",micro,
"Two Rivers Brewery","2 Sluice Bank","Denver, United Kingdom",,,,"+44 1366 380131",micro,http://denverbrewery.co.uk/
"Two Roses Brewery","Unit 9, Darton Business Park Barnsley Road","Darton, United Kingdom",,,,"07780 701254",micro,
"Two Towers Brewery","29 Shadwell St","Birmingham, United Kingdom",,,,"+44 121 439 3738",,
"Tydd Steam Brewery","Manor Barn Kirkgate","Cambridgeshire, United Kingdom",,,,"44 01945 871 020",micro,
"Tynemill Ltd","85 Dovecote Ln Beeston","Nottingham, United Kingdom",,,,"+44 115 925 4049",,
"UB Group, Breweries Division","Cobb Hall Cottage Back Way Greta Haseley","Oxfordshire, United Kingdom",,,,"+44 844 279469",,
"Uley Brewery Ltd - The Old Brewery","31 The Street","Uley, United Kingdom",,,,,,
"Ultimate Leisure Group","26 Mosley St","Newcastle-upon-Tyne, United Kingdom",,,,"0191 261 8800",,
"Ulverston Brewery","C/o 59 Urswick Road Ulverston","Cumbria, United Kingdom",,,,"44 01229 586 870",,
"Union Pub Co","Mill House, Aylesbury Rd Thame","Oxon, United Kingdom",,,,"01844 262 000",,
"Unsworth's Yard Brewery","4 Unsworth's Yard Ford Rd","Cartmel, United Kingdom",,,,"+44 7810 461313",,
"Untapped Brewing Company Ltd","Unit 6 Little Castle Business Park","Raglan, United Kingdom",,,,"+44 1291 690074",micro,
"Upham Pub Company Ltd","Stakes Farm Cottage Cross Lane","Southampton, United Kingdom",,,,"+44 1489 861383",,
"Urban Island Brewing","28 Limberline Spur","Portsmouth, United Kingdom",,,,"+44 23 9266 8726",micro,
"Vale Brewery","Tramway Business Park Ludgershall Road","Buckinghamshire, United Kingdom",,,,"44 01844 239 237",,
"Vale Brewery Co","83 Bicester Road","Aylesbury, United Kingdom",,,,"01844 239237",,
"Valhalla Brewery","Haroldswick Unst","Shetland, United Kingdom",,,,"+44 1957 711658",,
"Vaux Breweries","Breweries: Sheffield The Brewery","Sunderland, United Kingdom",,,,0783-76277,large,
"Ventnor Brewery Co","119 High St","Ventnor, Isle of Wight, United Kingdom",,,,"(198) 385-6161",,
"Ventonwyn Brewing Co","Unit 2B, Grampound Rd Ind Est Nr Truro, Cornwall","South West, United Kingdom",,,,"(172) 688-4367",,
"Verulam Brewery","134 London Road","St Albans, United Kingdom",,,,,,
"Vibrant Forest Brewery","Unit 3 Gordleton Business Park Hannah Way","Lymington, United Kingdom",,,,"+44 1590 681094",micro,
"VIP Brewery","Unit E Hawkhill Industrial Estate Lesbury","Alnwick, United Kingdom",,,,"01665 830617",micro,http://vipbrewery.co.uk
Viru,"62 Wilson Street","London, United Kingdom",,,,"+44 844 247 2058",,http://www.virubeer.com
"Vocation Brewery","Unit 8, Craggs Country Business Park New Road","Hebden Bridge, United Kingdom",,,,"01422 410 810",micro,
"W J King","3-5 Jubilee Estate, Foundry Lane","Horsham, United Kingdom",,,,"01403 272102",,
"W. J. King & Co","3-5 Jubilee Estate Foundry Lane","Horsham, United Kingdom",,,,,,http://www.kingfamilybrewers.co.uk
"W.H. Brakspear & Sons PLC","The Bull Courtyard Bell Street","Henley On Thames, United Kingdom",,,,"+441491 570200",,http://www.brakspear.co.uk
"Wadworth & Co Ltd - Northgate Brewery","Northgate Brewery","Devizes, United Kingdom",,,,,,http://www.wadworth.co.uk
"Wantsum Brewery","St Nicholas At Wade","Birchington, United Kingdom",,,,"+44 1227 910135",micro,
"Warwickshire Beer Co Ltd","The Brewery Queen Street","Warwickshire, United Kingdom",,,,"+44 1926 450747",micro,
"Watling Street Beer","Hilfield Ln Radlett","Radlett, United Kingdom",,,,"+44 7713 841936",,
"Wayfarer Inns Ltd","16 Little London Chichester","West Sussex, United Kingdom",,,,"01243 528 733",,
"Wayland's Six Penny Brewery","Holwell Farm Cranborne","Wimborne, United Kingdom",,,,"+44 1725 762006",,
"WC Brewery","3 Micklegate Mickle Trafford","Cheshire, United Kingdom",,,,,,
"Weal Ales Brewery Ltd","Unit 6 Newpark Business Park London Road","Newcastle, United Kingdom",,,,"+44 1782 565635",micro,
"Weatheroak Brewery","33 Redditch Road","Studley, United Kingdom",,,,"+44 1527 854433",micro,
"Weatheroak Hill Brewery Ltd","Weatheroak Hill","Alvechurch, United Kingdom",,,,"+44 1564 823386",micro,
"Weetwood Ales Limited","The Brewery Common Lane","Kelsall, United Kingdom",,,,"+44 1829 752377",micro,
"Weetwood Ales LTD","Weetwood Grange, Weetwood","Torporley, Cheshire, United Kingdom",,,,"(182) 975-2377",,
"Weird Beard Brew Co","Unit 5 & 9 Boston Business Park Trumpers Way","London, United Kingdom",,,,"+44 20 3645 2711",,
"Welbeck Abbey Brewery","Brewery Yard Welbeck","Worksop, United Kingdom",,,,"+44 1909 512539",,
"Wellington Pub Co","Criterion Asset Management 4th Floor Millbank Tower","London, United Kingdom",,,,02078029240,,
"Weltons North Downs Brewery LTD","Rangers Lodge Oakhill Road","Horsham, United Kingdom",,,,"+44 1403 242901",,http://www.weltonsbeer.co.uk
"Wensleydale Brewery","Manor Farm Bellerby","Leyburn, United Kingdom",,,,"+44 1969 622463",micro,
"Wentworth Brewery","The Power House, The Gun Park","Wentworth, Rotherham, United Kingdom",,,,"(122) 674-7070",,
"Wessex Brewery","Rye Hill Farm","Warminster, United Kingdom",,,,"+44 1985 844532",,
"Wessex Taverns Ltd","6 Telford Ct Morpeth","Northumberland, United Kingdom",,,,"01670 503 333",,
"West Berkshire Brewery Co","Chapel Lane","Frilsham, United Kingdom",,,,"+44 1635 201366",,
"West Brewing Co","Templeton Building Glasgow Green","Glasgow, United Kingdom",,,,"+44 141 550 0135",brewpub,https://www.westbeer.com/
"West Coast Brands","2 Abbey Terrace","Llandeilo, United Kingdom",,,,441558824455,micro,
"Westerham Brewery Co.","Pootings Road Crockham Hill","Edenbridge, United Kingdom",,,,"+44 1732 864427",micro,http://www.westerhambrewery.co.uk
"Wharfdale Brewery Ltd","The Back Barn 16 Church Street","Ilkley, United Kingdom",,,,"01943 609587",,http://www.follyale.com
"Wharfe Bank Brewery","Unit 4 Pool Business Park Pool Road","Pool, United Kingdom",,,,"+44 113 284 2392",micro,
"Wharfedale Brewery","The Back Barn 16 Church Street","Ilkley, United Kingdom",,,,"01943 609587",micro,
"Whim Ales","Whim Farm Hartington","Buxton, United Kingdom",,,,"+44 1298 84991",,
"Whim Ales","Whim Farm, Hartington","Buxton, Derbys, United Kingdom",,,,129-884-991,,
"Whippet Brewing Co.","Unit 9 Brown Place","Leeds, United Kingdom",,,,"+44 7928 101783",micro,
"Whitbread And Co. PLC","Whitbread Court Houghton Hall Business Park","Dunstable, United Kingdom",,,,"01582 424200",large,
"Whitbread Pub Partnerships","First Floor 120 Holborn","London, United Kingdom",,,,"44 (0) 1582 391166",,
"Whitby Brewing Company","East Cliff","Whitby, United Kingdom",,,,"+44 1947 228871",micro,
"White BrewingCo","1066 Country Brewery Pebsham Farm Business Park","East Sussex, United Kingdom",,,,,,
"White Horse Brewery","3 Ware Road White Horse Business Park","Faringdon, United Kingdom",,,,"+44 1367 718700",,
"White Park Brewery","Bourne End Road","Cranfield, United Kingdom",,,,"+44 1223 911357",,
"White Rock Brewery","Unit 6 Dysons Complex Southside","St Sampsons, United Kingdom",,,," 01481 249920",micro,http://whiterockbrewery.gg/
"White Rose Brewery","119 Chapel Road Burncross","Sheffield, United Kingdom",,,,"0114 297 6150",micro,
"White Rose Inns PLC","1-3 Newton Rd Mumbles","Swansea, United Kingdom",,,,"+44 1792 368426",,
"Whitstable Brewery","Little Telpits Farm Woodcock Lane","Grafty Green, United Kingdom",,,,"+44 1622 851007",,http://www.whitstablebrewery.info
"Whittington's Brewery","Three Choirs Vineyard Castle Tump","Newent, United Kingdom",,,,"01531 890223",,
"Wibblers Brewery Ltd","Goldsands Road","Southminster, United Kingdom",,,," +44 1621 772044",micro,
"Wickwar Brewing Co","The Old Brewery Station Road","Wickwar, United Kingdom",,,,"+44 1454 292000",,
"Wild Card Brewery","Shernhall St Walthamstow","London, United Kingdom",,,,"+44 20 8935 5560",,
"Wild Horse Brewing Company Ltd","Unit 4, Cae Bach Builder Street","Llandudno, United Kingdom",,,,,micro,
"Wild Weather Ales Ltd","15 Benyon Rd","Reading, United Kingdom",,,,"+44 118 970 1837",micro,
"Williams Bros. Brewing Co.","New Alloa Brewery Kelliebank","Alloa, United Kingdom",,,,"44 01259 725 511",,
"Wilson Potter Brewery Ltd","Unit E2 Hanson Close","Middleton, United Kingdom",,,,"0161 654 6446",micro,
"Wincle Beer Company","Tolls Farm Barn Dane Bridge","Wincle, United Kingdom",,,,"+44 1260 227777",micro,
"Windsor and Eton Brewery","1 Vansittart Estate","Windsor, United Kingdom",,,,"+44 1753 854075",,
"Windswept Brewing Co","Unit B 13 Coulardbank Ind Est","Lossiemouth, United Kingdom",,,,"+44 1343 814310",micro,http://windsweptbrewing.com/
"Windy Brewery","Volunteer Inn New Road","Michael, United Kingdom",,,,,micro,
"Wiper And True","2-8 York St St Werburghs","Bristol, United Kingdom",,,,"+44 117 941 2501",micro,http://www.wiperandtrue.com
"Wishbone Brewery","2A Worth Bridge Industrial Estate Chesham Street","Keighley, United Kingdom",,,,"+44 1535 600412",micro,
"Wizard Inns Ltd","Marston's House Brewery Road","Wolverhampton, United Kingdom",,,,"0 1902 711811",,
"WM Evan Evans","1 Rhosmaen St Llandeilo","Wales, United Kingdom",,,,,,
"Wobbly Brewing Company Limited","22c Beech Business Park Tillington Road","Hereford, United Kingdom",,,,"+44 1432 355496",micro,
"Wold Top Brewery","Hunmanby Grange","Driffield, United Kingdom",,,,"+44 1723 892222",micro,
"Wolf Brewery","Norwich Rd Besthorpe","Norfolk, United Kingdom",,,,"01953 457 775",,http://www.wolfbrewery.com/contact_us.html
"Wolf Brewery LTD","Norwich Rd","Besthorpe, United Kingdom",,,,"+44 1953 457775",,
"Wood Brewery LTD",Wistanstow,"Craven Arms, United Kingdom",,,,"+44 1588 672523",,
"Wooden Hand Brewery","Unit 3 Grampound Road Industrial Estate","Cornwall, United Kingdom",,,,"44 1726 884 596",,
"Woodfordes Norfolk Ales",Woodbastwick,"Norwich, United Kingdom",,,,"+44 1603 720353",,
"Woodlands Brewing Co","Unit 3 Meadow Lane Farm","Nantwich, United Kingdom",,,,,micro,
"WooHa Brewing Company","Unit 8A1 Balmakeith Business Park","Nairn, United Kingdom",,,,"+44 1667 459929",micro,http://www.woohabrewing.com
"Worcestershire Brewing Co Ltd","Station Road","Hartlebury, United Kingdom",,,,"+44 1299 253617",,
"Worfield Brewing Co","c/o 3 Main St Worfield","Bridgnorth, Shropshire, United Kingdom",,,,"(174) 676-9606",,
"Worldham Brewery","Worldham Hill East Worldham","Hampshire, United Kingdom",,,,"(014) 208-3383",,
"Worsthorne Brewing Co Ltd","Unit 4, Oxford Mill Holgate Sreet","Burnley, United Kingdom",,,,"07815 708289",micro,
"Wriggle Valley Brewery","Unit 4 The Sidings Station Road","Stalbridge, United Kingdom",,,,"01963 363343",micro,
"Wychwood Brewery LTD","The Eagle Malting Eagle Industrial Estate, The Crofts","Witney, Oxon, United Kingdom",,,,"(199) 370-2574",,
"Wye Valley Brewery","Stoke Lacy","Herefordshire, United Kingdom",,,,"44 01885 490 505",,
"Wye Valley Brewery LTD","Stoke Lacy","Bromyard, United Kingdom",,,,"+44 1885 490505",,
"Wylam Brewery","Palace of Arts Exhibition Park","Newcastle Upon Tyne, United Kingdom",,,,"0191 650 0651",micro,
"XT Brewing Co","Notley Farm Long Crendon",", United Kingdom",,,,"+44 1844 208310",,
"Yates Brewery",Westnewton,"Wigton, United Kingdom",,,,"+44 16973 21081",,
"Yates Brewery","Yates Brewery Westnewton","Cumbria, United Kingdom",,,,"01697 321 081",,
"Yates' Brewery","Unit 4 Langbridge Business Centre The Shute","Newchurch, United Kingdom",,,,"+44 1983 867878",,
"Yeovil Ales Ltd","Bofors Park Artillery Road","Yeovil, United Kingdom",,,,"+44 1935 414888",micro,
"York Brewery","12 Toft Green","York, United Kingdom",,,,"+44 1904 621162",,
"York Brewery Co LTD","12 Toft Green","Micklegate, York, United Kingdom",,,,"(190) 462-1162",micro,
"Yorkshire Heart Brewery","Yorkshire Heart Vineyard and Brewery Pool Lane","York, United Kingdom",,,,"01423 330 716",micro,
"Young & Cos Brewery plc","The Ram Brewery","Wandsworth, London, United Kingdom",,,,"+44 20 8875 7000",,http://www.youngs.co.uk
"Zelgrain Ltd","The Springfield 146 Springfield Rd","Brighton, United Kingdom",,,,"01273 550 000",,
"Zerodegrees - Blackheath","29/31 Montpelier Vale","Blackheath, United Kingdom",,,,011442088525619,brewpub,http://www.zerodegrees.co.uk
"Zerodegrees Bristol","29-31 Montpelier Vale Lewisham","London, United Kingdom",,,,"+44 20 8852 5619",,
"Zerodegrees Reading","9 Bridge Street Reading","Berkshire, United Kingdom",,,,,,
