name,address1,address2,city,state,zip,phone,type,url
"5 Mile Brewing",,,"Wildwood ",NJ,08260,"(609) 780-4475",planning,http://5milebrewing.com
"7 Mile Brewery","3156 Route 9 S",,"Rio Grande",NJ,08242-1036,"(609) 365-7777",micro,http://www.7milebrew.com
"902 Brewing Co",,,Hoboken,NJ,07030-5106,,contract,http://www.902brewing.com
"Angry Erik Brewing","10 Millpond Dr Unit 8",,Lafayette,NJ,07848-3825,"(862) 432-9003",micro,http://www.angryerik.com
"Anheuser-Busch Inc â€“ Newark","200 US Highway 1",,Newark,NJ,07114-2298,"(973) 645-7700",large,http://www.anheuser-busch.com
"Artisan's Brewery & Italian Grill","1171 Hooper Ave",,"Toms River",NJ,08753-8305,"(732) 244-7566",brewpub,http://www.artisanstomsriver.com
"Asbury Park Brewery","810 Sewall Avenue",,"Asbury Park",NJ,07712-6527,"(732) 455-5571",micro,http://www.asburyparkbrewery.com
"Atco Brewing Company","302 White Horse Pike",,Atco,NJ,08004-2209,"(856) 292-9041",micro,http://www.atcobrewingcompany.com
"Backward Flag Brewing","699 Challenger Way",,"Forked River",NJ,08731-5917,"(609) 994-0422",micro,http://www.backwardflagbrewing.com
"Beach Haus Brewery","801 Main St",,Belmar,NJ,07719-2705,"(732) 202-7782",micro,http://www.beachhausbeer.com
"Belford Brewing Company","84 Leonardville Rd",,Belford,NJ,07718-1144,"(732) 769-7168",micro,http://www.belfordbrewing.com
"Berlin Brewing Company","220 S White Horse Pike",,Berlin,NJ,08009-1902,,micro,http://www.berlinbrewco.com
Birravino,"183 Riverside Ave",,"Red Bank",NJ,07701-1015,"(732) 842-5990",brewpub,http://www.birravino.com
"Boak Brewing Co","262 Wanaque Ave Rear",,"Pompton Lakes",NJ,07442-2116,"(973) 570-6381",contract,http://www.boaks.com
"Bolero Snort Brewery","65 Railroad Ave",,"Ridgefield Park",NJ,07660-1321,"(201) 819-3527",contract,http://www.bolerosnort.com
"Bonesaw Brewing Co.",,,Glassboro,NJ,08028,"(856) 816-3709",planning,http://www.bonesawbrewing.com
"Brewery in Planning - Bloomingdale",,,Bloomingdale,NJ,07403,,planning,
"Brewery In Planning - Bogota",,,Allendale,NJ,07401-2233,,planning,http://www.gentlegiantbrewing.com
"Brewery in Planning - Boonton",,,Rockaway,NJ,07866,,planning,
"Brewery In Planning - Broomfield",,"Cherry Hill, NJ",,,,,planning,
"Brewery in Planning - egg harbor township",,,"egg harbor township",NJ,08234,,planning,
"Brewery in Planning - Hamilton",,,"Hamilton ",NJ,08619,,planning,
"Brewery in Planning - Jersey City",,,"Jersey City",NJ,07305,"(201) 626-6660",planning,
"Brewery in Planning - Logan Twp",,,"Logan Twp",NJ,08085,"(856) 294-9545",planning,
"Brewery in Planning - Morristown",,,Morristown,NJ,07960,"(908) 670-0196",planning,
"Brewery in Planning - Mt Laurel",,,"Mt Laurel",NJ,08054,"(856) 906-7245",planning,
"Brewery in Planning - Ocean",,,Ocean,NJ,07712,"(732) 966-8021",planning,
"Brewery In Planning - Pitman NJ",,"Pitman, NJ",,,,,planning,
"Brewery In Planning - Princeton",,"Princeton, NJ",,,,,planning,
"Brewery In Planning - Sewell","1003 N Evergreen Ave",,Woodbury,NJ,08096,,,http://www.eightandsandbeer.com
"Brewery in Planning - South Orange",,,"South Orange",NJ,07079,,planning,
"Brewery in Planning - Stockton",,,Stockton,NJ,08559,"(267) 864-6627",planning,http://www.oddbirdbrewing.com
"Brewery in Planning - Upper Montclair",,,"Upper Montclair",NJ,07043,,planning,
"Brewery in Planning - Upper Saddle River",,,"Upper Saddle River",NJ,07458,,planning,
"Brewery in Planning - waretown",,,waretown,NJ,08758,,planning,
"Brewery In Planning - Whitehouse Station",,"Whitehouse Station, NJ",,,,,planning,
"Brewery In Planning- Chandler, AZ.",,,Kingston,NJ,85286,,planning,
"Brewery In Planning- Nutley, NJ.",,"Nutley, NJ",,,,,planning,
"Brix City Brewing","4 Alsan Way",,"Little Ferry",NJ,07643-1001,"(201) 440-0865",micro,
"Brotherton Brewing Company","1120 Route 206",,Shamong,NJ,08088,,micro,
"Buck Hill Brewery and Restaurant","45 Route 94",,Blairstown,NJ,07825,"(908) 854-5300",brewpub,http://www.buckhillbrewery.com
"Cape May Brewing Company","409 Breakwater Road",,"Cape May",NJ,08204-4537,"(609) 849-9933",micro,http://www.capemaybrewery.com
"Carton Brewing Co","6 E Washington Ave",,"Atlantic Highlands",NJ,07716-1230,"(732) 654-2337",micro,
"Castle Point Brewery","200 Garden Street C/o Red Bridge Homes",,Hoboken,NJ,07030,"(918) 532-8525",contract,http://www.castlepointbrewery.com
CBRE,,,"Saddle Brook",NJ,07663-5834,"(201) 712-5647",planning,http://www.cbre.com
CKBC,,,Williamstown,NJ,08094,"(856) 906-6481",planning,
"Climax Brewing Co","112 Valley Rd",,"Roselle Park",NJ,07204-1402,"(908) 620-9585",micro,http://www.climaxbrewing.com
"Conclave Brewing","15 Minneakoning Rd Ste 202",,Flemington,NJ,08822-5750,"(908) 392-0893",micro,http://www.conclavebrewing.com
"Cricket Hill Brewing Co. Inc.","24 Kulick Rd",,Fairfield,NJ,07004,"(973) 276-9415",micro,http://www.crickethillbrewery.com
"Cypress Brewing Company","30 Nixon Lane, Unit E",,Edison,NJ,08837,"(732) 243-9565",micro,http://www.cypressbrewing.com
"Czig Meister Brewing Co.","106 Valentine St",,Hackettstown,NJ,07840-2156,"(201) 874-7342",micro,http://www.czigmeisterbrewing.com
"Dark City Brewing Company","801 Second Ave",,"Asbury Park",NJ,07712-5944,"(732) 455-3792",micro,http://www.darkcitybrewing.com
"Death of the Fox",,,Clarksboro,NJ,08020,,planning,http://www.deathofthefoxbrewing.com
"Demented Brewing Co.","600 Lincoln Blvd",,Middlesex,NJ,08846-2443,,micro,http://www.dementedbrewing.com
"Departed Soles Brewing","150 Bay Street, Commercial Side",,"Jersey City",NJ,07302-2900,"(201) 479-8578",micro,http://www.departedsoles.com
"Devil's Creek Brewery","19 Bellwether Court",,Medford,NJ,08055-8701,"(856) 425-2520",micro,http://www.devilscreekbrewery.com
"Double Nickel Brewing Company","1585 NJ-73",,"Pennsauken Township",NJ,08110,"(856) 356-2499",micro,http://www.doublenickelbrewingcompany.com
"East Fifth Brewing Company",,,Manasquan,NJ,08736-1814,,planning,
"Eclipse Brewing",,,Merchantville,NJ,08109,"(609) 320-3979",planning,
"Egan & Sons","118 Walnut St",,Montclair,NJ,07042-3852,"(973) 744-1413",contract,http://www.eganandsons.com
"Eight & Sand Beer Co",,,Woodbury,NJ,08096-3557,,planning,http://www.eightandsandbeer.com
"Flounder Brewing Co","1 Ilene Ct Ste 8 Ste 16",,Hillsborough,NJ,08844-1916,"(908) 396-6166",micro,http://www.flounderbrewing.com
"Fluyds Brewing",,,Lumberton,NJ,08048,"(609) 923-9120",planning,
"Flying Fish Brewing Co","900 Kennedy Blvd",,Somerdale,NJ,08083-1031,"(856) 489-0061",regional,http://www.flyingfish.com
"Forgotten Boardwalk Brewing","1940 Olney Ave Ste 100",,"Cherry Hill",NJ,08003,"(856) 437-0709",micro,http://www.forgottenboardwalk.com
"Garden State Beer Company","247 E. White Horse Pike",,Galloway,NJ,08205-9563,"(609) 232-2337",micro,http://www.gardenstatebeerco.com
"Gaslight Brewery and Restaurant","15 S Orange Ave",,"South Orange",NJ,07079-1716,"(973) 762-7077",brewpub,http://www.gaslightbrewery.com
"Glasstown Brewing","10 Peterson St",,Millville,NJ,08332-4818,"(856) 327-7770",micro,http://www.glasstownbrewingco.com
"Gypsy Soul Brewing Company",,,"RED BANK",NJ,07701,"(732) 275-5964",planning,http://www.gypsysoulbeer.com
"Harvest Moon Brewery/Cafe","392 George St",,"New Brunswick",NJ,08901-2018,,brewpub,
"Hidden Sands Brewing Company LLC",,,"Egg Harbor Township",NJ,08234-3807,"(609) 910-2009",planning,http://www.hiddensands.com
"Hidden Sands Brewing Company, LLC",,,"Egg Harbor Township",NJ,08234-3807,"(609) 910-2009",planning,http://www.hiddensands.com
"High Point Brewing Co, Inc.","22 Park Pl",,Butler,NJ,07405-1377,"(973) 838-7400",micro,http://www.ramsteinbeer.com
"HistoryQuest, LLC",,,Morristown,NJ,07960,"(973) 206-1594",planning,
"Human Village Brewing Co",,,Pitman,NJ,08071-2232,"(856) 556-0639",planning,http://www.humanvillagebrewingco.com
"Icarus Brewing Company",,,Lakewood,NJ,08701,,planning,http://www.icarusbrewing.com
"Iron Hill Brewery & Restaurant - Maple Shade","124 E Kings Hwy Ste 301",,"Maple Shade",NJ,08052-5405,"(856) 273-0300",brewpub,
"Iron Hill Brewery & Restaurant - Voorhees","13107 Town Center Blvd",,Voorhees,NJ,08043-2668,"(302) 888-2739",brewpub,http://www.ironhillbrewery.com
"J.J. Bitting Brewing Co.","33 Main St",,Woodbridge,NJ,07095-3335,"(732) 634-2929",brewpub,http://www.njbrewpubs.com
"Jersey Cyclone Brewing Company",,,"New Brunswick",NJ,08901-2014,,planning,http://www.jerseycyclone.com
"Jersey Girl Brewing Company","426 Sand Shore Rd",,Hackettstown,NJ,07840-5535,"(908) 591-4186",micro,http://www.jerseygirlbrewing.com
"Jughandle Brewing Co","4057 Asbury Ave",,"Tinton Falls",NJ,07753-7700,"(732) 898-2220",micro,http://www.jughandlebrewing.com
"Kane Brewing","1750 Bloomsbury Ave",,Ocean,NJ,07712-3941,"(732) 922-8600",micro,http://www.kanebrewing.com
"Kelly Green Brewing Co.","154-156 S. Broadway Ave",,Pitman,NJ,08071-2232,"(856) 270-2876",micro,http://www.kellygreenbrewing.com
"Knight's Brewing",,,Hamilton,NJ,08620,,planning,http://www.knights-brewing.com
"Krogh's Brewing, LLC","3 Cristina Ct",,Chester,NJ,07930,"(973) 241-5391",brewpub,http://www.kroghs.com
"Krogh's Restaurant and Brewpub","23 White Deer Plz",,Sparta,NJ,07871-1823,"(973) 729-8428",brewpub,http://www.kroghs.com
"Little Dog Brewing Co.","141 Steiner Avenue",,"Neptune City",NJ,07753-6500,"(732) 361-3555",brewpub,http://www.littledogbrewing.com
"Long Valley Pub and Brewery","PO Box 401",,"Long Valley",NJ,07853-0401,"(908) 876-1122",brewpub,http://www.longvalleypubandbrewery.com
"Lower Forge Brewery","14 South Main Street",,Medford,NJ,08055-2414,"(609) 506-5137",micro,http://www.lowerforge.com
"Ludlam Island Brewery","9 Stoney Court, Unit 3",,"Ocean View",NJ,08230-1041,"(609) 263-6969",micro,http://ludlamisland.com
"Lunacy Brewing Company","214 West Davis Rd",,Magnolia,NJ,08049-1215,,micro,http://www.lunacybrewingcompany.com
"Magnify Brewing Company","1275 Bloomfield Ave Building 7, Unit 40C",,Fairfield,NJ,07004,,micro,http://www.magnifybrewing.com
"Man Skirt Brewing","144 Main St.",,Hackettstown,NJ,07840-1930,,micro,http://www.manskirtbrewing.com
ManaFirkin,,,Manahawkin,NJ,08050,"(732) 547-4532",planning,
"New Jersey Beer Co","4201 Tonnelle Ave",,"North Bergen",NJ,07047-2430,,micro,http://www.njbeerco.com
"Oak & Iron Brewing Co",,,Sparta,NJ,07871-4003,,planning,
"Pinelands Brewing","140 7th Ave Unit 15",,"Little Egg Harbor Twp",NJ,08087-4259,"(609) 296-6169",micro,http://www.pinelandsbrewing.com
"Pizzeria Uno Chicago Grill and Brewery","61 US Highway 1",,Metuchen,NJ,08840-2931,"(732) 548-7979",brewpub,http://www.pizzeriauno.com
Q-Brewing,,,"Long Branch",NJ,07740,"(973) 573-2634",planning,
"Raritan Bay Brewing, LLC",,,Hazlet,NJ,07730,,planning,
"Rinn Duin Brewing","1540 Route 37 W",,"Toms River",NJ,08755-5055,"(732) 569-3261",micro,http://rinnduinbrewing.com
"River Horse Brewing Company","2 Graphics Dr",,Ewing,NJ,08628-1546,"(609) 883-0890",micro,http://www.riverhorse.com
"Saint William Brewery",,,Hillsborough,NJ,08844-4654,"(908) 229-4099",planning,http://www.saintwilliambrewery.blogspot.com
"Screamin Hill Brewery","83 Emleys Hill Rd",,"Cream Ridge",NJ,08514-1617,"(609) 401-2025",micro,http://www.screaminhill.com
"Ship Inn, The","PO Box 497 61 Bridge St/",,Milford,NJ,08848-0497,"(908) 995-0188",brewpub,http://www.britishbrewpub.com
"Slack Tide Brewing Co","1072 Route 83, Unit 3",,Clermont,NJ,08210-1200,"(609) 478-2343",micro,http://www.slacktidebrewingco.com
"Spellbound Brewing","10 Lippincott Ln Unit 12",,"Mount Holly",NJ,08060-1603,,micro,http://spellboundbrewing.com
"The Alementary","58 Voorhis Ln",,Hackensack,NJ,07601,"(201) 968-1290",micro,http://www.alementary.com
"The Hearthstone Grill & Brewery","306 Gatzmer Avenue",,Jamesburg,NJ,08831-1178,"(732) 605-1800",brewpub,
"The Referend Bier Blendery",,,Pennington,NJ,08534,"(609) 474-0443",planning,http://www.thereferend.com
"The Whitechapel Projects",,,"Long Branch",NJ,07740-6703,"(732) 721-0890",planning,http://www.whitechapelprojects
"Third State Brewing","352 High St. PO Box 87",,Burlington,NJ,08016-4412,"(609) 387-1620",micro,http://www.thirdstatebrewing.com
"Three 3's Brewery","50 13th Street",,Hammonton,NJ,08037,"(856) 524-0848",micro,
"Tomfoolery Brewing","334 Washington St N. Unit 24",,Hammonton,NJ,08037-1538,"(609) 878-0108",micro,http://www.tomfoolerybrewing.com
"Tonewood Brewing","215 W. Clinton Ave",,Oaklyn,NJ,08107,,micro,http://www.tonewoodbrewing.com
"Trap Rock Restaurant And Brewery","279 Springfield Ave",,"Berkeley Heights",NJ,07922-1214,"(908) 665-1755",brewpub,
"Triumph Brewing Co of Princeton","138 Nassau St Ste A",,Princeton,NJ,08542-7011,"(609) 924-7855",brewpub,http://www.triumphbrew.com
"Tuckahoe Brewing Co","3092 English Creek Ave",,"Egg Harbor Township",NJ,08234-5245,"(609) 827-5375",micro,http://www.tuckahoebrewing.com
"Tun Tavern Brewery and Restaurant","2 Convention Blvd Ste 3",,"Atlantic City",NJ,08401-4137,"(609) 347-7800",brewpub,http://www.tuntavern.com
"Twin Elephant Brewing Company","13 Watchung Ave",,Chatham,NJ,07928,"(973) 507-9862",micro,http://www.twinelephantbrewing.com
"Two Ton Brewing","2453 Brunswick Ave Bldg BD",,Linden,NJ,07036-2448,,micro,http://www.twotonbrewing.com
"Village Idiot Brewing Company","42 High St.",,"Mount Holly",NJ,08060-1702,"(609) 975-9270",micro,http://www.villageidiotbrewing.com
"Wet Ticket Brewing",,,Rahway,NJ,07065-4013,,planning,
"Zed's Beer/Bado Brewing",,,Marlton,NJ,08053,,planning,http://www.drinkzeds.com
