name,address1,address2,city,state,zip,phone,type,url
"10K Brewing","2005 2nd Ave",,Anoka,MN,55303-2243,"(763) 392-4753",micro,http://10kbrew.com
"12welve Eyes Brewing","141 E 4th St, Ste LL2",,"Saint Paul",MN,55101-1627,,micro,http://www.12welveeyes.com
"56 Brewing","3055 Columbia avenue NE #122",,Minneapolis,MN,55418-1789,"(612) 404-0056",micro,http://www.56brewing.com
"612 Brew","945 Broadway St NE",,Minneapolis,MN,55413-1471,"(612) 964-8939",micro,http://www.612brew.com
"Able Seedhouse and Brewery","1121 Quincy St NE",,Minneapolis,MN,55413-2773,"(612) 405-4642",micro,http://www.ablebeer.com
"Alloy Brewing Company","2700 Coon Rapids Blvd NW",,"Coon Rapids",MN,55433-3955,"(763) 423-0939",micro,http://www.alloybrewingcompany.com
"Amazen Brewery",,,"Saint Paul",MN,55119-4613,,planning,
"Arbeiter Brewing Company",,,Minneapolis,MN,55418,,planning,http://www.arbeiterbrewing.com
"August Schell Brewing Co","PO Box 128",,"New Ulm",MN,56073-0128,"(507) 354-5528",regional,http://www.schellsbrewery.com
"Back Channel Brewing","4787 Shoreline Dr",,"Spring Park",MN,55384-9713,,micro,http://www.backchannelbrewing@gmail.com
"Bad Habit Brewing Company","15 E Minnesota St Ste 108",,"Saint Joseph",MN,56374-4691,"(320) 402-4442",micro,http://www.badhabitbeer.com
"Bad Weather Brewing LLC","414 7th St W",,"Saint Paul",MN,55102-2733,"(651) 207-6627",micro,http://www.badweatherbrewery.com
"Badger Hill Brewing","4571 Valley Industrial Blvd S Ste 500",,Shakopee,MN,55379-1846,"(612) 388-4479",micro,http://www.badgerhillbrewing.com
"Bald Man Brewing Company","2020 Silver Bell Road, Unit 25",,Eagan,MN,55122,"(651) 600-3164",micro,http://www.baldmanbrewing.com
"Bang Brewing","2320 Capp Rd",,"Saint Paul",MN,55114-1251,"(651) 243-2264",micro,http://www.bangbrewing.com
"Bank Brewing Co","200 N Main St",,Hendricks,MN,56136-9501,"(612) 309-2513",micro,http://www.bankbrewing.com
"Bard's Tale Beer Co","5125 W 59th St",,Edina,MN,55436-2612,"(612) 961-2275",proprietor,http://www.bardsbeer.com
"Barley Johns Brewpub","781 Old Highway 8 SW",,"New Brighton",MN,55112-7735,"(651) 636-4670",brewpub,http://www.barleyjohns.com
"Bauhaus Brew Labs","1315 Tyler Street NE",,Minneapolis,MN,55413,"(612) 297-6911",micro,http://bauhausbrewlabs.com
"Beaver Island Brewing Company","216 6th Ave S",,"Saint Cloud",MN,56301-4304,"(320) 253-5907",micro,http://www.beaverislandbrew.com
"Bemidji Brewing Company","211 America Ave NW",,Bemidji,MN,56601-3176,"(218) 444-7011",micro,http://www.bemidjibeer.com
"Bengal Brewing, LLC.",,,"Spring Lake Park",MN,55432-2802,"(612) 518-8146",planning,http://www.bengalbrewingllc.com
"Bent Brewstillery","1744 Terrace Dr",,Roseville,MN,55113-1315,"(844) 879-2368",micro,http://www.bentbrewstillery.com
"Bent Paddle Brewing Co","1912 W Michigan St",,Duluth,MN,55806-2135,"(218) 279-2722",micro,http://www.bentpaddlebrewing.com
"Big Axe Brewing Company","25435 Main St",,Nisswa,MN,56468-5001,"(218) 961-2337",brewpub,http://www.bigaxebrewing.com
"Big Wood Brewery","2222 4th St Ste REAR",,"White Bear Lake",MN,55110-3045,"(612) 360-2986",micro,http://www.bigwoodbrewery.com
"Birch's On the Lake","1310 W Wayzata Blvd",,"Long Lake",MN,55356-8314,"(952) 473-7373",brewpub,http://www.birchsrestaurantandbar.com
"Blacklist Artisan Ales","120 E Superior St.",,Duluth,MN,55805-1911,"(218) 310-9368",micro,http://www.blacklistbeer.com
"Boathouse Brewery LLC","47 E Sheridan St",,Ely,MN,55731-1289,"(218) 365-4301",brewpub,http://www.frontiernet.net
"Boom Island Brewing Company","2014 Washington Ave N",,Minneapolis,MN,55411-2220,"(612) 227-9635",micro,http://www.boomislandbrewing.com
"Borealis Fermentery","PO Box 130",,"Knife River",MN,55609-0130,"(218) 343-2190",micro,http://www.borealisfermentery.com
"Brau Brothers Brewing Co","1010 E Southview Dr",,Marshall,MN,56258-2401,"(507) 747-2337",micro,http://www.braubeer.com
"Brewery In Planning - Albert Lea",,,"Albert Lea",MN,56007-4211,,planning,
"Brewery in Planning - Andover",,,Andover,MN,55304-3016,"(763) 639-0539",planning,http://www.torgbrewery.com
"Brewery In Planning - Mankato MN",,,Mankato,MN,56001-2135,"(507) 420-3544",planning,
"Brewery In Planning - Medina",,,"Long Lake",MN,55356-9675,,planning,
"Brewery in Planning - Minneapolis",,,Minneapolis,MN,55415,,planning,
"Brewery In Planning - Minneapolis MN",,,Minneapolis,MN,55434-2832,,planning,
"Brewery in Planning - Rochester",,,Rochester,MN,55902-1924,,planning,
"Brewery In Planning - Saint Paul MN",,,"Saint Paul",MN,55129-4281,,planning,
"Brewery In Planning - Shakopee",,,Shakopee,MN,55379-4554,,planning,
"Brewery in Planning - St. Cloud",,,"Saint Cloud",MN,56303,"(320) 980-3100",planning,http://www.pantownbrewing.com
"Broken Clock Brewing Cooperative","3134 California St. NE Ste. 122",,Minneapolis,MN,55418,"(970) 333-0135",micro,http://www.brokenclockbrew.com
"Burning Brothers Brewing","1750 Thomas Ave Ste 2",,"Saint Paul",MN,55104-2918,"(651) 444-8882",micro,http://burnbrosbrew.com
"Canal Park Brewery","300 Canal Park Dr",,Duluth,MN,55802-2316,"(218) 464-4790",brewpub,http://www.canalparkbrewery.com
"Carmody Irish Pub & Brewing","308 E Superior St",,Duluth,MN,55802-2120,"(218) 740-4747",brewpub,http://www.carmodyirishpub.com
"Castle Danger Brewery","17 7th St",,"Two Harbors",MN,55616-1672,"(218) 834-5800",micro,http://www.castledangerbrewery.com
"Cedar Grove Brewery and Tap, LLC",,,"Saint Paul",MN,55122,,planning,
"Clockwerks Brewing","25 4th st north",,Minneapolis,MN,55401-1719,"(612) 339-9375",brewpub,http://www.clockwerksbrewing.com
"Copper Trail Brewing Co.","410 30th Ave E, STE 103",,Alexandria,MN,56308,"(320) 219-6688",micro,http://www.coppertrailbrewing.com
"Cosmos Brewing","9480 140th St N",,Hugo,MN,55038-9411,"(651) 269-9199",micro,http://www.cosmosbrewing.com
"Cuyuna Brewing Company","1 E Main St",,Crosby,MN,56441-1613,"(218) 866-0914",micro,http://cuyunabrewing.com
"Dangerous Man Brewing Co","1300 2nd St NE",,Minneapolis,MN,55413-1132,"(612) 377-4164",micro,http://www.dangerousmanbrewing.com
"Day Block Brewing Company","1105 Washington Ave S",,Minneapolis,MN,55415-1225,"(612) 617-7793",brewpub,http://dayblockbrewing.com
"Disgruntled Brewing","735 2nd St NE",,Perham,MN,56573,,contract,
"Dual Citizen Brewing Co.",,,"Saint Paul",MN,55114,"(651) 260-9325",planning,http://www.dualcitizenbrewing.com
"Dubh Linn Brew Pub","109 west superior street",,duluth,MN,55802,"(218) 727-1559",brewpub,http://dubhlinnpub.com
"Eastlake Craft Brewery","920 E Lake St Ste 123",,Minneapolis,MN,55407-4129,"(612) 217-4668",micro,http://www.eastlakemgm.com
"Enki Brewing","1495 Stieger Lake Ln",,Victoria,MN,55386-9537,"(952) 300-8408",micro,http://www.enkibrewing.com
"Excelsior Brewing Co","421 3rd St Ste 3",,Excelsior,MN,55331-2008,"(612) 817-4853",micro,http://www.excelsiorbrew.com
"Fair State Brewing Cooperative","2506A Central Ave NE",,Minneapolis,MN,55418,"(612) 444-3209",micro,http://www.fairstate.coop
"Fair State Brewing Cooperative - St. Paul","2075 Ellis Ave.",,"Saint Paul",MN,55114-1308,"(612) 444-3209",micro,
"Fell Run Brewing Company",,,"Taylors Falls",MN,55084,"(612) 961-1790",planning,http://www.fellrunbrewing.com
Finnegans,,,Minneapolis,MN,55404,,contract,http://www.finnegans.org
"Fitgers Brewhouse","600 E Superior St",,Duluth,MN,55802-2222,"(218) 722-4825",brewpub,
"Flat Earth Brewing Co","688 Minnehaha Ave E",,"Saint Paul",MN,55106-4462,"(651) 698-1945",micro,http://www.flatearthbrewing.com
"Forager Brewing Company","1005 6th St NW",,Rochester,MN,55901-2741,"(507) 258-7490",brewpub,http://www.foragerbrewery.com
"Founding Fathers Brewing Company","1607 W Wayzata Blvd",,"Long Lake",MN,55356-9300,"(952) 767-6403",contract,http://www.foundingfathersbrewingco.com
"Foxhole Brewhouse","4922 15th St NW",,Willmar,MN,56201-8707,"(320) 441-2071",micro,http://www.foxholebrewhouse.com
"F-Town Brewing Company","22 4th St NE",,Faribault,MN,55021-5207,"(507) 331-7677",micro,http://www.ftownbeer.com
"Fulton Beer","414 N 6th Ave",,Minneapolis,MN,55401-1214,"(612) 876-0904",regional,http://www.fultonbeer.com
"Game On Brewing","1999 Shepard Rd",,"Saint Paul",MN,55116-3210,,contract,
"Giesenbr√§u Bier Co LLC",,,"New Prague",MN,56071,"(720) 224-8277",planning,http://www.giesenbraubierco.com
"Gluek Beer",,"Minnapolis, MN",,,,,contract,
"Goat Ridge Brewing","17 Central Ave W",,"New London",MN,56273-,"(320) 354-2383",micro,http://www.goatridgebrewing.com
"Good Ass Beer",,"Forest Lake, MN",,,,,contract,
"Grand Rounds Brewing Company","4 3rd St SW",,Rochester,MN,55902-3019,"(507) 292-1628",brewpub,http://www.grandroundsbrewpub.com
"Granite City Food & Brewery (#1)","3945 2nd St S",,"Saint Cloud",MN,56301-3792,"(320) 203-9000",brewpub,http://www.gcfb.net
"Granite City Food & Brewery (#10)","3330 Pilot Knob Rd",,Eagan,MN,55121-2055,"(651) 452-4600",brewpub,http://www.gcfb.net
"Granite City Food & Brewery (#15)","5500 Excelsior Blvd",,"St Louis Park",MN,55416-2935,"(952) 746-9900",brewpub,http://www.gcfb.net
"Granite City Food & Brewery (#17)","851 Rosedale Ctr Ste 1005",,"Saint Paul",MN,55113-,"(651) 209-3500",brewpub,http://www.gcfb.net
"Granite City Food & Brewery (#8)","11909 Main St",,"Maple Grove",MN,55369-7098,"(763) 416-0010",brewpub,http://www.gcfb.net
"Great Waters Brewing Company","426 Saint Peter St",,"Saint Paul",MN,55102-1105,"(651) 224-2739",brewpub,http://www.greatwatersbc.com
"Gull Dam Brewing, Inc.","23836 Smiley Road",,Nisswa,MN,56468-2432,"(218) 963-2739",micro,http://www.gulldambrewing.com
"Gun Flint Tavern","111 W Wisconsin St",,"Grand Marais",MN,55604-,"(218) 387-2836",brewpub,http://www.gunflinttavern.com
"HammerHeart Brewing Company","7785 Lake Dr",,"Lino Lakes",MN,55014-1109,"(651) 348-2654",micro,http://www.hammerheartbrewing.com
"Hayes Public House","112 1st St S",,Buffalo,MN,55313-1402,"(763) 746-6389",micro,http://www.hayespublichouse.com
"HeadFlyer Brewing","861 E Hennepin Ave",,Minneapolis,MN,55414-1201,"(612) 567-6345",micro,http://www.headflyerbrewing.com
"Herkimer Pub and Brewery","2922 Lyndale Ave S",,Minneapolis,MN,55408-2110,"(612) 821-0101",brewpub,http://www.theherkimer.com
"Hoops Brewing","325 S Lake Ave #110",,Duluth,MN,55802-2305,"(218) 606-1666",micro,http://www.hoopsbrewing.com
"Imminent Brewing","519 Division St S Unit 2",,Northfield,MN,55057-2021,"(507) 649-9148",micro,http://www.imminentbrewing.com
"Inbound Brewco","701 N 5th St",,Minneapolis,MN,55401-1124,,micro,http://www.inboundbrew.co
"Indeed Brewing Co","711 15th Ave NE Ste 102",,Minneapolis,MN,55413-3103,"(612) 843-5090",micro,http://www.indeedbrewing.com
"Insight Brewing Company","2821 E Hennepin Ave",,Minneapolis,MN,55413-2916,,micro,
"Jack Pine Brewery","15593 Edgewood Dr",,Baxter,MN,56425,"(218) 270-8072",micro,http://www.jackpinebrewery.com
"Joseph Wolf Brewing Company","85 7th Pl E Ste 200",,"Saint Paul",MN,55101-2143,"(612) 751-9422",contract,http://www.josephwolfbrewing.com
"Junkyard Brewing Company","1416 1st Ave N",,Moorhead,MN,56560-2208,"(701) 261-8403",micro,http://www.junkyardbeer.com
"Kinney Creek Brewery","1016 7th St NW",,Rochester,MN,55901-2668,,micro,
"Lake Monster Brewing","550 Vandalia st",,"St. Paul",MN,55114,,micro,
"Lake Superior Brewing Co","2711 W Superior St Ste 204",,Duluth,MN,55806-1893,"(218) 723-4000",micro,http://www.lakesuperiorbrewing.com
"Lakes & Legends Brewing Company","1368 Lasalle Ave",,Minneapolis,MN,55403-2316,"(612) 999-6020",micro,http://www.lakesandlegends.com
"Lakeside Tavern","200 W Lake Dr",,"Detroit Lakes",MN,56501-3917,"(218) 847-1891",brewpub,http://www.lakesidetavern.com
"Lakeville Brewing Co., LLC","8790 Upper 208th Street W",,Lakeville,MN,55044,"(952) 469-2739",brewpub,http://www.lakevillebrewing.com
"Lazy Loon Brewing Co","8750 County Road 43",,Chaska,MN,55318-9358,"(952) 484-3417",micro,http://www.lazyloonbrewing.com
"Lift Bridge Brewery","1900 Tower Dr W",,Stillwater,MN,55082-7515,"(888) 430-2337",micro,http://www.liftbridgebrewery.com
"Lift Bridge Brewing Co.","219 Red River Ave N",,"Cold Spring",MN,56320,,micro,
"Looney Bin Brewing",,,"Saint Paul",MN,55101-1712,"(651) 214-5448",planning,http://www.looneybinbrewing.com
"LTD Brewery","725 Mainstreet",,Hopkins,MN,55343-7624,"(952) 938-2415",micro,http://www.ltdbrewing.com
"LTS Brewing Company","2001 32nd Ave NW",,Rochester,MN,55901,"(507) 226-8280",micro,http://www.ltsbrewing.com
"LuPine Brewing Co","248 River St N",,Delano,MN,55328-8264,"(763) 333-1033",micro,http://www.lupinebrewing.com
"Lupulin Brewing","570 Humboldt Dr Ste 107",,"Big Lake",MN,55309-4868,"(763) 263-9549",micro,http://www.lupulinbrewing.com
"LynLake Brewery","2934 Lyndale Ave S",,Minneapolis,MN,55408-2110,"(612) 224-9682",micro,http://www.lynlakebrewery.com
"Mankato Brewery","1119 Center Street",,"North Mankato",MN,56003-2108,"(507) 386-2337",micro,http://www.mankatobrewery.com
"Mantorville Brewing Co LLC","PO Box 16545",,"Saint Paul",MN,55116-0545,"(651) 387-0708",contract,http://www.mantorvillebeer.com
"Maple Island Brewing","225 Main St N",,Stillwater,MN,55082-5021,"(651) 430-0044",micro,http://www.mapleislandbrewing.com
"Minneapolis Town Hall Brewery","1430 Washington Ave S",,Minneapolis,MN,55454-1038,"(612) 339-8696",brewpub,http://www.townhallbrewery.com
"Modist Brewing Company","505 N 3rd St",,Minneapolis,MN,55401-1201,"(612) 454-0258",micro,http://www.modistbrewing.com
"Montgomery Brewing Company","306 2nd St NW",,Montgomery,MN,56069-1011,,micro,http://www.montgomerybrewing.com
"Moose Lake Brewing Company","244 Lakeshore Drive",,"Moose Lake",MN,55767,,micro,http://www.mooselakebrewing.com
"Northbound Smokehouse Brewpub","2716 E 38th St",,Minneapolis,MN,55406-3004,"(612) 208-1450",brewpub,http://www.smokehousebrewpub.com
"NorthGate Brewing","783 Harding St NE",,Minneapolis,MN,55413-2813,"(612) 234-1056",micro,http://www.northgatebrew.com
"Nutmeg Brewhouse","1905 County Road 42 W",,Burnsville,MN,55306-6211,"(952) 892-1438",brewpub,http://www.nutmegbrewhouse.com
"Olvalde Farm & Brewing","16557 County Road 25",,Rollingstone,MN,55969-4046,"(507) 205-4696",micro,http://www.olvalde.com
"OMNI Brewing Company","9462 Deerwood Ln N",,"Maple Grove",MN,55369-3629,"(715) 222-9832",micro,
"Oswald Brewing Company","110 S Main St",,"Blue Earth",MN,56013-2007,"(507) 526-3101",brewpub,http://www.oswaldbrewingcompany.com
"Pigs Eye Brewing Co, LLC","10107 Bridgewater Pkwy",,Woodbury,MN,55129-8587,"(651) 734-1661",proprietor,http://www.pigseyebeer.com
"Pryes Brewing Company","1401 West River Rd N",,MINNEAPOLIS,MN,55411,"(612) 787-7937",proprietor,http://www.pryesbrewing.com
"Rahr Technical Center LLC","800 1st Av W",,Shakopee,MN,55379-1148,"(952) 496-7082",micro,http://paron@rahr.com
"Reads Landing Brewing Co","70555 202nd Ave",,"Reads Landing",MN,55968-6842,"(651) 560-4777",brewpub,http://www.rlbrewingco.com
"Red Wing Brewing Company","1411 Old West Main St",,"Red Wing",MN,55066-2162,"(651) 327-2200",brewpub,http://www.redwingbrewing.com
"Revelation Ale Works","146 S Atlantic Ave",,Hallock,MN,56728,"(218) 510-0001",micro,http://www.revales.com
"Rock Bottom Brewery - Minneapolis","800 Lasalle Ave",,Minneapolis,MN,55402-2006,"(612) 332-2739",brewpub,http://www.rockbottom.com
"Roets Jordan Brewery Co.","230 Broadway St S.",,Jordan,MN,55352,,brewpub,
"Roma Brewery","310 Stillwater Road",,Willernie,MN,55090,"(651) 653-4733",brewpub,http://www.roman-market.com
"Roundhouse Brewery","1551 Northern Pacific Rd",,Brainerd,MN,56401-2687,"(218) 454-2739",micro,http://roundhousebrew.com
"Saint Croix Beer Co. DBA Saint Croix Brewing Co.","PO Box 16545",,"Saint Paul",MN,55116-0545,"(651) 387-0708",contract,http://www.stcroixbeer.com
"Schram Vineyards Winery & Brewery","8785 Airport Rd",,Waconia,MN,55387-9634,"(952) 442-5105",micro,http://schramvineyards.com
"Shakopee Brewhall","124 First Ave E",,Shakopee,MN,55379,,micro,http://www.shakopeebrewhall.com
"Sisyphus Brewing","712 Ontario Ave W",,Minneapolis,MN,55403-1138,"(612) 444-8674",micro,http://www.sisyphusbrewing.com
"Sociable Cider Werks","1500 Fillmore St NE",,Minneapolis,MN,55413-1657,"(612) 758-0105",micro,http://www.sociablecider.com
"South Fork Brewing Company","221 2nd Street North",,Delano,MN,55328,"(612) 405-2337",micro,http://www.southforkbrewingcompany.com
"Spilled Grain Brewhouse","300 Elm St E",,Annandale,MN,55302,"(320) 274-1129",micro,http://www.spilledgrainbrewhouse.com
"Spiral Brewery",,,Hastings,MN,55033-2476,,planning,
"Steel Toe Brewing","4848 W 35th St",,"St Louis Park",MN,55416-2610,"(952) 955-9965",micro,http://www.steeltoebrewing.com
"Summit Brewing Co","910 Montreal Cir",,"Saint Paul",MN,55102-4246,"(651) 265-7800",regional,http://www.summitbrewing.com
"Surly Brewing Company","4811 Dusharme Dr",,"Brooklyn Ctr",MN,55429-3940,"(763) 535-3330",regional,http://www.surlybrewing.com
"Surly Brewing Company","520 Malcolm Ave SE",,Minneapolis,MN,55414-3312,"(763) 535-3330",regional,
"Take 16 Brewing Company","509 E Main St",,Luverne,MN,56156-1905,"(855) 582-5316",micro,http://www.take16beer.com
"Talking Waters Brewing Co.","205 S 1st St",,Montevideo,MN,56265-1412,"(320) 321-1444",micro,http://www.talkingwatersbrewing.com
"Tanzenwald Brewing Company","401 Plum St S",,Northfield,MN,55057-1732,"(507) 366-2337",brewpub,http://www.tanzenwald.com
"Tavern Brewery","200 W Lake Dr",,"Detroit Lakes",MN,56501-3917,,brewpub,
"The Freehouse","701 Washington Ave N Ste 101",,Minneapolis,MN,55401-2820,"(612) 339-7011",brewpub,http://www.freehousempls.com
"Third Street Brewhouse","219 Red River Ave N",,"Cold Spring",MN,56320-1624,"(320) 685-3690",regional,http://www.thirdstreetbrewhouse.com
"Three Twenty Brewing Co.","135 5TH ST SE",,"Pine City",MN,55063-1428,"(612) 819-2892",micro,http://www.threetwentybrewing.com
"Tin Whiskers Brewing","125 9th St E Unit 127",,"Saint Paul",MN,55101-2308,,micro,
"Twelve Down Brewing",,"St. Louis Park, MN",,,,"(612) 590-4704",planning,
"U4ic Brewing, Inc.","23436 Union Trail, Suite 1",,"Belle Plaine",MN,56011,"(952) 873-3303",micro,http://www.u4icbrewing.com
"Under Pressure Brewing Company",,,Plymouth,MN,55442-3211,"(612) 850-9779",planning,http://www.underpressurebrewing.com
"Union 32 Crafthouse","2864 Highway 55 suite 200",,Eagan,MN,55121,"(952) 807-9777",micro,http://www.union32crafthouse.com
"Union Pizza & Brewing Co","1145 N Union Ave",,"Fergus Falls",MN,56537-,"(218) 998-8888",brewpub,http://www.unionpizzaandbrewing.com
"Unmapped Brewing Co.","14625 Excelsior Blvd",,Minnetonka,MN,55345-6605,"(952) 500-9622",micro,http://www.unmappedbrewing.com
"Urban Growler Brewing Co","2325 Endicott St",,"Saint Paul",MN,55114-1223,"(763) 234-2980",brewpub,http://www.urbangrowlerbrewing.com
"Urban Lodge Brewery","415 N Benton Dr",,"Sauk Rapids",MN,56379-1534,"(320) 281-5454",brewpub,http://urbanlodgebrewery.com
"Ursa Minor Brewing",,,Duluth,MN,55805-1132,"(218) 269-0537",planning,
"Utepils Brewing Co","225 Thomas Ave N #700",,Minneapolis,MN,55405-1040,"(612) 249-7800",micro,http://www.utepilsbrewing.com
"Vine Park Brewing Co","1254 7th St W",,"Saint Paul",MN,55102-4123,"(651) 228-1355",micro,http://www.vinepark.com
"Voyageur Brewing Co","PO Box 1244",,"Grand Marais",MN,55604-1244,,brewpub,
"Wabasha Brewing Company","429 Wabasha St S",,"Saint Paul",MN,55107-1126,"(612) 719-6059",micro,http://www.wabashabrewing.com
"Waconia Brewing Company","255 W Main St",,Waconia,MN,55387-1025,"(612) 888-2739",micro,http://www.waconiabrewing.com
"Wayzata Brew Works","294 Grove Ln E",,Wayzata,MN,55391-1680,"(952) 737-1023",micro,http://www.wayzatabrewworks.com/
"Wicked Wort Brewing Company","4165 W Broadway Ave",,Minneapolis,MN,55422,"(763) 302-9849",micro,http://www.wickedwortbrewingco.com
"Wild Mind Artisan Ales","6031 Pillsbury Ave S",,Minneapolis,MN,55419,"(612) 345-4514",micro,http://www.wildmindales.com
"Wooden Hill Brewing Company",,,Edina,MN,55439,,planning,http://www.woodenhillbrewing.com
