name,address1,address2,city,state,zip,phone,type,url
"10K Brewing","2005 2nd Ave",,Anoka,MN,55303-2243,"(763) 392-4753",micro,http://10kbrew.com
"12welve Eyes Brewing","141 E 4th St Ste LL2",,"Saint Paul",MN,55101-1639,"(651) 493-8106",micro,http://www.12welveeyes.com
"14 Lakes Brewery",,,Crosslake,MN,56442,"(218) 692-4129",micro,
"22 Northmen Brewing Company",,,Alexandria,MN,56308-9857,"(320) 846-5443",planning,http://www.22northmen.com
"3rd Act Craft Brewery","4120 Radio Dr",,Woodbury,MN,55129,"(651) 714-1524",brewpub,http://www.3rdactbrew.com
"56 Brewing","3055 Columbia Ave NE Ste 102",,Minneapolis,MN,55418-1860,"(612) 404-0056",micro,http://www.56brewing.com
"612 Brew","945 Broadway St NE",,Minneapolis,MN,55413-1471,"(612) 964-8939",micro,http://www.612brew.com
"Able Seedhouse and Brewery","1121 Quincy St NE",,Minneapolis,MN,55413-2773,"(612) 405-4642",micro,http://www.ablebeer.com
"Alloy Brewing Company","2700 Coon Rapids Blvd NW",,"Coon Rapids",MN,55433-3955,"(763) 423-0939",micro,http://www.alloybrewingcompany.com
"Angry Inch Brewing","20841 Holyoke Ave",,Lakeville,MN,55044,,micro,http://www.angryinchbrewing.com
"Arbeiter Brewing Company",,,Minneapolis,MN,55406,,planning,http://www.arbeiterbrewing.com
"Ashby Brewing Company","109 Main St",,Ashby,MN,56309-4687,"(888) 635-0291",micro,http://www.abcbrewing.net
"August Schell Brewing Co","Schells Park/1860 Schell Rd",,"New Ulm",MN,56073,"(507) 354-5528",regional,http://www.schellsbrewery.com
"Back Channel Brewing","4787 Shoreline Dr",,"Spring Park",MN,55384-9713,,micro,http://www.backchannelbrewing@gmail.com
"Bad Habit Brewing Company","15 E Minnesota St Ste 108",,"Saint Joseph",MN,56374-4691,"(320) 402-4442",micro,http://www.badhabitbeer.com
"Bad Weather Brewing LLC","414 7th St W",,"Saint Paul",MN,55102-2733,"(651) 207-6627",micro,http://www.badweatherbrewery.com
"Badger Hill Brewing","4571 Valley Industrial Blvd S Ste 500",,Shakopee,MN,55379-1846,"(612) 388-4479",micro,http://www.badgerhillbrewing.com
"Bald Man Brewing Company","2020 Silver Bell Rd Ste 25",,Eagan,MN,55122-1030,"(651) 508-0007",micro,http://www.baldmanbrewing.com
"Bang Brewing","2320 Capp Rd",,"Saint Paul",MN,55114-1251,"(651) 243-2264",micro,http://www.bangbrewing.com
"Bank Brewing Co","218 N Main St",,Hendricks,MN,56136-9501,"(612) 309-2513",micro,http://www.bankbrewing.com
"Barley Johns Brewpub","781 Old Highway 8 SW",,"New Brighton",MN,55112-7735,"(651) 636-4670",brewpub,http://www.barleyjohns.com
"Barrel Theory Beer Company","248 7th St E",,"Saint Paul",MN,55101-2349,"(651) 600-3422",micro,http://www.barreltheory.com
"Bauhaus Brew Labs","1315 Tyler St NE",,Minneapolis,MN,55413-1530,"(612) 297-6911",micro,http://bauhausbrewlabs.com
"Beaver Island Brewing Company","216 6th Ave S",,"Saint Cloud",MN,56301-4304,"(320) 253-5907",micro,http://www.beaverislandbrew.com
"Bemidji Brewing Company","211 America Ave NW",,Bemidji,MN,56601-3176,"(218) 444-7011",brewpub,http://www.bemidjibeer.com
"Bent Brewstillery","1744 Terrace Dr",,Roseville,MN,55113-1315,"(844) 879-2368",micro,http://www.bentbrewstillery.com
"Bent Paddle Brewing Co","1912 W Michigan St",,Duluth,MN,55806-2135,"(218) 279-2722",regional,http://www.bentpaddlebrewing.com
"Big Axe Brewing Company","25435 Main St",,Nisswa,MN,56468-5001,"(218) 961-2337",brewpub,http://www.bigaxebrewing.com
"Big Wood Brewery","2222 4th St Ste REAR",,"White Bear Lake",MN,55110-3045,"(612) 360-2986",micro,http://www.bigwoodbrewery.com
"Birch's Lowertown Tap Room & Barrel House","289 E 5th St Suite 3",,"Saint Paul",MN,55101,"(651) 432-4611",brewpub,
"Birch's On the Lake","1310 Wayzata Blvd",,"Long Lake",MN,55356-8314,"(952) 473-7373",brewpub,http://www.birchsrestaurantandbar.com
"Blacklist Artisan Ales","120 E Superior St",,Duluth,MN,55802-2116,"(218) 310-9368",micro,http://www.blacklistbeer.com
"BlackStack Brewing","755 Prior Ave N Suite 110",,"Saint Paul",MN,55104-1064,"(612) 369-2932",micro,http://www.blackstackbrewing.com
"Blue Wolf Brewing Company LLC","8515 Edinburgh Centre Dr.",,"Brooklyn Park",MN,55443,"(763) 390-6700",micro,http://www.bluewolfbrew.com
"Boathouse Brewery LLC","47 E Sheridan St",,Ely,MN,55731-1289,"(218) 365-4301",brewpub,http://www.frontiernet.net
"Boathouse Brothers Brewing Co","16211 Main Avenue SE",,"Prior Lake",MN,55372-2332,"(952) 250-6143",micro,
"Bobbing Bobber Brewing Company","900 Hwy 15 S",,Hutchinson,MN,55350,"(320) 455-4999",micro,http://bobbingbobber.com
"Bold I'Land Brewing Company",,,"Albert Lea",MN,56007-4211,,planning,
"Boom Island Brewing Company","2014 Washington Ave North #300",,Minneapolis,MN,55411-2220,"(612) 227-9635",micro,http://www.boomislandbrewing.com
"BoomTown Brewery and Woodfire Grill","531 E Howard St",,Hibbing,MN,55746-1713,"(218) 440-1710",brewpub,http://www.boomtownwoodfire.com
"Brass Foundry Brewing Co.","8441 Wayzata Blvd Ste 290",,Minneapolis,MN,55426,"(763) 350-4153",micro,http://www.brassfoundrybrewing.com
"Brau Brothers Brewing Co","1010 E Southview Dr",,Marshall,MN,56258-2401,"(507) 747-2337",micro,http://www.braubeer.com
"Brew D'Etat",,,Burnsville,MN,55337,"(413) 207-2355",micro,
"Brewery In Planning - Medina",,"Long Lake, MN",,,,"(952) 334-9937",planning,
"Brewery In Planning - Saint Paul MN",,,"Saint Paul",MN,55129-6922,"(612) 889-4130",planning,http://www.rockettailbrewing.com
"Brewery In Planning - Shakopee",,,Shakopee,MN,55379-4554,,planning,
"Broken Clock Brewing Cooperative","3134 California St NE Ste 122",,Minneapolis,MN,55418-1789,"(970) 333-0135",micro,http://www.brokenclockbrew.com
"Burning Brothers Brewing","1750 Thomas Ave Ste 2",,"Saint Paul",MN,55104-2918,"(651) 444-8882",micro,http://burnbrosbrew.com
"Canal Park Brewery","300 Canal Park Dr",,Duluth,MN,55802-2316,"(218) 464-4790",brewpub,http://www.canalparkbrewery.com
"Carmody Irish Pub & Brewing","308 E Superior St",,Duluth,MN,55802-2120,"(218) 740-4747",brewpub,http://www.carmodyirishpub.com
"Castle Danger Brewery","17 7th St",,"Two Harbors",MN,55616-1672,"(218) 834-5800",micro,http://www.castledangerbrewery.com
"Chapel Brewing","15 Hester St E",,Dundas,MN,55019-3942,"(507) 664-1300",micro,http://www.chapelbrewing.com
"Clockwerks Brewing","25 N 4th St",,Minneapolis,MN,55401-1719,"(612) 339-9375",brewpub,http://www.clockwerksbrewing.com
"Clutch Brewing Company","928 W 7th Street 201",,"Saint Paul",MN,55102,"(763) 744-8736",micro,http://www.clutchbeer.com
"Copper Trail Brewing Co.","410 30th Ave E Ste 103",,Alexandria,MN,56308-4770,"(320) 219-6688",micro,http://www.coppertrailbrewing.com
"Cuyuna Brewing Company","1 E Main St",,Crosby,MN,56441-1613,"(218) 866-0914",micro,http://cuyunabrewing.com
"Dangerous Man Brewing Co","1300 2nd St NE",,Minneapolis,MN,55413-1132,"(612) 236-4087",micro,http://www.dangerousmanbrewing.com
"Day Block Brewing Company","1105 Washington Ave S",,Minneapolis,MN,55415-1225,"(612) 617-7793",brewpub,http://dayblockbrewing.com
"Disgruntled Brewing","735 2nd St NE",,Perham,MN,56573-1828,"(218) 346-4677",micro,http://www.disgruntledbeer.com
"Dual Citizen Brewing Co.","725 Raymond Ave",,"Saint Paul",MN,55114-1709,"(651) 330-4750",micro,http://www.dualcitizenbrewing.com
"Dubh Linn Brew Pub","109 W Superior St",,Duluth,MN,55802-3026,"(218) 727-1559",brewpub,http://dubhlinnpub.com
"Eastlake Craft Brewery","920 E Lake St Ste 123",,Minneapolis,MN,55407-4129,"(612) 217-4668",micro,http://www.eastlakemgm.com
"Enki Brewing","1495 Steiger Lake Ln",,Victoria,MN,55386-9537,"(952) 300-8408",micro,http://www.enkibrewing.com
"Excelsior Brewing Co","421 3rd St Ste 3",,Excelsior,MN,55331-2008,"(952) 474-7837",micro,http://www.excelsiorbrew.com
"Fair State Brewing Cooperative","2506A Central Ave NE",,Minneapolis,MN,55418,"(612) 444-3209",micro,http://www.fairstate.coop
"Fair State Brewing Cooperative - St. Paul","2075 Ellis Ave",,"Saint Paul",MN,55114-1308,"(612) 444-3209",micro,
"FINNEGANS Brew Co","817 5th Ave So",,Minneapolis,MN,55404,"(207) 239-4937",micro,http://www.finnegans.com
"Fitger's Brewhouse","600 E Superior St Brewery",,Duluth,MN,55802-2222,"(218) 722-4825",brewpub,http://www.fitgersbrewhouse.com
"Flat Earth Brewing Co","688 Minnehaha Ave E",,"Saint Paul",MN,55106-4462,"(651) 698-1945",micro,http://www.flatearthbrewing.com
"Forager Brewing Company","1005 6th St NW",,Rochester,MN,55901-2741,"(507) 258-7490",brewpub,http://www.foragerbrewery.com
"Founding Fathers Brewing Company","1844 W Wayzata Blvd",,"Long Lake",MN,55356-9491,"(952) 767-6403",contract,http://www.foundingfathersbrewingco.com
"Foxhole Brewhouse","313 4th St SW",,Willmar,MN,56201,"(320) 441-2071",micro,http://www.foxholebrewhouse.com
"Fulton Beer","2540 2nd St NE",,Minneapolis,MN,55418-3412,"(612) 876-0904",regional,http://www.fultonbeer.com
"Fulton Beer","414 6th Ave N",,Minneapolis,MN,55401-1214,"(612) 876-0904",micro,
"Game On Brewing","1999 Shepard Rd",,"Saint Paul",MN,55116-3210,,contract,
"Garphish Brewing Company","165 Main St",,Bethel,MN,55005,"(763) 452-0270",micro,http://www.garphish.com
"Giesenbr√§u Bier Co LLC","1306 1st St NE",,"New Prague",MN,56071-2451,"(952) 758-4226",micro,http://www.giesenbraubierco.com
"Gluek Beer",,"Minnapolis, MN",,,,,contract,
"Goat Ridge Brewing","17 Central Ave W",,"New London",MN,56273-,"(320) 354-2383",micro,http://www.goatridgebrewing.com
"Good Ass Beer",,"Forest Lake, MN",,,,,contract,
"Grand Rounds Brewing Company","4 3rd St SW",,Rochester,MN,55902-3019,"(507) 292-1628",brewpub,http://www.grandroundsbrewing.com
"Granite City Food & Brewery (#1)","3945 2nd St S",,"Saint Cloud",MN,56301-3792,"(320) 203-9000",brewpub,http://www.gcfb.net
"Granite City Food & Brewery (#10)","3330 Pilot Knob Rd",,Eagan,MN,55121-2055,"(651) 452-4600",brewpub,http://www.gcfb.net
"Granite City Food & Brewery (#17)","1595 Highway 36 W Ste 1005",,"Saint Paul",MN,55113-1092,"(651) 209-3500",brewpub,http://www.gcfb.net
"Granite City Food & Brewery (#8)","11909 Main St",,"Maple Grove",MN,55369-7098,"(763) 416-0010",brewpub,http://www.gcfb.net
"Granite City Food (Corp)","3600 American Blvd W Ste 400",,Minneapolis,MN,55431-4503,"(515) 836-4060",micro,http://www.gcfb.com
"Gravity Storm Brewery Cooperative","309 Main St N",,Austin,MN,55912,,micro,http://www.gravitystormbrewery.com
"Gun Flint Tavern","111 W Wisconsin St",,"Grand Marais",MN,55604-,"(218) 387-2836",brewpub,http://www.gunflinttavern.com
"Half Pint Brewing Company","40099 150th St.",,Waseca,MN,56093,"(507) 461-9235",micro,
"HammerHeart Brewing Company","7785 Lake Dr",,"Lino Lakes",MN,55014-1109,"(651) 348-2654",micro,http://www.hammerheartbrewing.com
"Hayes Public House","112 1st St S",,Buffalo,MN,55313-1402,"(763) 746-6389",micro,http://www.hayespublichouse.com
"Head Bros. Brew",,,"Coon Rapids",MN,55433,"(763) 381-2678",planning,
"HeadFlyer Brewing","861 E Hennepin Ave",,Minneapolis,MN,55414-1201,"(612) 567-6345",micro,http://www.headflyerbrewing.com
"Herkimer Pub and Brewery","2922 Lyndale Ave S",,Minneapolis,MN,55408-2110,"(612) 821-0101",brewpub,http://www.theherkimer.com
"Hoops Brewing","325 S Lake Ave # 110",,Duluth,MN,55802-2305,"(218) 606-1666",micro,http://www.hoopsbrewing.com
"Hunyuck Brew Co.","4603 Heather Way N",,Oakdale,MN,55128-2276,"(952) 999-1258",contract,http://www.hunyuckbrewco.com
"Imminent Brewing","519 Division St S Unit 2",,Northfield,MN,55057-2021,"(507) 646-2327",micro,http://www.imminentbrewing.com
"Inbound Brewco","701 N 5th St",,Minneapolis,MN,55401-1124,"(612) 615-8243",micro,http://www.inboundbrew.co
"Indeed Brewing Co","711 15th Ave NE Ste 102",,Minneapolis,MN,55413-3103,"(612) 843-5090",regional,http://www.indeedbrewing.com
"Insight Brewing Company","2821 E Hennepin Ave",,Minneapolis,MN,55413-2916,,micro,
"Invictus Brewing Co","2025 105th Ave NE",,Blaine,MN,55449,"(612) 723-4090",micro,http://www.invictusbrewingco.com
"Island City Brewing Company","65 E Front St",,Winona,MN,55987-3494,"(507) 474-2739",micro,http://www.islandcitybrew.com
"Jack Pine Brewery","15593 Edgewood Dr",,Baxter,MN,56401-6952,"(218) 270-8072",micro,http://www.jackpinebrewery.com
"Joseph Wolf Brewing Company","85 7th Pl E Ste 200",,"Saint Paul",MN,55101-2143,"(612) 751-9422",contract,http://www.josephwolfbrewing.com
"Junkyard Brewing Company","1416 1st Ave N",,Moorhead,MN,56560-2208,"(701) 261-8403",micro,http://www.junkyardbeer.com
"Karst Brewing LLC","315 1st St",,Fountain,MN,55935-8816,"(612) 747-6367",micro,http://www.karstbrewed.com
"Kinney Creek Brewery","1016 7th St NW",,Rochester,MN,55901-2668,,micro,
"Klockow Brewing Company","36 SE 10th St",,"Grand Rapids",MN,55744-3947,"(218) 999-7229",micro,http://www.klockowbrewing.com
"La Dona Cerveceria","241 Fremont Ave N Unit B",,Minneapolis,MN,55405,,micro,http://www.dameladona.com
"Lake Monster Brewing","550 Vandalia St Ste 160",,"Saint Paul",MN,55114-1997,"(612) 964-6288",micro,
"Lake Superior Brewing Co","2711 W Superior St Ste 204",,Duluth,MN,55806-1893,"(218) 723-4000",micro,http://www.lakesuperiorbrewing.com
"Lakes & Legends Brewing Company","1368 Lasalle Ave",,Minneapolis,MN,55403-2316,"(612) 999-6020",micro,http://www.lakesandlegends.com
"Lakeville Brewing Co., LLC","8790 Upper 208th Street W",,Lakeville,MN,55044,"(952) 469-2739",brewpub,http://www.lakevillebrewing.com
"Lift Bridge Brewery","1900 Tower Dr W",,Stillwater,MN,55082-7515,"(888) 430-2337",micro,http://www.liftbridgebrewery.com
"Little Thistle Brewing","2031 14th St NW",,Rochester,MN,55901,"(507) 226-8014",micro,http://www.littlethistlebeer.com
"LocAle Brewing Company","228 Poplar St",,Mankato,MN,56001,,micro,http://www.localebrew.com
"Loony's Brew","3481 Main St",,Ranier,MN,56668,"(218) 540-1001",brewpub,http://www.loonysbrew.com
"Lost Sanity Brewing Co.","12 West Main Street",,Madelia,MN,56062,"(507) 642-2337",micro,https://www.lostsanitybrewing.com/
"LTD Brewery","725 Mainstreet",,Hopkins,MN,55343-7624,"(952) 938-2415",micro,http://www.ltdbrewing.com
"LTS Brewing Company","2001 32nd Ave NW",,Rochester,MN,55901-8321,"(507) 226-8280",micro,http://www.ltsbrewing.com
"LuPine Brewing Co","248 River St N",,Delano,MN,55328-8264,"(763) 333-1033",micro,http://www.lupinebrewing.com
"Lupulin Brewing","570 Humboldt Dr Ste 107",,"Big Lake",MN,55309-4868,"(763) 263-9549",micro,http://www.lupulinbrewing.com
"LynLake Brewery","2934 Lyndale Ave S",,Minneapolis,MN,55408-2110,"(612) 224-9682",micro,http://www.lynlakebrewery.com
"Mankato Brewery","1119 Center St",,"North Mankato",MN,56003-2108,"(507) 386-2337",micro,http://www.mankatobrewery.com
"Maple Island Brewing","225 Main St N",,Stillwater,MN,55082-5021,"(651) 430-0044",micro,http://www.mapleislandbrewing.com
"Minneapolis Town Hall Brewery","1430 Washington Ave S",,Minneapolis,MN,55454-1038,"(612) 339-8696",brewpub,http://www.townhallbrewery.com
"Minn'Ohana Brewing",,,Mankato,MN,56001-2135,"(507) 420-3544",planning,
"Modist Brewing Company","505 N 3rd St",,Minneapolis,MN,55401-1201,"(763) 354-4627",micro,http://www.modistbrewing.com
"Montgomery Brewing Company","306 2nd St NW",,Montgomery,MN,56069-1011,,micro,http://www.montgomerybrewing.com
"Moose Lake Brewing Company","244 Lakeshore Drive",,"Moose Lake",MN,55767,"(218) 485-4585",micro,http://www.mooselakebrewing.com
"Northbound Smokehouse Brewpub","2716 E 38th St",,Minneapolis,MN,55406-3004,"(612) 208-1450",brewpub,http://www.smokehousebrewpub.com
"Nutmeg Brewhouse","1905 County Road 42 W",,Burnsville,MN,55306-6211,"(952) 892-1438",brewpub,http://www.nutmegbrewhouse.com
"Olvalde Farm & Brewing","16557 County Road 25",,Rollingstone,MN,55969-4046,"(507) 205-4969",micro,http://www.olvalde.com
"OMNI Brewing Company","9462 Deerwood Ln N",,"Maple Grove",MN,55369-3629,"(715) 222-9832",micro,
"One Minneapolis Brewing Company, LLC",,,Minneapolis,MN,55401,"(612) 581-7436",planning,
"Oswald Brewing Company","110 S Main St",,"Blue Earth",MN,56013-2007,"(507) 526-3101",brewpub,http://www.oswaldbrewingcompany.com
"Outstate Brewing Company LLC",,,"Fergus Falls",MN,56537,"(970) 217-5026",planning,http://www.oustatebrew.co
"Pantown Brewing Company","408 37th Ave N",,"Saint Cloud",MN,56303-3047,"(320) 428-0007",micro,http://www.pantownbrewing.com
"Pig Ate My Pizza Brew Pub",,"Robbinsdale,, MN 55422",,,,"(612) 423-0627",planning,https://www.pigatemypizza.com/
"Pigs Eye Pub","10107 Bridgewater Pkwy",,Woodbury,MN,55129-8587,"(651) 734-1661",proprietor,http://www.pigseyebeer.com
"Portage Brewing Company","107 South 5th St","Walker, MN |",,,,"(218) 547-6217",micro,http://www.portagebeer.com
"Pryes Brewing Company","1401 W River Rd # N",,Minneapolis,MN,55411-3436,"(612) 787-7937",micro,http://www.pryesbrewing.com
"Rahr Technical Center LLC","800 1st Ave W",,Shakopee,MN,55379-1148,"(952) 465-0585",micro,
"Reads Landing Brewing Co","70555 202nd Ave",,"Reads Landing",MN,55968-6842,"(651) 560-4777",brewpub,http://www.rlbrewingco.com
"Red Wing Brewing Company","1411 Old West Main St",,"Red Wing",MN,55066-2162,"(651) 327-2200",brewpub,http://www.redwingbrewing.com
"Revelation Ale Works","146 S Atlantic Ave",,Hallock,MN,56728,"(218) 510-0001",micro,http://www.revales.com
"Rock Bottom Brewery - Minneapolis","800 Lasalle Ave",,Minneapolis,MN,55402-2006,"(612) 332-2739",brewpub,http://www.rockbottom.com
"Roets Jordan Brewery Co.","230 Broadway St S",,Jordan,MN,55352-1508,"(952) 406-8865",brewpub,http://www.roetsjordanbrewery.com
"Roma Brewery","310 Stillwater Rd",,Willernie,MN,55090-4400,"(651) 653-4733",brewpub,http://www.roman-market.com
"Roundhouse Brewery","1551 Northern Pacific Rd",,Brainerd,MN,56401-2687,"(218) 454-2739",micro,http://roundhousebrew.com
"Rustech Brewing Company","105 W 3rd St PO Box 1310",,Monticello,MN,55362-8792,"(763) 272-1593",micro,http://www.rustechbrewing.com
"Saint Croix Beer Co. DBA Saint Croix Brewing Co.","363 Webster St",,"Saint Paul",MN,55102-3651,"(651) 387-0708",contract,http://www.stcroixbeer.com
"Schram Vineyards Winery & Brewery","8785 Airport Rd",,Waconia,MN,55387-9634,"(952) 442-5105",micro,http://schramvineyards.com
"Shakopee Brewhall","124 1st Ave E",,Shakopee,MN,55379-1310,"(952) 582-4292",micro,http://www.shakopeebrewhall.com
"Sisyphus Brewing","712 Ontario Ave W #100",,Minneapolis,MN,55403-1138,"(612) 444-8674",micro,http://www.sisyphusbrewing.com
"Sociable Cider Werks","1500 Fillmore St NE",,Minneapolis,MN,55413-1657,"(612) 758-0105",micro,http://www.sociablecider.com
"Spilled Grain Brewhouse","300 Elm St E",,Annandale,MN,55302-9406,"(320) 274-1129",micro,http://www.spilledgrainbrewhouse.com
"Spiral Brewery","111 2nd St E",,Hastings,MN,55033-1265,"(651) 212-7160",micro,http://spiralbrewery.com
"Stacked Deck Brewing","421 Cedar St",,"Saint Paul",MN,55101-1712,"(651) 214-5448",micro,http://www.stackeddeckbrewing.com
"Starry Eyed Brewing Company","16757 11th St NE",,"Little Falls",MN,56345-2203,"(320) 232-0382",micro,http://www.starryeyedbrewing.com
"Steel Toe Brewing","4848 W 35th St",,"St Louis Park",MN,55416-2610,"(952) 955-9965",micro,http://www.steeltoebrewing.com
"Summit Brewing Co","910 Montreal Cir",,"Saint Paul",MN,55102-4246,"(651) 265-7800",regional,http://www.summitbrewing.com
"Surly Brewing Company","4811 Dusharme Dr",,"Brooklyn Ctr",MN,55429-3940,"(763) 535-3330",regional,http://www.surlybrewing.com
"Surly Brewing Company","520 Malcolm Ave SE",,Minneapolis,MN,55414-3312,"(763) 535-3330",regional,
"Take 16 Brewing Company","509 E Main St",,Luverne,MN,56156-1905,"(866) 663-9986",micro,http://www.take16beer.com
"Talking Waters Brewing Co.","205 S 1st St",,Montevideo,MN,56265-1412,"(320) 321-1444",micro,http://www.talkingwatersbrewing.com
"Tanzenwald Brewing Company","103 Water St N",,Northfield,MN,55057-2121,"(507) 366-2337",brewpub,http://www.tanzenwald.com
"Tavern Brewery","200 W Lake Dr",,"Detroit Lakes",MN,56501-3917,"(218) 847-1891",brewpub,
"The Freehouse","701 Washington Ave N Ste 101",,Minneapolis,MN,55401-2820,"(612) 339-7011",brewpub,http://www.freehousempls.com
"The Lab, LLC",,,"Saint Paul",MN,55110,"(651) 313-6888",planning,http://www.thelabmn.com
"Thesis Beer Project",,,Rochester,MN,55902,"(507) 993-6444",planning,http://www.thesis.beer
"Third Street Brewhouse","219 Red River Ave N",,"Cold Spring",MN,56320-1624,"(320) 685-3690",regional,http://www.thirdstreetbrewhouse.com
"Three Twenty Brewing Co.","135 5th St SE",,"Pine City",MN,55063-1510,"(320) 322-1237",micro,http://www.threetwentybrewing.com
"Tin Whiskers Brewing","125 9th St E Unit 127",,"Saint Paul",MN,55101-2308,"(651) 330-4734",micro,
"Torg Brewery","8421 University Ave NW",,Minneapolis,MN,55432,"(763) 639-0539",micro,http://www.torgbrewery.com
"Twelve Down Brewing",,"St. Louis Park, MN",,,,"(612) 590-4704",planning,
"U4ic Brewing, Inc.","23436 Union Trl Ste 1",,"Belle Plaine",MN,56011-9008,"(952) 873-3303",micro,http://www.u4icbrewing.com
"Uncommon Loon Brewing Company","10825 Lake Blvd",,"Chisago City",MN,55013,"(651) 403-1657",micro,http://www.uncommonloonbrewing.com
"Under Pressure Brewing Company","8806 Seventh Ave. N",,"Golden Valley",MN,55427,"(612) 850-9779",micro,http://www.underpressurebrewing.com
"Union 32 Crafthouse","2864 Highway 55 Ste 200",,Eagan,MN,55121-1455,"(952) 807-9777",micro,http://www.union32crafthouse.com
"Union Pizza & Brewing Co","114 S Union Ave",,"Fergus Falls",MN,56537-,"(218) 998-8888",brewpub,http://www.unionpizzaandbrewing.com
"Unmapped Brewing Co.","14625 Excelsior Blvd",,Minnetonka,MN,55345-6605,"(952) 500-9622",micro,http://www.unmappedbrewing.com
"Urban Growler Brewing Co","2325 Endicott St",,"Saint Paul",MN,55114-1223,"(651) 340-5793",brewpub,http://www.urbangrowlerbrewing.com
"Ursa Minor Brewing","2415 W Superior St Suite B",,Duluth,MN,55806,"(218) 269-0537",brewpub,http://www.ursaminorbrewing.com
"Utepils Brewing Co","225 Thomas Ave N Apt 700",,Minneapolis,MN,55405-3397,"(612) 249-7800",micro,http://www.utepilsbrewing.com
"Venn Brewing Company","3550 E 46th St Suite 140",,Minneapolis,MN,55406-3965,,micro,http://www.vennbrewing.com
"Vine Park Brewing Co","1254 7th St W",,"Saint Paul",MN,55102-4123,"(651) 228-1355",micro,http://www.vinepark.com
"Voyageur Brewing Co","233 W Hwy 61",,"Grand Marais",MN,55604,"(218) 387-3163",brewpub,
"Wabasha Brewing Company","429 Wabasha St S",,"Saint Paul",MN,55107-1126,"(651) 224-2102",micro,http://www.wabashabrewing.com
"Waconia Brewing Company","255 W Main St",,Waconia,MN,55387-1025,"(612) 888-2739",micro,http://www.waconiabrewing.com
"Waldmann Brewery","445 Smith Ave N",,"Saint Paul",MN,55102-2725,"(651) 222-1857",brewpub,http://www.waldmannbrewery.com
"Ward House Brewery","111 Elm Ave W",,Waseca,MN,56093-2433,,micro,http://www.wardhousebrewing.com
"Wayzata Brew Works, LLC","294 Grove Lane E, ste 150",,"wayzata ",MN,55391,"(952) 737-1023",micro,http://www.wayzatabrewworks.com
"Wicked Wort Brewing Company","4165 W Broadway Ave",,Minneapolis,MN,55422-1823,"(763) 302-9849",brewpub,http://www.wickedwortbrewingco.com
"Wild Mind Artisan Ales","6031 Pillsbury Ave S",,Minneapolis,MN,55419-2328,"(612) 345-4514",micro,http://www.wildmindales.com
"Wooden Hill Brewing Company","7421 Bush Lake Road",,Edina,MN,55439,"(952) 960-9663",brewpub,http://www.woodenhillbrewing.com
